{"type":"FeatureCollection","name":"admin2_chn_cn-ah","adm0A3":"CHN","parentCode":"CN-AH","parentName":"Anhui","bbox":[114.84595385700004,29.416350899000065,119.60824717000003,34.62676846900007],"features":[{"type":"Feature","properties":{"code":"CN034010","name":"Anqing","label":"Anqing · 安庆市","type":"Prefecture-level city","parentCode":"CN-AH"},"geometry":{"type":"Polygon","coordinates":[[[117.02533247500003,31.263306427000032],[117.05242454900008,31.244325125000046],[117.07391833800011,31.222503493000033],[117.09867633900001,31.195828981000034],[117.1129299370001,31.164827045000038],[117.11506752600008,31.124081696000076],[117.12654438900006,31.07444734200004],[117.18011138600002,31.060810202000027],[117.19811648500001,31.036895712000046],[117.2232067540001,31.003236076000064],[117.26341967500002,30.98369550800004],[117.29837949900002,30.982060343000057],[117.34345376100009,30.986592574000042],[117.37328674900004,30.97007893400007],[117.41138594400002,30.968177788000048],[117.45162974000004,30.983184487000074],[117.49372712500008,30.99526705900007],[117.52290655600007,30.977841811000076],[117.56751886600011,30.977247010000042],[117.60633670300001,30.971533762000035],[117.64240403200006,30.96509616000003],[117.67731355600006,30.957812859000057],[117.72214198900008,30.953508184000043],[117.72650399300005,30.900935986000036],[117.72627901800001,30.860780615000067],[117.70364292800002,30.83573903300004],[117.66958997600011,30.791249451000056],[117.63431626700003,30.772245662000046],[117.58562977500003,30.75701773000003],[117.55052354500003,30.750446491000048],[117.5176712660001,30.733994718000076],[117.47390216000008,30.714201349000064],[117.42266695700005,30.716187846000025],[117.37306993200002,30.707413648000056],[117.3210442080001,30.695104254000057],[117.27804352100009,30.677028518000043],[117.24429851100001,30.649950183000044],[117.20236876100012,30.625769123000055],[117.20701756900007,30.58878659000004],[117.21506989900001,30.556302474000063],[117.21234713000001,30.524485991000063],[117.21040339700005,30.501754611000024],[117.19846451900003,30.488778953000065],[117.18526988100007,30.47322888800005],[117.13392626100006,30.466334879000044],[117.09836340400011,30.48229989400005],[117.06621934200007,30.489231621000044],[117.03094738700008,30.490834962000065],[116.99657611100008,30.478511628000035],[116.94433570100011,30.443431710000027],[116.91276749100007,30.42072465700005],[116.88709918300003,30.40498502300005],[116.88085856500004,30.36986457300003],[116.89588296200009,30.336473751000028],[116.9082369790001,30.308809335000035],[116.91630490500006,30.27451909800004],[116.90768889000003,30.248334527000054],[116.88865980000003,30.21734131100004],[116.86661936500002,30.18794057100007],[116.84662563300003,30.16393789500006],[116.82979434100002,30.13970812900004],[116.81314818500005,30.111300115000063],[116.79057164500011,30.08746633100003],[116.74748182400003,30.028964838000036],[116.69688300300004,30.059428963000073],[116.61005447700006,30.064625782000064],[116.6089808690001,30.063845405000052],[116.59156801800009,30.055249968000055],[116.58223335600007,30.04366692700006],[116.56495922500005,29.99619756100003],[116.56134874100007,29.957866586000023],[116.55977683000003,29.93758307400003],[116.55476726400002,29.931260844000064],[116.53573120700003,29.91085515900005],[116.49940436700001,29.892522154000062],[116.45826751200002,29.878852143000074],[116.41883100100006,29.861765796000043],[116.38867409000011,29.84745977600005],[116.37256353100008,29.83953685800003],[116.34077125900001,29.82035495100007],[116.29417870000009,29.79315729700005],[116.24275570200007,29.778870254000026],[116.20678128600002,29.781348294000054],[116.19901151900001,29.790023364000035],[116.18413243700002,29.798525581000035],[116.16547349400003,29.808329229000037],[116.14962259000004,29.812474106000025],[116.13103661500008,29.814558239000064],[116.09650707900005,29.810322402000054],[116.07760154000005,29.800093994000065],[116.09277547500005,29.831534763000036],[116.09242358200004,29.89479990600006],[116.06568171800006,29.937857439000027],[116.06200844800003,29.963854724000043],[116.06421824200004,30.000266777000036],[116.06515716500007,30.033175157000073],[116.06330003400001,30.054628781000076],[116.05868777400008,30.08243978200005],[116.0490262400001,30.130947900000024],[116.03319776100011,30.18239215500006],[115.99008335100007,30.235029100000077],[115.93961534900006,30.288850272000047],[115.91083564400003,30.300772076000044],[115.89153544800001,30.300538801000073],[115.86235300800001,30.300183450000077],[115.8610414530001,30.313586353000062],[115.86833034800009,30.330184536000047],[115.88780445500004,30.35693653800007],[115.90283532000001,30.397224204000054],[115.89205273100004,30.435152410000057],[115.88797446800004,30.449467269000024],[115.87052383700006,30.511598460000073],[115.87259688800009,30.547094496000057],[115.84972272100003,30.571191681000073],[115.7797998210001,30.604375830000038],[115.75343808200012,30.660615359000076],[115.75272739700006,30.663711351000075],[115.74075411800004,30.71627183100003],[115.7570665070001,30.74227211300007],[115.81102893100001,30.76507761700003],[115.82218124400003,30.76978284000006],[115.81060519700009,30.80761026700003],[115.80316912100011,30.843487680000067],[115.82537236500002,30.87900379100006],[115.86540871200009,30.874648355000033],[115.90078959700008,30.881145513000035],[115.95128927300004,30.91009693600006],[115.98390410500008,30.94069173500003],[116.02347721000001,30.980749669000033],[116.02094092400012,30.991526461000035],[116.01196136100009,30.99685719300004],[116.04536488000008,31.03310274900008],[116.06656110100005,31.059431372000063],[116.0854350090001,31.08313880700007],[116.12357433900002,31.101476734000073],[116.16320131300006,31.10449667200004],[116.18497275100003,31.077295821000064],[116.22528877200011,31.07609644200005],[116.25510939000003,31.10276639600005],[116.27617796400011,31.12630432000003],[116.30689144500002,31.150593093000055],[116.33517419100008,31.164436115000058],[116.43622925400007,31.169349227000055],[116.4457895910001,31.13690938900004],[116.48267427600001,31.151529614000026],[116.51456079400009,31.176155127000072],[116.55151496500002,31.165855029000056],[116.55668321200005,31.138767319000067],[116.53575901400006,31.105122128000062],[116.52779867900006,31.067377124000075],[116.60172383300005,31.067034668000076],[116.63943335700003,31.066336342000056],[116.67416262000006,31.055681037000056],[116.70982508100008,31.06201280600004],[116.75095378700007,31.07626414300006],[116.7928888240001,31.08122135600007],[116.81836398600001,31.110825248000026],[116.84475198900009,31.132522453000036],[116.88502621200007,31.124189727000044],[116.92077238500008,31.142910323000024],[116.94072213200002,31.175643257000047],[116.95418426600008,31.212979174000054],[116.96057983500009,31.242967598000064],[116.98407796000004,31.26714002600005],[117.02533247500003,31.263306427000032]]]}},{"type":"Feature","properties":{"code":"CN034020","name":"Bengbu","label":"Bengbu · 蚌埠市","type":"Prefecture-level city","parentCode":"CN-AH"},"geometry":{"type":"Polygon","coordinates":[[[117.93815392200008,33.310784719000026],[117.93399372200008,33.289555094000036],[117.92159339500006,33.272533657000054],[117.91161570500003,33.245609337000076],[117.91461474200003,33.217052616000046],[117.92844816500008,33.20028482500004],[117.94041227500009,33.18717129800007],[117.97651292300009,33.17531002000004],[118.00367894700003,33.14888070500007],[118.0218326700001,33.131842978000066],[118.04920387000004,33.13974874400003],[118.04131515400002,33.110251636000044],[118.02518623000003,33.086636842000075],[117.99478321000004,33.06734321500005],[117.9953766000001,33.03645341300006],[117.9810631580001,33.009010785000044],[117.94533010400005,32.995643923000046],[117.91056990900006,32.99692205100007],[117.85798032500009,33.05294743600007],[117.793910331,33.02925690200004],[117.76475680500005,33.04295586500007],[117.73410801500006,33.014876429000026],[117.69769430100007,33.00517294000008],[117.672811421,32.969283561000054],[117.66033734400003,32.93707054300006],[117.63232672800007,32.918436573000065],[117.59111228300003,32.93115573500006],[117.56304071900001,32.94472917100006],[117.51946153900008,32.97232412900007],[117.49465136100002,32.91936481500005],[117.47715749400004,32.885203845000035],[117.45839682500002,32.85480797300005],[117.42911875800007,32.83898672400005],[117.38277465300007,32.83221554100004],[117.33619573600004,32.83419243600002],[117.29977497100003,32.834496099000035],[117.26573645600001,32.838428658000055],[117.24465040500002,32.797927634000075],[117.23609374000011,32.764938854000036],[117.19864487500001,32.74228103000007],[117.11881135100009,32.72732431400004],[117.1201905160001,32.76042309700006],[117.11738496700002,32.77344396700005],[117.09884159800004,32.77078540200006],[117.07587266000007,32.76563183800005],[117.04945129500004,32.749982988000056],[117.01058661200011,32.75866119600005],[116.9851361630001,32.783428240000035],[116.94995877400004,32.80286786700003],[116.91243622100001,32.82062114000007],[116.87639327500005,32.836881928000025],[116.84482164600001,32.85466435200004],[116.81805394900005,32.87763468500003],[116.79270548000011,32.89820070900004],[116.76521131200002,32.913381584000035],[116.7337071280001,32.93250619600008],[116.7393236040001,32.96525186300005],[116.76479074600002,32.994359634000034],[116.79635665500007,33.01846429700004],[116.78231508200008,33.05021599500003],[116.74298787500004,33.05560514500007],[116.72846910300007,33.08232560500005],[116.73475472500002,33.116394780000064],[116.75274646200012,33.146924940000076],[116.7845321210001,33.17284920000003],[116.80696181200005,33.19755982000004],[116.80147766100004,33.22781328100007],[116.79207088100009,33.25694963900003],[116.78351743200005,33.295687299000065],[116.81902067300007,33.28917048900007],[116.85373228000003,33.30430887700004],[116.86369009600003,33.34867887400003],[116.88056560200005,33.31822456500004],[116.92590236100011,33.29354491200007],[116.96268506600006,33.27723832700008],[116.99694722000004,33.26938016100007],[117.04197710000005,33.25984727500003],[117.07615115400006,33.30245324300006],[117.07097446900002,33.32902239200007],[117.05899265700009,33.38966456900005],[117.0993998560001,33.38729236000006],[117.13360891000002,33.389978177000046],[117.15126468800008,33.42047838900004],[117.17915483900003,33.437383673000056],[117.20202134200008,33.45877505200008],[117.22177693700007,33.48221655400005],[117.23496323400002,33.48609020300006],[117.30598056400004,33.479703405000066],[117.33945592700002,33.463067988000034],[117.36549361800007,33.43775375300004],[117.37896706600009,33.412875986000074],[117.40002199100002,33.37595283200005],[117.41766452800005,33.348926076000055],[117.4534440220001,33.32886390500005],[117.48814847100004,33.319911208000065],[117.533968834,33.32393568200007],[117.60654399200007,33.32273485400003],[117.6534575600001,33.32046510300006],[117.6841520910001,33.29380817800006],[117.71385100500004,33.27365573700007],[117.75453709800001,33.27567554400002],[117.79182536200005,33.27656399000006],[117.82699963300001,33.29416287400005],[117.86115155300001,33.31228945600003],[117.93815392200008,33.310784719000026]]]}},{"type":"Feature","properties":{"code":"CN034030","name":"Bozhou","label":"Bozhou · 亳州市","type":"Prefecture-level city","parentCode":"CN-AH"},"geometry":{"type":"Polygon","coordinates":[[[116.37407599900007,33.789042176000066],[116.42274996700007,33.764960571000074],[116.44925184400006,33.74076273600008],[116.47187986000006,33.70991877800003],[116.47988880600008,33.675407765000045],[116.48360773000002,33.64208761000003],[116.51687332000006,33.62065490700007],[116.53897467200011,33.59074292500003],[116.53671151000003,33.55826063000006],[116.52397549200009,33.53151147400007],[116.51887367800009,33.50426874400006],[116.52212363600006,33.46590608500003],[116.56454640100003,33.46868484600003],[116.59683337800004,33.474401819000036],[116.6405393010001,33.47292721000008],[116.68928889500012,33.460535167000046],[116.72715002900009,33.44884157600006],[116.76142156000003,33.427714243000025],[116.78785455800005,33.392859920000035],[116.79428896500008,33.35473125800007],[116.78389439400007,33.32416777100008],[116.78351743200005,33.295687299000065],[116.79207088100009,33.25694963900003],[116.80147766100004,33.22781328100007],[116.80696181200005,33.19755982000004],[116.7845321210001,33.17284920000003],[116.75274646200012,33.146924940000076],[116.73475472500002,33.116394780000064],[116.72846910300007,33.08232560500005],[116.74298787500004,33.05560514500007],[116.78231508200008,33.05021599500003],[116.79635665500007,33.01846429700004],[116.76479074600002,32.994359634000034],[116.7393236040001,32.96525186300005],[116.7337071280001,32.93250619600008],[116.66071276800005,32.944253737000054],[116.62409544500008,32.94253241600006],[116.58021844600012,32.92609887100008],[116.54811436600005,32.919916030000024],[116.51470741500009,32.93634495300006],[116.49502840800005,32.967049591000034],[116.47021488900009,32.995320384000024],[116.43815441600009,33.01531902800008],[116.36871444400003,33.03170954800004],[116.37198725500002,32.99288493300003],[116.35989497100002,32.95917008500004],[116.35945161300003,32.92792682700008],[116.35444796400009,32.89137806400004],[116.315253772,32.86774085500008],[116.27606455700004,32.86056058200006],[116.2412726550001,32.873783170000024],[116.19437463700001,32.88544993000005],[116.14622685900008,32.90866697200005],[116.12459567400003,32.93023140400004],[116.0929592970001,32.94275279900006],[116.05668888200012,32.94497633200007],[116.04021352200004,32.97034415200005],[116.02452872200001,32.99887751400007],[116.01331558400011,33.028977327000064],[115.99493257900008,33.05812595700007],[115.96916908500009,33.08358189200004],[115.9341575310001,33.095795241000076],[115.88694826800008,33.10551114900005],[115.84225034000008,33.119653320000054],[115.82550416400011,33.184972197000036],[115.83224404200007,33.25694391700006],[115.85551333100011,33.26946842800004],[115.86797407900008,33.28705351600007],[115.86960418900003,33.30970745700006],[115.85975534400006,33.328366680000045],[115.84958084400012,33.34249525100006],[115.85023804800005,33.351553429000035],[115.85317404800003,33.39233290000004],[115.83182159300009,33.40699267700006],[115.76148577300012,33.44215678000006],[115.72956675300009,33.46638985100003],[115.66936628300004,33.48738470700005],[115.62558195200006,33.50304441800006],[115.592673794,33.51364838600006],[115.58274066100012,33.532282964000046],[115.56934038200006,33.57346571700003],[115.56669851000004,33.58159180600006],[115.56216434600003,33.593337521000024],[115.5436952450001,33.61529382700007],[115.55653207000012,33.62896891300005],[115.55044036900006,33.65664773100008],[115.5782261810001,33.68214390400004],[115.53222319000008,33.72197096300005],[115.53269186500006,33.72744562300005],[115.53559430700011,33.761681632000034],[115.5685349790001,33.78078461000007],[115.56762081300008,33.802950414000065],[115.5689008170001,33.82503152100003],[115.53225768200002,33.83793449900003],[115.51711680100004,33.86152650900004],[115.52746087700007,33.88857547300006],[115.5347085840001,33.91927749000007],[115.52875377200007,33.96907290300004],[115.54212782200011,34.01015925300004],[115.5608282710001,34.028923475000056],[115.61379183800011,34.04901612000003],[115.64248847100009,34.057471468000074],[115.66426027300008,34.06388040400003],[115.70240307000006,34.07478248500007],[115.76884975400003,34.04475245800006],[115.78610567700002,34.03695186200002],[115.80189626000003,33.988520970000025],[115.83387432900008,33.989004341000054],[115.88958046800008,33.999139816000024],[115.92365509600006,33.975702854000076],[115.92654450300006,33.973724882000056],[115.95554116000005,33.94419927800004],[115.95579929300004,33.91320423500002],[115.97809057500001,33.91759204500005],[116.00237719900008,33.901529968000034],[116.0302505620001,33.85520759800005],[116.02718321000009,33.80663875400006],[116.04280881700004,33.77587672300007],[116.05674515600003,33.753152441000054],[116.0632389110001,33.750754534000066],[116.1028774240001,33.73613707800007],[116.13089942300007,33.72785462500008],[116.16173098500008,33.71235963600003],[116.20356344100003,33.73091826600006],[116.2266914270001,33.748503424000035],[116.25032103100011,33.75721054300004],[116.27367904200003,33.76150080100007],[116.29656179000006,33.75871991300005],[116.32829427500008,33.77325269000005],[116.3633787980001,33.78851330200007],[116.37407599900007,33.789042176000066]]]}},{"type":"Feature","properties":{"code":"CN034040","name":"Chizhou","label":"Chizhou · 池州市","type":"Prefecture-level city","parentCode":"CN-AH"},"geometry":{"type":"Polygon","coordinates":[[[118.0910815530001,30.656964747000075],[118.07145296500005,30.635899787000028],[118.04355779700006,30.611792208000054],[118.0108445080001,30.58159997200005],[117.98507971000004,30.55176672600004],[117.95826287000011,30.522007856000073],[117.93338233700001,30.47961420300004],[117.92950710700006,30.45126556500003],[117.93829116400002,30.417748717000052],[117.94632721000005,30.38706336000007],[117.96156827300001,30.359959205000052],[117.95209902900001,30.333899157000076],[117.93008265300011,30.303748905000077],[117.90208384400012,30.28747862000006],[117.87054551500012,30.27795144600003],[117.82954195500008,30.25806380800003],[117.84378114600008,30.225965432000066],[117.79501191200006,30.184722161000025],[117.74822554200011,30.165025807000063],[117.71495854300008,30.15328254600007],[117.68776939400004,30.133659728000055],[117.66390462300001,30.110078190000024],[117.60463027000003,30.09014260300006],[117.5757712080001,30.107612497000048],[117.532712446,30.108591861000036],[117.52326618600011,30.081109266000055],[117.51634326500005,30.052503882000053],[117.47985447500002,30.03909540400008],[117.43478300400011,30.029560961000072],[117.39524232400004,30.033922964000055],[117.36593580600004,30.024100949000058],[117.33041950500001,30.01519697200007],[117.28765946700003,30.013292524000065],[117.2496010530001,29.999466260000077],[117.21848303700006,29.986503662000075],[117.18612441200003,29.92407379100007],[117.16450949800003,29.93264165100004],[117.1178759820001,29.91198212200004],[117.10566717800009,29.902832370000056],[117.07420485300008,29.844797807000077],[117.04798758100003,29.83014978800003],[117.0713798050001,29.805728679000026],[117.08059487000003,29.788296414000058],[117.0833761240001,29.74000772900007],[117.06591569400007,29.686552428000027],[117.06349265800009,29.685837898000045],[117.03278429700003,29.67672660200003],[116.9840919720001,29.668606521000072],[116.94288916200003,29.66274523800007],[116.91633244500008,29.641843229000074],[116.88014679000003,29.61786423800004],[116.84241752700007,29.60109212800006],[116.82257800500008,29.586062353000045],[116.7891976190001,29.571719992000055],[116.76030093300005,29.576759715000037],[116.75459440700001,29.600235300000065],[116.70029092800007,29.585144725000077],[116.69227077800008,29.60433576500003],[116.66790476200003,29.662551656000062],[116.65204137400008,29.722175123000056],[116.67338328000005,29.759439158000077],[116.73043222400008,29.782420692000073],[116.80501064000009,29.84637315300006],[116.84618621900006,29.895950737000078],[116.86502443800009,29.94042574300005],[116.84407388700004,29.970909090000077],[116.80722437800011,29.98437682100007],[116.75337395800011,30.025413369000034],[116.74748182400003,30.028964838000036],[116.79057164500011,30.08746633100003],[116.81314818500005,30.111300115000063],[116.82979434100002,30.13970812900004],[116.84662563300003,30.16393789500006],[116.86661936500002,30.18794057100007],[116.88865980000003,30.21734131100004],[116.90768889000003,30.248334527000054],[116.91630490500006,30.27451909800004],[116.9082369790001,30.308809335000035],[116.89588296200009,30.336473751000028],[116.88085856500004,30.36986457300003],[116.88709918300003,30.40498502300005],[116.91276749100007,30.42072465700005],[116.94433570100011,30.443431710000027],[116.99657611100008,30.478511628000035],[117.03094738700008,30.490834962000065],[117.06621934200007,30.489231621000044],[117.09836340400011,30.48229989400005],[117.13392626100006,30.466334879000044],[117.18526988100007,30.47322888800005],[117.19846451900003,30.488778953000065],[117.21040339700005,30.501754611000024],[117.21234713000001,30.524485991000063],[117.21506989900001,30.556302474000063],[117.20701756900007,30.58878659000004],[117.20236876100012,30.625769123000055],[117.24429851100001,30.649950183000044],[117.27804352100009,30.677028518000043],[117.3210442080001,30.695104254000057],[117.37306993200002,30.707413648000056],[117.42266695700005,30.716187846000025],[117.47390216000008,30.714201349000064],[117.5176712660001,30.733994718000076],[117.55052354500003,30.750446491000048],[117.58562977500003,30.75701773000003],[117.63431626700003,30.772245662000046],[117.66958997600011,30.791249451000056],[117.70364292800002,30.83573903300004],[117.70196843000008,30.785827537000046],[117.74511283700008,30.72358555200003],[117.83043237800007,30.77557011400006],[117.85638972700008,30.791090256000075],[117.88645860500003,30.81044700700005],[117.92124813600003,30.823873039000034],[117.94775022600004,30.84441633800003],[117.97626177900008,30.811209982000037],[118.00458751000008,30.781707058000052],[118.03417317800006,30.759482107000053],[118.05892074200005,30.736711800000023],[118.08881706900002,30.717683443000055],[118.10764822300007,30.689366509000024],[118.0910815530001,30.656964747000075]]]}},{"type":"Feature","properties":{"code":"CN034050","name":"Chuzhou","label":"Chuzhou · 滁州市","type":"Prefecture-level city","parentCode":"CN-AH"},"geometry":{"type":"Polygon","coordinates":[[[118.24287586500009,32.949306283000055],[118.24834655000006,32.89371510600006],[118.26211825300004,32.85653954500003],[118.27654899400011,32.823701339000024],[118.2871284260001,32.79642237400003],[118.32863926400012,32.76279636100003],[118.33538971100006,32.72953270800008],[118.36358205500005,32.71713241300006],[118.38348065800005,32.73344701100007],[118.384714228,32.73446490900005],[118.42132683500006,32.742841261000024],[118.44668211800001,32.73504032000005],[118.46852560100001,32.73633371200003],[118.51421102400002,32.73700781700006],[118.5854743650001,32.737880235000034],[118.61971572300001,32.73828656400008],[118.65333999100005,32.72635621200004],[118.70792284800007,32.740591358000074],[118.7174257580001,32.76040263900006],[118.71333151900001,32.79707951300003],[118.71959550300005,32.81709875200005],[118.7406376030001,32.82105982300004],[118.78181263600004,32.86455447800006],[118.78363549500011,32.89462814500007],[118.78622997100001,32.93263748800007],[118.80861042800007,32.96136635200003],[118.83501705000003,32.96407749000008],[118.88123322700005,32.95748106600007],[118.88962144000004,32.95786241600007],[118.91297405600005,32.95892947600004],[118.94821842400006,32.96280353900005],[118.98341735400004,32.95512529000007],[119.0284834470001,32.89348504000003],[119.06324330900009,32.86005296700006],[119.08612420700001,32.86028337600004],[119.13416245000008,32.84013281000006],[119.13677353000003,32.844401048000066],[119.18226147600001,32.820851266000034],[119.18277296800011,32.81981280400004],[119.2029774020001,32.77855721900005],[119.19588763500008,32.74084875600005],[119.18204861900006,32.711590181000076],[119.17307484100002,32.68733040300003],[119.1786657560001,32.64607177900007],[119.17678921600009,32.59486601700007],[119.17619865900008,32.578712274000054],[119.14130272700004,32.55533532000004],[119.1296810020001,32.52591907200008],[119.12890858600008,32.48598153000006],[119.09722119100002,32.45082155500006],[119.05933777900009,32.44007411100006],[119.05184271500002,32.448039351000034],[119.02896748800003,32.47235009800005],[119.00657218000003,32.49785689000004],[118.97178275600004,32.49664375300006],[118.94433253700004,32.52603557800006],[118.92750502500007,32.564472601000034],[118.8938808910001,32.57559883300007],[118.84749307100003,32.555578506000074],[118.7756437700001,32.59762272100005],[118.71062787300002,32.59830900500003],[118.68838332100006,32.59193284000003],[118.67272112100011,32.587443044000054],[118.63275665700007,32.58912682000005],[118.58757865500002,32.59291618100008],[118.54612411500011,32.578685789000076],[118.53096998300009,32.55566447600006],[118.5454747010001,32.525431325000056],[118.57257799800004,32.50238455600004],[118.59278003600002,32.48687965800008],[118.65663806600003,32.48632244100003],[118.67033363500002,32.43657604100002],[118.66209567500005,32.38380009300005],[118.65669445300011,32.33794571800007],[118.65468470200005,32.24714214800008],[118.65437392600006,32.23323725100005],[118.62620678500002,32.19773593800005],[118.61076899400007,32.198734787000035],[118.57724589500003,32.173537657000054],[118.48665114100004,32.18554044900003],[118.45759767000004,32.186185042000034],[118.45815258200003,32.177376923000054],[118.44299950800007,32.117904784000075],[118.42313366300004,32.077390603000026],[118.41353100000003,32.079798812000035],[118.39615676400001,32.07189303600006],[118.37238777900006,32.055310864000035],[118.36004588700007,32.04248694200004],[118.35330773100009,32.02327966200005],[118.31802432200004,32.00891648500004],[118.3061516360001,32.00061782000006],[118.28242817000012,31.984015644000067],[118.25778153200008,31.95834400500007],[118.21038127200006,31.925111601000026],[118.1862340880001,31.903954863000024],[118.15250738300006,31.897138418000054],[118.1183494930001,31.885778839000068],[118.09600390700007,31.882735706000062],[118.07234939800003,31.86608738800004],[118.0605295150001,31.857762180000066],[118.04783198700011,31.840368426000055],[118.01457496100011,31.838046637000048],[118.0036254690001,31.838779644000056],[117.97257782500003,31.85911094100004],[117.9414997130001,31.87943011400006],[117.93906058200002,31.88087267900005],[117.93906080400006,31.88087375500004],[117.88937702200008,31.91025682600008],[117.84601761500005,31.917673816000047],[117.83679304500004,31.936525241000027],[117.81702710200011,31.960622563000072],[117.78716669000005,31.99450029700006],[117.89601908800012,32.21722592500004],[117.87081889300009,32.243661624000026],[117.77882720900004,32.247473024000044],[117.74527172600006,32.24679830300005],[117.70684712700006,32.24601778500005],[117.6590220170001,32.24316668500006],[117.62623859100006,32.23917447500003],[117.58615702800012,32.23248922500005],[117.54746029500006,32.217860819000066],[117.51102233100005,32.209500278000064],[117.46823651300008,32.21357688200004],[117.43045133900011,32.23615411500003],[117.41915213800007,32.270147732000055],[117.39152078200004,32.29749928700005],[117.39834543100005,32.334767224000075],[117.42178497400005,32.36483570900003],[117.38651907700012,32.36924648400003],[117.34683467700006,32.384096799000076],[117.35611825400008,32.41335847300007],[117.38000491700006,32.44801074900005],[117.3667105180001,32.47890183000004],[117.32330323800011,32.47789306200008],[117.2888888540001,32.463333171000045],[117.24685903000011,32.453906181000036],[117.21264420000011,32.48166991000005],[117.19928512900003,32.50656188200003],[117.19229374400004,32.53606025300007],[117.18219918300008,32.578665691000026],[117.1779275130001,32.61993587500007],[117.13606099300011,32.650177522000035],[117.1242975450001,32.692885518000026],[117.11881135100009,32.72732431400004],[117.19864487500001,32.74228103000007],[117.23609374000011,32.764938854000036],[117.24465040500002,32.797927634000075],[117.26573645600001,32.838428658000055],[117.29977497100003,32.834496099000035],[117.33619573600004,32.83419243600002],[117.38277465300007,32.83221554100004],[117.42911875800007,32.83898672400005],[117.45839682500002,32.85480797300005],[117.47715749400004,32.885203845000035],[117.49465136100002,32.91936481500005],[117.51946153900008,32.97232412900007],[117.56304071900001,32.94472917100006],[117.59111228300003,32.93115573500006],[117.63232672800007,32.918436573000065],[117.66033734400003,32.93707054300006],[117.672811421,32.969283561000054],[117.69769430100007,33.00517294000008],[117.73410801500006,33.014876429000026],[117.76475680500005,33.04295586500007],[117.793910331,33.02925690200004],[117.85798032500009,33.05294743600007],[117.91056990900006,32.99692205100007],[117.94533010400005,32.995643923000046],[117.9810631580001,33.009010785000044],[117.9953766000001,33.03645341300006],[117.99478321000004,33.06734321500005],[118.02518623000003,33.086636842000075],[118.04131515400002,33.110251636000044],[118.04920387000004,33.13974874400003],[118.07114267300005,33.146173513000065],[118.09027730100001,33.15357729200008],[118.12692811900001,33.16177044400007],[118.14790285600009,33.19702865900007],[118.17308128900004,33.20164489500007],[118.19582127900003,33.19656701300005],[118.20064329000002,33.18678142700003],[118.19660242400005,33.14683774400004],[118.19972992900011,33.12020953600006],[118.1991418020001,33.10014188900004],[118.20097725500011,33.079912172000036],[118.19958449400008,33.06620202700003],[118.20450802300002,33.04300286000006],[118.21534468900006,33.006775137000034],[118.22173507600007,32.98859743700007],[118.22942870100007,32.96914488700003],[118.24287586500009,32.949306283000055]]]}},{"type":"Feature","properties":{"code":"CN034060","name":"Fuyang","label":"Fuyang · 阜阳市","type":"Prefecture-level city","parentCode":"CN-AH"},"geometry":{"type":"Polygon","coordinates":[[[116.35444796400009,32.89137806400004],[116.36759130500002,32.87978373200008],[116.36476626700005,32.84352934300006],[116.37585287800005,32.842945385000064],[116.42491022900003,32.82717654600003],[116.44022636700004,32.80273684600007],[116.43952590000004,32.76874507400004],[116.446641537,32.724597215000074],[116.46775464600012,32.69195446900005],[116.5039908230001,32.67165866300007],[116.51705644300011,32.64044782800005],[116.5286048260001,32.61071588100003],[116.58131239400007,32.582431704000044],[116.55255268300004,32.554857699000024],[116.51548768900011,32.52691314300006],[116.4981143220001,32.494458043000066],[116.48011997000003,32.467560605000074],[116.43828822600005,32.43450848900005],[116.39416234700002,32.43686692600005],[116.35074653800007,32.44827009200003],[116.34040796400006,32.457920424000065],[116.3197465400001,32.47721906000004],[116.2990616940001,32.49651214600004],[116.27733463600009,32.50220027300003],[116.25422601800005,32.48974606300004],[116.24145535600007,32.467645479000055],[116.23938537300012,32.440439739000055],[116.12321808000002,32.441858704000026],[116.12489468700005,32.464531530000045],[116.10451956400004,32.48833084100005],[116.08378151700003,32.507584515000076],[116.07374457600008,32.521748639000066],[116.04127839800003,32.53248422300004],[116.0094689340001,32.552279645000056],[115.99908487900007,32.56189895600005],[115.98935774600011,32.58058814000003],[115.96790939000005,32.59075344400003],[115.94535573900009,32.60231520800005],[115.92369975500003,32.592936665000025],[115.9119863950001,32.584408719000066],[115.89995681300002,32.57134799000005],[115.8778596090001,32.57242798600004],[115.8505761020001,32.50093996600003],[115.84960970100008,32.487333301000035],[115.8369533770001,32.465192106000075],[115.82495391600003,32.45211956500003],[115.81815403900009,32.43424213800006],[115.80807920200004,32.44838340200005],[115.78665383100008,32.45851787300006],[115.75354639300008,32.460105816000066],[115.7538635410001,32.46464253900007],[115.74376587300003,32.478780449000055],[115.71032566200006,32.47581806100004],[115.69897502200001,32.47180451300005],[115.67720988000008,32.477387270000065],[115.65450191900004,32.46935560500003],[115.65325658200004,32.45120757400008],[115.64004989600005,32.41996969200005],[115.65075860400009,32.41491720200003],[115.64889478200007,32.387697253000056],[115.62683548600012,32.388729854000076],[115.56630536700004,32.390013483000075],[115.53921773100001,32.401903497000035],[115.51776217100007,32.41199132400004],[115.50794324000003,32.43064761200003],[115.48648014800006,32.44072708200002],[115.47634451800002,32.45484282000007],[115.4668120340001,32.47802979900007],[115.42443589700008,32.50724826000004],[115.39279131,32.53141647800004],[115.38233865200004,32.54098289500007],[115.37217236300012,32.55508574900006],[115.36141787700001,32.56011300800003],[115.33871724500011,32.55202522600007],[115.30439467800011,32.535343029000046],[115.28170897200005,32.527244179000036],[115.25961179000001,32.528209307000054],[115.26164795500006,32.55996679500004],[115.25856421500009,32.56817554300005],[115.17377118500008,32.57286852300007],[115.16271469600008,32.57334508300005],[115.15308351600004,32.596498858000075],[115.15478745100006,32.62372056300006],[115.16670342400005,32.63685856500007],[115.14115965300005,32.64152279800004],[115.12252753300004,32.67939891700007],[115.15713257000004,32.74109822600008],[115.15841126800001,32.76586454300008],[115.13835953500006,32.81885089700006],[115.12297277400012,32.857490907000056],[115.11543733200006,32.87990766100006],[115.0856748110001,32.89246405000006],[114.99809020500004,32.878645333000065],[114.98401697200006,32.90127287300004],[114.98693298400008,32.916232765000075],[114.979862507,32.92710302800003],[114.95807146400011,32.926066896000066],[114.91200205500002,32.91698039800008],[114.87402605300008,32.94038729300007],[114.85734481000009,32.95510868300005],[114.85739738500001,32.967586201000074],[114.85755556000004,33.00470915900007],[114.87178777000008,33.029042203000074],[114.87140477700007,33.06625091700005],[114.8655736610001,33.080613698000036],[114.86042257500003,33.09241271900004],[114.84595385700004,33.12554039100007],[114.87352424000005,33.13260730500008],[114.89815627900009,33.12382183300008],[114.90211236300001,33.12145458300006],[114.94998986400003,33.092866711000056],[115.0195791750001,33.06925648300006],[115.12744077000002,33.09209750100007],[115.14967586300008,33.10106115200006],[115.17761380000002,33.09387204500007],[115.22534464600005,33.090401057000065],[115.2562443590001,33.12041050400006],[115.26668372200004,33.130542681000065],[115.27102534200003,33.211874539000064],[115.27343296700008,33.256956968000054],[115.31587816900003,33.295269234000045],[115.28542460000006,33.337998483000035],[115.27617021200001,33.389696306000076],[115.31090561700012,33.42562591400008],[115.30753663900009,33.43858102400003],[115.30185294500006,33.46049159800003],[115.31885330000011,33.491748554000026],[115.34164559900012,33.48825939900007],[115.3917331340001,33.50324479500006],[115.38169635400004,33.53991696600008],[115.40378476500007,33.56300538100004],[115.46141564300001,33.55554365100005],[115.52490860500006,33.55491641800006],[115.55591582600005,33.56081420800007],[115.56934038200006,33.57346571700003],[115.58274066100012,33.532282964000046],[115.592673794,33.51364838600006],[115.62558195200006,33.50304441800006],[115.66936628300004,33.48738470700005],[115.72956675300009,33.46638985100003],[115.76148577300012,33.44215678000006],[115.83182159300009,33.40699267700006],[115.85317404800003,33.39233290000004],[115.85023804800005,33.351553429000035],[115.84958084400012,33.34249525100006],[115.85975534400006,33.328366680000045],[115.86960418900003,33.30970745700006],[115.86797407900008,33.28705351600007],[115.85551333100011,33.26946842800004],[115.83224404200007,33.25694391700006],[115.82550416400011,33.184972197000036],[115.84225034000008,33.119653320000054],[115.88694826800008,33.10551114900005],[115.9341575310001,33.095795241000076],[115.96916908500009,33.08358189200004],[115.99493257900008,33.05812595700007],[116.01331558400011,33.028977327000064],[116.02452872200001,32.99887751400007],[116.04021352200004,32.97034415200005],[116.05668888200012,32.94497633200007],[116.0929592970001,32.94275279900006],[116.12459567400003,32.93023140400004],[116.14622685900008,32.90866697200005],[116.19437463700001,32.88544993000005],[116.2412726550001,32.873783170000024],[116.27606455700004,32.86056058200006],[116.315253772,32.86774085500008],[116.35444796400009,32.89137806400004]]]}},{"type":"Feature","properties":{"code":"CN034070","name":"Hefei","label":"Hefei · 合肥市","type":"Prefecture-level city","parentCode":"CN-AH"},"geometry":{"type":"Polygon","coordinates":[[[117.93906058200002,31.88087267900005],[117.92976206500009,31.83572825600004],[117.92313343700005,31.80351340900006],[117.91621857100006,31.737646149000057],[117.92925262500012,31.68465614300004],[117.92270755800007,31.62708986100006],[117.91454315200008,31.55516052200005],[117.934555724,31.492448270000068],[117.89947509800004,31.506368637000037],[117.83443672400006,31.491424892000055],[117.72843170200008,31.46695709200003],[117.70182908900006,31.426265100000023],[117.64959716800001,31.34622383100003],[117.57062530500002,31.25643539400005],[117.5519497470001,31.195197824000047],[117.49372712500008,30.99526705900007],[117.45162974000004,30.983184487000074],[117.41138594400002,30.968177788000048],[117.37328674900004,30.97007893400007],[117.34345376100009,30.986592574000042],[117.29837949900002,30.982060343000057],[117.26341967500002,30.98369550800004],[117.2232067540001,31.003236076000064],[117.19811648500001,31.036895712000046],[117.18011138600002,31.060810202000027],[117.12654438900006,31.07444734200004],[117.11506752600008,31.124081696000076],[117.1129299370001,31.164827045000038],[117.09867633900001,31.195828981000034],[117.07391833800011,31.222503493000033],[117.05242454900008,31.244325125000046],[117.02533247500003,31.263306427000032],[117.05004869900006,31.288766226000064],[117.06682139700001,31.320779884000046],[117.0718597340001,31.352704910000057],[117.07304701600003,31.389505927000073],[117.09399965800003,31.425828083000056],[117.10668266800008,31.45351094800003],[117.1349856270001,31.482382748000077],[117.1659285180001,31.493078249000064],[117.20578800600003,31.49021373900007],[117.2481215250001,31.502372406000063],[117.2618562130001,31.518395356000042],[117.19130836800002,31.528817910000043],[117.15062796300003,31.540494127000045],[117.1163479380001,31.540174396000054],[117.07812260800006,31.53782005000005],[117.03732527300008,31.530565268000032],[117.00081160000002,31.520550869000033],[117.0089292020001,31.527437208000038],[116.966077057,31.539079187000027],[116.92131195400009,31.52801281400008],[116.88822988800007,31.52537638800004],[116.86020491800002,31.526121083000078],[116.82031505900011,31.528869992000068],[116.79582791300004,31.54852479500005],[116.76348000200005,31.57654502400004],[116.74514688500005,31.611897137000028],[116.74588737800002,31.64502195800003],[116.74836746200003,31.673421878000056],[116.74340680800003,31.70877371200004],[116.74332185900005,31.74471736000004],[116.72938103000001,31.77560776300004],[116.69160450400011,31.785533306000048],[116.67812800000002,31.815921029000037],[116.70097999600011,31.83787391100003],[116.74125635000007,31.837914178000062],[116.75121951800008,31.865798307000034],[116.73066172400002,31.888840194000068],[116.7926578900001,31.93990410400005],[116.83206769800006,31.959781305000035],[116.86746054500009,31.970709096000064],[116.90261543700001,31.984873033000042],[116.94214669100006,31.993653985000037],[116.9974344090001,31.99211032100004],[117.05826156700005,31.991026227000077],[117.02908966100006,32.03227519100005],[117.01210329100002,32.05879568100005],[116.98623811800007,32.10021177600004],[116.96626692500001,32.123701453000024],[116.96917074700002,32.16771305800006],[117.00584348200005,32.15595019700004],[117.03485523100005,32.17234725700007],[117.05625497900007,32.19986455700007],[117.06647558300006,32.22907570500007],[117.05815575800011,32.26189714000003],[117.03891500700001,32.28764888000006],[117.03664375400001,32.32187610900007],[117.0333368260001,32.356640266000056],[117.01902461400005,32.38341815100006],[116.98663319000002,32.39579824000003],[116.94777392800006,32.39664305900004],[116.91176647400005,32.39313587000004],[116.882526514,32.41079258900004],[116.88015321700004,32.43857447100004],[116.8794669340001,32.47314144600006],[116.86880043000008,32.51713506700003],[116.83966376900003,32.57296588500003],[116.9101701730001,32.56769162200004],[116.94245895900008,32.58296728800008],[116.98092856000005,32.60654610900008],[117.01480267800002,32.60926785700008],[117.05898556800003,32.61217958800006],[117.1096378200001,32.61461846900005],[117.1779275130001,32.61993587500007],[117.18219918300008,32.578665691000026],[117.19229374400004,32.53606025300007],[117.19928512900003,32.50656188200003],[117.21264420000011,32.48166991000005],[117.24685903000011,32.453906181000036],[117.2888888540001,32.463333171000045],[117.32330323800011,32.47789306200008],[117.3667105180001,32.47890183000004],[117.38000491700006,32.44801074900005],[117.35611825400008,32.41335847300007],[117.34683467700006,32.384096799000076],[117.38651907700012,32.36924648400003],[117.42178497400005,32.36483570900003],[117.39834543100005,32.334767224000075],[117.39152078200004,32.29749928700005],[117.41915213800007,32.270147732000055],[117.43045133900011,32.23615411500003],[117.46823651300008,32.21357688200004],[117.51102233100005,32.209500278000064],[117.54746029500006,32.217860819000066],[117.58615702800012,32.23248922500005],[117.62623859100006,32.23917447500003],[117.6590220170001,32.24316668500006],[117.70684712700006,32.24601778500005],[117.74527172600006,32.24679830300005],[117.77882720900004,32.247473024000044],[117.87081889300009,32.243661624000026],[117.89601908800012,32.21722592500004],[117.78716669000005,31.99450029700006],[117.81702710200011,31.960622563000072],[117.83679304500004,31.936525241000027],[117.84601761500005,31.917673816000047],[117.88937702200008,31.91025682600008],[117.93906080400006,31.88087375500004],[117.93906058200002,31.88087267900005]]]}},{"type":"Feature","properties":{"code":"CN034080","name":"Huaibei","label":"Huaibei · 淮北市","type":"Prefecture-level city","parentCode":"CN-AH"},"geometry":{"type":"Polygon","coordinates":[[[116.86369009600003,33.34867887400003],[116.85373228000003,33.30430887700004],[116.81902067300007,33.28917048900007],[116.78351743200005,33.295687299000065],[116.78389439400007,33.32416777100008],[116.79428896500008,33.35473125800007],[116.78785455800005,33.392859920000035],[116.76142156000003,33.427714243000025],[116.72715002900009,33.44884157600006],[116.68928889500012,33.460535167000046],[116.6405393010001,33.47292721000008],[116.59683337800004,33.474401819000036],[116.56454640100003,33.46868484600003],[116.52212363600006,33.46590608500003],[116.51887367800009,33.50426874400006],[116.52397549200009,33.53151147400007],[116.53671151000003,33.55826063000006],[116.53897467200011,33.59074292500003],[116.51687332000006,33.62065490700007],[116.48360773000002,33.64208761000003],[116.47988880600008,33.675407765000045],[116.47187986000006,33.70991877800003],[116.44925184400006,33.74076273600008],[116.42274996700007,33.764960571000074],[116.37407599900007,33.789042176000066],[116.40087995500005,33.790371564000054],[116.37815904100012,33.81176118700006],[116.40587622800001,33.84770876700003],[116.44857694200005,33.84489327500006],[116.46751722700003,33.88034176600007],[116.51993561400002,33.90628031000006],[116.5491110910001,33.88279745600005],[116.59987004900006,33.884867464000024],[116.6186449270001,33.91675845900005],[116.59888033700008,33.948680430000024],[116.55643760600003,34.01883479900005],[116.5387399330001,34.037586128000044],[116.63333114400007,34.02017490800006],[116.68141739600003,34.00877222300005],[116.75138597000011,34.00785858200004],[116.78673423000009,34.02665834100003],[116.80170117000011,34.020732175000035],[116.80343306400005,34.027632425000036],[116.80405232500004,34.03377191200008],[116.8079980220001,34.04390750600004],[116.81587142700005,34.060099765000075],[116.82703704900007,34.073463985000046],[116.83376541500002,34.07799538800003],[116.84156136000001,34.081168184000035],[116.84715198200001,34.08133584300003],[116.85545698300007,34.08791141300003],[116.86793775700005,34.09431899800006],[116.87902633400006,34.10054608000007],[116.88780789600003,34.10244401400007],[116.89599963900002,34.102358157000026],[116.90170673400007,34.10133515200005],[116.90636972200002,34.09986365100008],[116.91861995500005,34.09428245300006],[116.92647714400005,34.09132333900004],[116.93054482900004,34.088495988000034],[116.93520653500002,34.08702338100005],[116.940693065,34.08649067700003],[116.94677717400009,34.08668443400006],[116.95766972800004,34.092217738000045],[116.96154898500004,34.093331516000035],[116.9646729210001,34.09396932900006],[116.96836578600005,34.09384538200004],[116.96905444700008,34.090639183000064],[116.96680344800006,34.083481224000025],[116.96013848000007,34.071651546000055],[116.94839678800008,34.058510169000044],[116.9463548010001,34.05337204600005],[116.94887996300008,34.043551937000075],[116.95524525300004,34.037203645000034],[116.95932291700001,34.02409259700005],[116.9589267670001,34.00914074700006],[116.95520994000003,33.99286383800006],[116.95474493200004,33.97744740100006],[116.95663368500004,33.97184787900005],[116.96614682300003,33.96377851500006],[116.97665681600006,33.955218443000035],[116.98773180400008,33.94330532600003],[116.98868839900001,33.938238915000056],[116.98430955900005,33.93208909200007],[116.96668831000011,33.89652723000006],[116.95203052500005,33.87235608100008],[116.92714308000006,33.77833525200003],[116.92876137000007,33.72997290400008],[116.91638160900004,33.67344957500006],[116.85862373700002,33.66621097400008],[116.8419906900001,33.634239853000054],[116.85562066600005,33.60298954700005],[116.88647949200003,33.580228024000064],[116.91111088200012,33.56155745700005],[116.91291337300004,33.533398559000034],[116.89280962700002,33.505334539000046],[116.90011764600001,33.47128559200007],[116.91780667300009,33.44296106200005],[116.90735091900001,33.412409085000036],[116.89140976100009,33.381764101000044],[116.86369009600003,33.34867887400003]]]}},{"type":"Feature","properties":{"code":"CN034090","name":"Huainan","label":"Huainan · 淮南市","type":"Prefecture-level city","parentCode":"CN-AH"},"geometry":{"type":"Polygon","coordinates":[[[116.7337071280001,32.93250619600008],[116.76521131200002,32.913381584000035],[116.79270548000011,32.89820070900004],[116.81805394900005,32.87763468500003],[116.84482164600001,32.85466435200004],[116.87639327500005,32.836881928000025],[116.91243622100001,32.82062114000007],[116.94995877400004,32.80286786700003],[116.9851361630001,32.783428240000035],[117.01058661200011,32.75866119600005],[117.04945129500004,32.749982988000056],[117.07587266000007,32.76563183800005],[117.09884159800004,32.77078540200006],[117.11738496700002,32.77344396700005],[117.1201905160001,32.76042309700006],[117.11881135100009,32.72732431400004],[117.1242975450001,32.692885518000026],[117.13606099300011,32.650177522000035],[117.1779275130001,32.61993587500007],[117.1096378200001,32.61461846900005],[117.05898556800003,32.61217958800006],[117.01480267800002,32.60926785700008],[116.98092856000005,32.60654610900008],[116.94245895900008,32.58296728800008],[116.9101701730001,32.56769162200004],[116.83966376900003,32.57296588500003],[116.8113609940001,32.60203648400005],[116.79084760500007,32.627348303000076],[116.76420595500008,32.644791576000046],[116.72324734600011,32.61716833200006],[116.69019113000002,32.59866988400006],[116.63296586700005,32.59252512900002],[116.58131239400007,32.582431704000044],[116.5286048260001,32.61071588100003],[116.51705644300011,32.64044782800005],[116.5039908230001,32.67165866300007],[116.46775464600012,32.69195446900005],[116.446641537,32.724597215000074],[116.43952590000004,32.76874507400004],[116.44022636700004,32.80273684600007],[116.42491022900003,32.82717654600003],[116.37585287800005,32.842945385000064],[116.36476626700005,32.84352934300006],[116.36759130500002,32.87978373200008],[116.35444796400009,32.89137806400004],[116.35945161300003,32.92792682700008],[116.35989497100002,32.95917008500004],[116.37198725500002,32.99288493300003],[116.36871444400003,33.03170954800004],[116.43815441600009,33.01531902800008],[116.47021488900009,32.995320384000024],[116.49502840800005,32.967049591000034],[116.51470741500009,32.93634495300006],[116.54811436600005,32.919916030000024],[116.58021844600012,32.92609887100008],[116.62409544500008,32.94253241600006],[116.66071276800005,32.944253737000054],[116.7337071280001,32.93250619600008]]]}},{"type":"Feature","properties":{"code":"CN034100","name":"Huangshan","label":"Huangshan · 黄山市","type":"Prefecture-level city","parentCode":"CN-AH"},"geometry":{"type":"Polygon","coordinates":[[[118.84470223400001,30.146340096000074],[118.85714862300006,30.11692116000006],[118.84896318300002,30.096964370000023],[118.85533168100005,30.07511991800004],[118.86173817000008,30.04256212200005],[118.861138417,30.01558636900006],[118.86109457000009,30.013166072000047],[118.86243247900006,29.982738551000068],[118.84707489100003,29.953454081000075],[118.81444088,29.941409024000052],[118.80909965800004,29.92927872300004],[118.80358443700004,29.903777684000033],[118.79215412000008,29.893851831000063],[118.75022346500009,29.871714905000033],[118.71638589200006,29.834737440000026],[118.72838281200006,29.816968420000023],[118.72984190700004,29.775815828000077],[118.6912761430001,29.698086541000066],[118.63105478800003,29.669109838000054],[118.57077367300008,29.662416241000074],[118.53622620100009,29.61560831500003],[118.50794219600004,29.579982966000046],[118.46770974000003,29.545597428000065],[118.40804613800003,29.514218119000077],[118.32361221100007,29.50451276000007],[118.31312788000002,29.49271551000004],[118.29584370300006,29.47326495300007],[118.26557146100004,29.44931273000003],[118.24321145200008,29.43199389700004],[118.1919480040001,29.418288622000034],[118.18861151600004,29.416350899000065],[118.17855121000002,29.43252813600003],[118.12797640500003,29.426788913000053],[118.102325328,29.44446692500003],[118.12173436700004,29.501274652000063],[118.07282206500008,29.540924670000038],[118.04981827300003,29.540568071000052],[118.02538539500006,29.548327994000033],[117.98475663300007,29.56243504300005],[117.94509588800008,29.56307701000003],[117.90233453500002,29.551406577000023],[117.87250139000002,29.54429249800006],[117.79487477400005,29.55342002200007],[117.75767971800008,29.571700304000046],[117.73397551300002,29.570905137000068],[117.70004645100005,29.56976044000004],[117.66196704300012,29.563969402000055],[117.65947789900008,29.572144472000048],[117.6536069330001,29.590330230000063],[117.63371136400008,29.591875464000054],[117.60685092100005,29.593951553000068],[117.55877995300011,29.580678118000037],[117.52624417100003,29.592367283000044],[117.50104523100003,29.617895804000057],[117.5031529690001,29.658809296000072],[117.44849030900002,29.682431948000044],[117.41490526200005,29.667387061000056],[117.38709640200011,29.686791396000046],[117.3985384990001,29.727171358000078],[117.40600362500004,29.742802158000075],[117.3964819680001,29.81021221800006],[117.3635967680001,29.832559237000055],[117.33166111500009,29.812052864000066],[117.30744428500009,29.838358217000064],[117.27108234200011,29.82877440900006],[117.25146533800012,29.846790175000024],[117.21138936700004,29.91405564200005],[117.18612441200003,29.92407379100007],[117.21848303700006,29.986503662000075],[117.2496010530001,29.999466260000077],[117.28765946700003,30.013292524000065],[117.33041950500001,30.01519697200007],[117.36593580600004,30.024100949000058],[117.39524232400004,30.033922964000055],[117.43478300400011,30.029560961000072],[117.47985447500002,30.03909540400008],[117.51634326500005,30.052503882000053],[117.52326618600011,30.081109266000055],[117.532712446,30.108591861000036],[117.5757712080001,30.107612497000048],[117.60463027000003,30.09014260300006],[117.66390462300001,30.110078190000024],[117.68776939400004,30.133659728000055],[117.71495854300008,30.15328254600007],[117.74822554200011,30.165025807000063],[117.79501191200006,30.184722161000025],[117.84378114600008,30.225965432000066],[117.82954195500008,30.25806380800003],[117.87054551500012,30.27795144600003],[117.90208384400012,30.28747862000006],[117.93008265300011,30.303748905000077],[117.95209902900001,30.333899157000076],[117.96156827300001,30.359959205000052],[117.94632721000005,30.38706336000007],[117.93829116400002,30.417748717000052],[117.92950710700006,30.45126556500003],[117.93338233700001,30.47961420300004],[117.95826287000011,30.522007856000073],[118.03140791900012,30.502308043000028],[118.07028580400004,30.520452487000057],[118.10334557800002,30.52287102200006],[118.1116147350001,30.484760589000075],[118.09761682700002,30.451221103000023],[118.12666916900002,30.44054700600003],[118.15923392600007,30.454091924000068],[118.19320952600003,30.46565631800007],[118.22351558100002,30.436365400000057],[118.23100242200007,30.40662430100008],[118.25929779300009,30.38904293300004],[118.304222202,30.389040575000024],[118.29301123300002,30.357593880000024],[118.29927956300003,30.326556974000027],[118.29722651800012,30.296663093000063],[118.27951853200011,30.273610486000052],[118.25603143900003,30.25565447100007],[118.25835433000009,30.222159214000044],[118.28645212200001,30.20318929900003],[118.30787754400001,30.18106315600005],[118.32271306200005,30.156698822000067],[118.39092080700004,30.14870631100007],[118.37148973900003,30.10405796300006],[118.42682177100005,30.104516044000036],[118.46051456800001,30.094276223000065],[118.48720762300002,30.067958545000067],[118.50381138500006,30.030920035000065],[118.50036244900002,30.00343672500003],[118.49512427100001,29.973793831000023],[118.51913224000009,29.95231619100008],[118.55821471600007,29.948990501000026],[118.5861759820001,29.964655510000057],[118.60762143700003,29.99291734700006],[118.62940430100002,30.019287658000053],[118.65701041500006,30.04098675800003],[118.69055834200003,30.054296136000062],[118.73786951500006,30.06316828100006],[118.7694504960001,30.077555976000042],[118.79861668600006,30.103254527000047],[118.84470223400001,30.146340096000074]]]}},{"type":"Feature","properties":{"code":"CN034110","name":"Lu'an","label":"Lu'an · 六安市","type":"Prefecture-level city","parentCode":"CN-AH"},"geometry":{"type":"Polygon","coordinates":[[[116.83966376900003,32.57296588500003],[116.86880043000008,32.51713506700003],[116.8794669340001,32.47314144600006],[116.88015321700004,32.43857447100004],[116.882526514,32.41079258900004],[116.91176647400005,32.39313587000004],[116.94777392800006,32.39664305900004],[116.98663319000002,32.39579824000003],[117.01902461400005,32.38341815100006],[117.0333368260001,32.356640266000056],[117.03664375400001,32.32187610900007],[117.03891500700001,32.28764888000006],[117.05815575800011,32.26189714000003],[117.06647558300006,32.22907570500007],[117.05625497900007,32.19986455700007],[117.03485523100005,32.17234725700007],[117.00584348200005,32.15595019700004],[116.96917074700002,32.16771305800006],[116.96626692500001,32.123701453000024],[116.98623811800007,32.10021177600004],[117.01210329100002,32.05879568100005],[117.02908966100006,32.03227519100005],[117.05826156700005,31.991026227000077],[116.9974344090001,31.99211032100004],[116.94214669100006,31.993653985000037],[116.90261543700001,31.984873033000042],[116.86746054500009,31.970709096000064],[116.83206769800006,31.959781305000035],[116.7926578900001,31.93990410400005],[116.73066172400002,31.888840194000068],[116.75121951800008,31.865798307000034],[116.74125635000007,31.837914178000062],[116.70097999600011,31.83787391100003],[116.67812800000002,31.815921029000037],[116.69160450400011,31.785533306000048],[116.72938103000001,31.77560776300004],[116.74332185900005,31.74471736000004],[116.74340680800003,31.70877371200004],[116.74836746200003,31.673421878000056],[116.74588737800002,31.64502195800003],[116.74514688500005,31.611897137000028],[116.76348000200005,31.57654502400004],[116.79582791300004,31.54852479500005],[116.82031505900011,31.528869992000068],[116.86020491800002,31.526121083000078],[116.88822988800007,31.52537638800004],[116.92131195400009,31.52801281400008],[116.966077057,31.539079187000027],[117.0089292020001,31.527437208000038],[117.00081160000002,31.520550869000033],[117.03732527300008,31.530565268000032],[117.07812260800006,31.53782005000005],[117.1163479380001,31.540174396000054],[117.15062796300003,31.540494127000045],[117.19130836800002,31.528817910000043],[117.2618562130001,31.518395356000042],[117.2481215250001,31.502372406000063],[117.20578800600003,31.49021373900007],[117.1659285180001,31.493078249000064],[117.1349856270001,31.482382748000077],[117.10668266800008,31.45351094800003],[117.09399965800003,31.425828083000056],[117.07304701600003,31.389505927000073],[117.0718597340001,31.352704910000057],[117.06682139700001,31.320779884000046],[117.05004869900006,31.288766226000064],[117.02533247500003,31.263306427000032],[116.98407796000004,31.26714002600005],[116.96057983500009,31.242967598000064],[116.95418426600008,31.212979174000054],[116.94072213200002,31.175643257000047],[116.92077238500008,31.142910323000024],[116.88502621200007,31.124189727000044],[116.84475198900009,31.132522453000036],[116.81836398600001,31.110825248000026],[116.7928888240001,31.08122135600007],[116.75095378700007,31.07626414300006],[116.70982508100008,31.06201280600004],[116.67416262000006,31.055681037000056],[116.63943335700003,31.066336342000056],[116.60172383300005,31.067034668000076],[116.52779867900006,31.067377124000075],[116.53575901400006,31.105122128000062],[116.55668321200005,31.138767319000067],[116.55151496500002,31.165855029000056],[116.51456079400009,31.176155127000072],[116.48267427600001,31.151529614000026],[116.4457895910001,31.13690938900004],[116.43622925400007,31.169349227000055],[116.33517419100008,31.164436115000058],[116.30689144500002,31.150593093000055],[116.27617796400011,31.12630432000003],[116.25510939000003,31.10276639600005],[116.22528877200011,31.07609644200005],[116.18497275100003,31.077295821000064],[116.16320131300006,31.10449667200004],[116.12357433900002,31.101476734000073],[116.0854350090001,31.08313880700007],[116.06656110100005,31.059431372000063],[116.04536488000008,31.03310274900008],[116.01196136100009,30.99685719300004],[115.99019151700008,31.009751933000075],[115.9428427250001,31.03490448000008],[115.91104903900009,31.054038453000032],[115.89551987000004,31.07869456800006],[115.87398205800002,31.10982200400008],[115.8360483570001,31.126486973000056],[115.83148327900005,31.128495599000075],[115.787213242,31.117012996000028],[115.7226565850001,31.12234443500006],[115.70942551100006,31.15131941100003],[115.69164445700005,31.193804801000056],[115.66221689000008,31.21898344500005],[115.62964538100005,31.22651391000005],[115.56908273800002,31.17118858500004],[115.52333457700001,31.171216483000023],[115.50084227400009,31.205775310000035],[115.49782182100012,31.210417884000037],[115.47188953000011,31.262057507000065],[115.44516664600008,31.29950840500004],[115.40878964100011,31.33642991000005],[115.3787580070001,31.352672377000033],[115.32924403200002,31.34388628000005],[115.32514473800006,31.367127399000026],[115.32043614300005,31.378849125000045],[115.32624915500003,31.367976527000053],[115.33333683600006,31.377352770000073],[115.35951830700003,31.412010036000027],[115.36798145000012,31.450760184000046],[115.36056384300002,31.491882926000073],[115.37877870900002,31.53292282500007],[115.39693104800006,31.552652410000064],[115.40660181600003,31.57359027800004],[115.41804528500006,31.587360557000068],[115.42874022800004,31.626898710000034],[115.48328132400002,31.685162459000026],[115.53923861200008,31.709612224000068],[115.56780359600009,31.72269403000007],[115.6072699240001,31.738885553000046],[115.64354331700008,31.755193426000062],[115.67708088600011,31.76094728100003],[115.68842560700011,31.76238978500004],[115.7353808470001,31.76835132100007],[115.7785306510001,31.791439834000073],[115.82095251300007,31.819865530000072],[115.8599485200001,31.855793788000028],[115.88240976300006,31.939363911000044],[115.8859504300001,31.98928890800005],[115.88789073300006,32.01652259600007],[115.86948640900005,32.06752267400003],[115.8617219890001,32.11344020200005],[115.85749827400002,32.20926970000005],[115.8354848780001,32.21034314700006],[115.85877384900004,32.227417857000034],[115.8655527310001,32.32269198400007],[115.85711627,32.35952058200007],[115.84803077800007,32.38727495000006],[115.83828852800002,32.40595649000005],[115.81815403900009,32.43424213800006],[115.82495391600003,32.45211956500003],[115.8369533770001,32.465192106000075],[115.84960970100008,32.487333301000035],[115.8505761020001,32.50093996600003],[115.8778596090001,32.57242798600004],[115.89995681300002,32.57134799000005],[115.9119863950001,32.584408719000066],[115.92369975500003,32.592936665000025],[115.94535573900009,32.60231520800005],[115.96790939000005,32.59075344400003],[115.98935774600011,32.58058814000003],[115.99908487900007,32.56189895600005],[116.0094689340001,32.552279645000056],[116.04127839800003,32.53248422300004],[116.07374457600008,32.521748639000066],[116.08378151700003,32.507584515000076],[116.10451956400004,32.48833084100005],[116.12489468700005,32.464531530000045],[116.12321808000002,32.441858704000026],[116.23938537300012,32.440439739000055],[116.24145535600007,32.467645479000055],[116.25422601800005,32.48974606300004],[116.27733463600009,32.50220027300003],[116.2990616940001,32.49651214600004],[116.3197465400001,32.47721906000004],[116.34040796400006,32.457920424000065],[116.35074653800007,32.44827009200003],[116.39416234700002,32.43686692600005],[116.43828822600005,32.43450848900005],[116.48011997000003,32.467560605000074],[116.4981143220001,32.494458043000066],[116.51548768900011,32.52691314300006],[116.55255268300004,32.554857699000024],[116.58131239400007,32.582431704000044],[116.63296586700005,32.59252512900002],[116.69019113000002,32.59866988400006],[116.72324734600011,32.61716833200006],[116.76420595500008,32.644791576000046],[116.79084760500007,32.627348303000076],[116.8113609940001,32.60203648400005],[116.83966376900003,32.57296588500003]]]}},{"type":"Feature","properties":{"code":"CN034120","name":"Ma'anshan","label":"Ma'anshan · 马鞍山市","type":"Prefecture-level city","parentCode":"CN-AH"},"geometry":{"type":"Polygon","coordinates":[[[118.6957126420001,31.307253807000052],[118.6509613930001,31.29960673000005],[118.62463129500009,31.29219422400007],[118.60299871300003,31.286097452000035],[118.59258698800011,31.287715406000075],[118.56412003300011,31.29213270300005],[118.56409738600007,31.32630650300007],[118.55367193300003,31.36319650400003],[118.51026408100006,31.396829893000074],[118.43019901900004,31.408538692000036],[118.39865222900005,31.423600256000043],[118.3657731730001,31.43645471600007],[118.33681876200001,31.47113716000007],[118.28978042000006,31.451902758000074],[118.25726174400006,31.448074176000034],[118.25307671100006,31.418410317000053],[118.29165491100002,31.408820259000038],[118.26778411900011,31.369792938000046],[118.19362350000006,31.39021480200006],[118.07384581200006,31.41940771700007],[117.98825836200001,31.439325333000056],[117.9765853880001,31.48052597000003],[117.934555724,31.492448270000068],[117.91454315200008,31.55516052200005],[117.92270755800007,31.62708986100006],[117.92925262500012,31.68465614300004],[117.91621857100006,31.737646149000057],[117.92313343700005,31.80351340900006],[117.92976206500009,31.83572825600004],[117.93906058200002,31.88087267900005],[117.9414997130001,31.87943011400006],[117.97257782500003,31.85911094100004],[118.0036254690001,31.838779644000056],[118.01457496100011,31.838046637000048],[118.04783198700011,31.840368426000055],[118.0605295150001,31.857762180000066],[118.07234939800003,31.86608738800004],[118.09600390700007,31.882735706000062],[118.1183494930001,31.885778839000068],[118.15250738300006,31.897138418000054],[118.1862340880001,31.903954863000024],[118.21038127200006,31.925111601000026],[118.25778153200008,31.95834400500007],[118.28242817000012,31.984015644000067],[118.3061516360001,32.00061782000006],[118.31802432200004,32.00891648500004],[118.35330773100009,32.02327966200005],[118.35334007300003,32.02044679200003],[118.35213140000008,31.98319104600006],[118.34086661100002,31.95367641400003],[118.33094973300001,31.915185415000053],[118.34065655500001,31.91546770000008],[118.40296188000002,31.89111286800005],[118.44073859600007,31.86917065500006],[118.4815647480001,31.822124770000073],[118.46870333800007,31.798936412000046],[118.47274353800003,31.78562842100007],[118.4794328260001,31.763577484000052],[118.50505856100006,31.750380019000033],[118.54001946700009,31.74547194200005],[118.59270679500003,31.746518239000068],[118.62881819000006,31.742396562000067],[118.64839863400005,31.69932031600007],[118.62106989300003,31.673541804000024],[118.62005715400005,31.672730354000066],[118.61385440300012,31.650873717000024],[118.64982973300005,31.634296464000045],[118.67704327000001,31.638746866000076],[118.70091279500002,31.65318790500004],[118.72547762300007,31.686263371000052],[118.75538520100008,31.67361259300003],[118.7500515700001,31.628600265000046],[118.78492175100007,31.61205369000004],[118.82932408500005,31.639342003000024],[118.83277013100007,31.625335535000033],[118.84704998500001,31.56698244000006],[118.84516639500009,31.513723827000035],[118.84820904200001,31.476291871000058],[118.8176045890001,31.426589878000073],[118.78353664200006,31.405721011000026],[118.74525523400007,31.385133886000062],[118.69788781000011,31.347326330000044],[118.6830975900001,31.326054618000057],[118.6957126420001,31.307253807000052]]]}},{"type":"Feature","properties":{"code":"CN034130","name":"Suzhou","label":"Suzhou · 宿州市","type":"Prefecture-level city","parentCode":"CN-AH"},"geometry":{"type":"Polygon","coordinates":[[[118.1234236470001,33.73517459300007],[118.13603368100007,33.691865180000036],[118.13192913500006,33.64600044200006],[118.09906113300008,33.62222924100007],[118.08150076100003,33.59754712800003],[118.07805370100004,33.55873024400006],[118.07998694000003,33.51871127600003],[118.08254711300003,33.48574485300003],[118.04002312400007,33.475832524000054],[118.01369857600002,33.475598321000064],[118.00795037300009,33.44755297100005],[118.00028240800009,33.39744884500004],[117.96809747900011,33.35498301900003],[117.94378731000006,33.33954078800008],[117.93815392200008,33.310784719000026],[117.86115155300001,33.31228945600003],[117.82699963300001,33.29416287400005],[117.79182536200005,33.27656399000006],[117.75453709800001,33.27567554400002],[117.71385100500004,33.27365573700007],[117.6841520910001,33.29380817800006],[117.6534575600001,33.32046510300006],[117.60654399200007,33.32273485400003],[117.533968834,33.32393568200007],[117.48814847100004,33.319911208000065],[117.4534440220001,33.32886390500005],[117.41766452800005,33.348926076000055],[117.40002199100002,33.37595283200005],[117.37896706600009,33.412875986000074],[117.36549361800007,33.43775375300004],[117.33945592700002,33.463067988000034],[117.30598056400004,33.479703405000066],[117.23496323400002,33.48609020300006],[117.22177693700007,33.48221655400005],[117.20202134200008,33.45877505200008],[117.17915483900003,33.437383673000056],[117.15126468800008,33.42047838900004],[117.13360891000002,33.389978177000046],[117.0993998560001,33.38729236000006],[117.05899265700009,33.38966456900005],[117.07097446900002,33.32902239200007],[117.07615115400006,33.30245324300006],[117.04197710000005,33.25984727500003],[116.99694722000004,33.26938016100007],[116.96268506600006,33.27723832700008],[116.92590236100011,33.29354491200007],[116.88056560200005,33.31822456500004],[116.86369009600003,33.34867887400003],[116.89140976100009,33.381764101000044],[116.90735091900001,33.412409085000036],[116.91780667300009,33.44296106200005],[116.90011764600001,33.47128559200007],[116.89280962700002,33.505334539000046],[116.91291337300004,33.533398559000034],[116.91111088200012,33.56155745700005],[116.88647949200003,33.580228024000064],[116.85562066600005,33.60298954700005],[116.8419906900001,33.634239853000054],[116.85862373700002,33.66621097400008],[116.91638160900004,33.67344957500006],[116.92876137000007,33.72997290400008],[116.92714308000006,33.77833525200003],[116.95203052500005,33.87235608100008],[116.96668831000011,33.89652723000006],[116.98430955900005,33.93208909200007],[116.98868839900001,33.938238915000056],[116.98773180400008,33.94330532600003],[116.97665681600006,33.955218443000035],[116.96614682300003,33.96377851500006],[116.95663368500004,33.97184787900005],[116.95474493200004,33.97744740100006],[116.95520994000003,33.99286383800006],[116.9589267670001,34.00914074700006],[116.95932291700001,34.02409259700005],[116.95524525300004,34.037203645000034],[116.94887996300008,34.043551937000075],[116.9463548010001,34.05337204600005],[116.94839678800008,34.058510169000044],[116.96013848000007,34.071651546000055],[116.96680344800006,34.083481224000025],[116.96905444700008,34.090639183000064],[116.96836578600005,34.09384538200004],[116.9646729210001,34.09396932900006],[116.96154898500004,34.093331516000035],[116.95766972800004,34.092217738000045],[116.94677717400009,34.08668443400006],[116.940693065,34.08649067700003],[116.93520653500002,34.08702338100005],[116.93054482900004,34.088495988000034],[116.92647714400005,34.09132333900004],[116.91861995500005,34.09428245300006],[116.90636972200002,34.09986365100008],[116.90170673400007,34.10133515200005],[116.89599963900002,34.102358157000026],[116.88780789600003,34.10244401400007],[116.87902633400006,34.10054608000007],[116.86793775700005,34.09431899800006],[116.85545698300007,34.08791141300003],[116.84715198200001,34.08133584300003],[116.84156136000001,34.081168184000035],[116.83376541500002,34.07799538800003],[116.82703704900007,34.073463985000046],[116.81587142700005,34.060099765000075],[116.8079980220001,34.04390750600004],[116.80405232500004,34.03377191200008],[116.80343306400005,34.027632425000036],[116.80170117000011,34.020732175000035],[116.78673423000009,34.02665834100003],[116.75138597000011,34.00785858200004],[116.68141739600003,34.00877222300005],[116.63333114400007,34.02017490800006],[116.5387399330001,34.037586128000044],[116.53283014500005,34.043830480000054],[116.51855920600008,34.076363068000035],[116.51381673000003,34.10314187100005],[116.51199219600005,34.14041309800007],[116.51442701600001,34.15570124200008],[116.51591394500008,34.16502570700004],[116.52014132300008,34.17811130900003],[116.53135563800004,34.21212541700004],[116.51507798900002,34.24858562000003],[116.51320055700012,34.25279712400004],[116.49000743600004,34.28484157400004],[116.45000784900003,34.282227015000046],[116.41095091200009,34.26096710200005],[116.36352350400011,34.24626704900004],[116.35235809100004,34.26092614700008],[116.33621187100005,34.283770541000024],[116.32080832500003,34.301273587000026],[116.31038925100006,34.32739642300004],[116.28707115400005,34.34258621400005],[116.23888167100006,34.34999651800007],[116.20135832300002,34.36843810900007],[116.17916256000001,34.40125202100006],[116.15888492600004,34.43745662300006],[116.15834333700002,34.43842813800006],[116.1446774740001,34.46644581600003],[116.15867714500007,34.494163711000056],[116.16611656900011,34.523053934000075],[116.16101892600011,34.544391751000035],[116.2437597170001,34.57381154300003],[116.24906079200002,34.576022762000036],[116.27468418700005,34.58739081400006],[116.30593333600007,34.60638036100005],[116.33331800400003,34.62676846900007],[116.35706937500004,34.623596503000044],[116.40161500900001,34.609229921000065],[116.45519119400001,34.58116507300008],[116.49340755200001,34.54049666100008],[116.54401915500011,34.50278591400007],[116.60311828700003,34.476165679000076],[116.61740892700004,34.470251948000055],[116.67846427000006,34.457185655000046],[116.70394070100008,34.46084131200007],[116.74461020800004,34.420877904000065],[116.78524224600005,34.38089963600004],[116.80692174,34.37718874900003],[116.83863154000005,34.380472148000024],[116.86699724300001,34.38141354700008],[116.89742222500001,34.36965072400005],[116.91509297200002,34.356074757000044],[116.92463394200001,34.343107470000064],[116.92802954400008,34.31460835000007],[116.92586082800005,34.30054897200006],[116.92079199600005,34.291941361000056],[116.9306580870001,34.26135353400008],[116.95954458400001,34.24841955100004],[117.00042801200004,34.218941339000025],[117.01332351100007,34.170480816000065],[117.0420464010001,34.14158912900007],[117.06923084900006,34.12162954400003],[117.09640249300003,34.087484603000064],[117.09846056700007,34.08629614000006],[117.1333715830001,34.066126215000054],[117.17906036900001,34.07176565900005],[117.23606370200002,34.067059382000025],[117.27448017100005,34.078358843000046],[117.3324374440001,34.071789178000074],[117.35704136000004,34.048345992000066],[117.37702284700003,34.022485809000045],[117.3985022170001,34.02134984600008],[117.40447592600003,34.021029989000056],[117.42100781400006,34.03432696800007],[117.44580429500002,34.04097894200004],[117.47128268100005,34.04227668000004],[117.50613680100003,34.036858524000024],[117.50777808700002,34.03250681600008],[117.51157182400004,34.02238887100003],[117.5362682330001,33.98738281800007],[117.56055068500007,33.987835407000034],[117.57327759900011,33.99511761900004],[117.5907783780001,34.00657094300004],[117.62685133500008,34.00282246200004],[117.61980442400011,33.95801487400007],[117.613868722,33.92643955200003],[117.66479138900002,33.88996008000004],[117.68130288700002,33.889930925000044],[117.7174729620001,33.88791582300007],[117.72383425200007,33.845910554000056],[117.70902973500006,33.81394241900006],[117.68606708200002,33.78951592000004],[117.70966022700009,33.74121843700004],[117.71233094200011,33.73575512300005],[117.71385249600007,33.72769212700007],[117.75210481700003,33.71225444300006],[117.76771483000005,33.71492287500007],[117.8151335020001,33.742384136000055],[117.86858288100007,33.69945662300006],[117.88328235600011,33.72964387800005],[117.90180998300002,33.76581308200008],[117.95864585300001,33.749242937000076],[117.99655066900004,33.73020408200006],[118.01694350100001,33.72458433500003],[118.04873869400001,33.73602078500005],[118.07413304500005,33.737196435000044],[118.1234236470001,33.73517459300007]]]}},{"type":"Feature","properties":{"code":"CN034140","name":"Tongling","label":"Tongling · 铜陵市","type":"Prefecture-level city","parentCode":"CN-AH"},"geometry":{"type":"Polygon","coordinates":[[[117.94775022600004,30.84441633800003],[117.92124813600003,30.823873039000034],[117.88645860500003,30.81044700700005],[117.85638972700008,30.791090256000075],[117.83043237800007,30.77557011400006],[117.74511283700008,30.72358555200003],[117.70196843000008,30.785827537000046],[117.70364292800002,30.83573903300004],[117.72627901800001,30.860780615000067],[117.72650399300005,30.900935986000036],[117.72214198900008,30.953508184000043],[117.72515915800011,31.011848017000034],[117.72479362600006,31.04603656000006],[117.73084721600003,31.07511908200007],[117.75112301400009,31.097094628000036],[117.78404865000005,31.117638363000026],[117.81878593800002,31.129256816000066],[117.8491111300001,31.118129873000044],[117.87689000900002,31.097492857000077],[117.91560447300003,31.074612073000026],[117.95073468800001,31.07969812500005],[117.97516224100002,31.12625080400005],[117.99229227800004,31.090270136000072],[117.99939019500005,31.060619217000067],[118.0150444950001,31.031212277000066],[118.03532159100007,31.00558507900007],[118.05801991300007,30.98299405000006],[118.08913876700001,30.969884969000077],[118.1511970890001,30.973212920000037],[118.14649284300003,30.943107205000047],[118.14807557800009,30.912031994000074],[118.12989808300006,30.885319523000078],[118.09070248500007,30.886618915000042],[118.05338872900006,30.864660099000048],[118.03083569600005,30.841518319000045],[117.99763554300011,30.844161222000025],[117.94775022600004,30.84441633800003]]]}},{"type":"Feature","properties":{"code":"CN034150","name":"Wuhu","label":"Wuhu · 芜湖市","type":"Prefecture-level city","parentCode":"CN-AH"},"geometry":{"type":"Polygon","coordinates":[[[117.934555724,31.492448270000068],[117.9765853880001,31.48052597000003],[117.98825836200001,31.439325333000056],[118.07384581200006,31.41940771700007],[118.19362350000006,31.39021480200006],[118.26778411900011,31.369792938000046],[118.29165491100002,31.408820259000038],[118.25307671100006,31.418410317000053],[118.25726174400006,31.448074176000034],[118.28978042000006,31.451902758000074],[118.33681876200001,31.47113716000007],[118.3657731730001,31.43645471600007],[118.39865222900005,31.423600256000043],[118.43019901900004,31.408538692000036],[118.51026408100006,31.396829893000074],[118.55367193300003,31.36319650400003],[118.56409738600007,31.32630650300007],[118.56412003300011,31.29213270300005],[118.59258698800011,31.287715406000075],[118.60299871300003,31.286097452000035],[118.62463129500009,31.29219422400007],[118.6509613930001,31.29960673000005],[118.65080895900007,31.254356851000068],[118.65756060800004,31.218675661000077],[118.67034004000004,31.194039475000068],[118.69307518100004,31.172705977000078],[118.71561674300006,31.144917923000037],[118.68450523800004,31.12400163700005],[118.66767912400007,31.08246378900003],[118.66128261400002,31.05343408400006],[118.63589473400009,31.03063680500003],[118.59858346600004,31.040256880000072],[118.56487145300002,31.033856850000063],[118.57373707600004,30.992914289000055],[118.56160300500005,30.964359631000036],[118.5211549070001,30.959439833000033],[118.46591740800011,30.965440545000035],[118.48196036200011,30.93637924400008],[118.4732923900001,30.885352484000066],[118.47242161600002,30.84244531400003],[118.47805518900009,30.815632287000028],[118.4504711300001,30.771257757000058],[118.42923878400006,30.801214680000044],[118.4139676750001,30.82744062100005],[118.38388647600004,30.84934124600005],[118.3408127570001,30.839036985000064],[118.31303569900001,30.822373737000078],[118.29564424000012,30.79330612900003],[118.28134367300004,30.76813694200007],[118.27386630300009,30.73732790200006],[118.25239801400005,30.709505190000073],[118.20926469800008,30.707944549000047],[118.1686501160001,30.68952306600005],[118.14406109200002,30.667020422000064],[118.0910815530001,30.656964747000075],[118.10764822300007,30.689366509000024],[118.08881706900002,30.717683443000055],[118.05892074200005,30.736711800000023],[118.03417317800006,30.759482107000053],[118.00458751000008,30.781707058000052],[117.97626177900008,30.811209982000037],[117.94775022600004,30.84441633800003],[117.99763554300011,30.844161222000025],[118.03083569600005,30.841518319000045],[118.05338872900006,30.864660099000048],[118.09070248500007,30.886618915000042],[118.12989808300006,30.885319523000078],[118.14807557800009,30.912031994000074],[118.14649284300003,30.943107205000047],[118.1511970890001,30.973212920000037],[118.08913876700001,30.969884969000077],[118.05801991300007,30.98299405000006],[118.03532159100007,31.00558507900007],[118.0150444950001,31.031212277000066],[117.99939019500005,31.060619217000067],[117.99229227800004,31.090270136000072],[117.97516224100002,31.12625080400005],[117.95073468800001,31.07969812500005],[117.91560447300003,31.074612073000026],[117.87689000900002,31.097492857000077],[117.8491111300001,31.118129873000044],[117.81878593800002,31.129256816000066],[117.78404865000005,31.117638363000026],[117.75112301400009,31.097094628000036],[117.73084721600003,31.07511908200007],[117.72479362600006,31.04603656000006],[117.72515915800011,31.011848017000034],[117.72214198900008,30.953508184000043],[117.67731355600006,30.957812859000057],[117.64240403200006,30.96509616000003],[117.60633670300001,30.971533762000035],[117.56751886600011,30.977247010000042],[117.52290655600007,30.977841811000076],[117.49372712500008,30.99526705900007],[117.5519497470001,31.195197824000047],[117.57062530500002,31.25643539400005],[117.64959716800001,31.34622383100003],[117.70182908900006,31.426265100000023],[117.72843170200008,31.46695709200003],[117.83443672400006,31.491424892000055],[117.89947509800004,31.506368637000037],[117.934555724,31.492448270000068]]]}},{"type":"Feature","properties":{"code":"CN034160","name":"Xuancheng","label":"Xuancheng · 宣城市","type":"Prefecture-level city","parentCode":"CN-AH"},"geometry":{"type":"Polygon","coordinates":[[[119.17604438500007,31.25787912900006],[119.1860012300001,31.249113284000032],[119.22195136100004,31.245695186000034],[119.25834186700001,31.257372926000073],[119.29935489000002,31.28295679200005],[119.35324327400008,31.27732762900007],[119.33572084500008,31.25186633900006],[119.33953884800007,31.205282882000063],[119.35221760600007,31.18300030000006],[119.35636372300007,31.18088417000007],[119.37655480800004,31.170567022000057],[119.3953622460001,31.177229134000072],[119.40973649300008,31.17173903500003],[119.43142558400007,31.164826074000075],[119.46947976600006,31.171865065000077],[119.51421383400009,31.171279954000056],[119.51583778600002,31.169666799000026],[119.53839861100005,31.14723851800005],[119.56324952400007,31.11957708500006],[119.5904314820001,31.12470206200004],[119.60824717000003,31.122967542000026],[119.5975550930001,31.080519225000046],[119.59088804600003,31.047152948000075],[119.58229023900003,30.995213884000066],[119.55290385400008,30.958169059000056],[119.53710364300002,30.897838033000028],[119.53304772800004,30.867043610000053],[119.53221437800005,30.860767500000065],[119.5306970790001,30.804723876000025],[119.50010949300008,30.775771473000077],[119.44481440600009,30.75396352100006],[119.44946419400003,30.716185463000045],[119.43739739500006,30.701908466000077],[119.41988761400012,30.644345654000062],[119.38780474500004,30.652025515000048],[119.35296182100001,30.684854951000034],[119.31618796600003,30.677698288000045],[119.31226669800003,30.62805841000005],[119.22667432600008,30.609128702000078],[119.21478961100001,30.606495721000044],[119.19130706300007,30.593900787000052],[119.26339856100003,30.520117542000037],[119.29969325100001,30.49165380100004],[119.31122003900009,30.44802125800004],[119.32821195500003,30.401063776000058],[119.34101284700012,30.36560107100007],[119.32536838300007,30.35692165100005],[119.29854335400012,30.363315750000027],[119.24882027700005,30.373129523000046],[119.21833138500006,30.33160788500004],[119.23072052400005,30.286121945000048],[119.12103810000008,30.297480320000034],[119.0765796610001,30.306854865000048],[119.02062190400011,30.29560539600004],[118.96719230800011,30.32161564100005],[118.92445919300008,30.34953177700004],[118.90784687700011,30.352455339000073],[118.84644247800009,30.32812523900003],[118.84405134400004,30.302763896000044],[118.84202307500004,30.28116607800007],[118.86974726200003,30.228439755000068],[118.88408078000009,30.179297501000065],[118.83555987800003,30.16745414600007],[118.84470223400001,30.146340096000074],[118.79861668600006,30.103254527000047],[118.7694504960001,30.077555976000042],[118.73786951500006,30.06316828100006],[118.69055834200003,30.054296136000062],[118.65701041500006,30.04098675800003],[118.62940430100002,30.019287658000053],[118.60762143700003,29.99291734700006],[118.5861759820001,29.964655510000057],[118.55821471600007,29.948990501000026],[118.51913224000009,29.95231619100008],[118.49512427100001,29.973793831000023],[118.50036244900002,30.00343672500003],[118.50381138500006,30.030920035000065],[118.48720762300002,30.067958545000067],[118.46051456800001,30.094276223000065],[118.42682177100005,30.104516044000036],[118.37148973900003,30.10405796300006],[118.39092080700004,30.14870631100007],[118.32271306200005,30.156698822000067],[118.30787754400001,30.18106315600005],[118.28645212200001,30.20318929900003],[118.25835433000009,30.222159214000044],[118.25603143900003,30.25565447100007],[118.27951853200011,30.273610486000052],[118.29722651800012,30.296663093000063],[118.29927956300003,30.326556974000027],[118.29301123300002,30.357593880000024],[118.304222202,30.389040575000024],[118.25929779300009,30.38904293300004],[118.23100242200007,30.40662430100008],[118.22351558100002,30.436365400000057],[118.19320952600003,30.46565631800007],[118.15923392600007,30.454091924000068],[118.12666916900002,30.44054700600003],[118.09761682700002,30.451221103000023],[118.1116147350001,30.484760589000075],[118.10334557800002,30.52287102200006],[118.07028580400004,30.520452487000057],[118.03140791900012,30.502308043000028],[117.95826287000011,30.522007856000073],[117.98507971000004,30.55176672600004],[118.0108445080001,30.58159997200005],[118.04355779700006,30.611792208000054],[118.07145296500005,30.635899787000028],[118.0910815530001,30.656964747000075],[118.14406109200002,30.667020422000064],[118.1686501160001,30.68952306600005],[118.20926469800008,30.707944549000047],[118.25239801400005,30.709505190000073],[118.27386630300009,30.73732790200006],[118.28134367300004,30.76813694200007],[118.29564424000012,30.79330612900003],[118.31303569900001,30.822373737000078],[118.3408127570001,30.839036985000064],[118.38388647600004,30.84934124600005],[118.4139676750001,30.82744062100005],[118.42923878400006,30.801214680000044],[118.4504711300001,30.771257757000058],[118.47805518900009,30.815632287000028],[118.47242161600002,30.84244531400003],[118.4732923900001,30.885352484000066],[118.48196036200011,30.93637924400008],[118.46591740800011,30.965440545000035],[118.5211549070001,30.959439833000033],[118.56160300500005,30.964359631000036],[118.57373707600004,30.992914289000055],[118.56487145300002,31.033856850000063],[118.59858346600004,31.040256880000072],[118.63589473400009,31.03063680500003],[118.66128261400002,31.05343408400006],[118.66767912400007,31.08246378900003],[118.68450523800004,31.12400163700005],[118.71561674300006,31.144917923000037],[118.69307518100004,31.172705977000078],[118.67034004000004,31.194039475000068],[118.65756060800004,31.218675661000077],[118.65080895900007,31.254356851000068],[118.6509613930001,31.29960673000005],[118.6957126420001,31.307253807000052],[118.7130722180001,31.28135685600006],[118.76381355700005,31.23081257800004],[118.78088079200006,31.242136490000064],[118.8361536330001,31.22864173000005],[118.90398523600004,31.22405996300006],[118.9530467290001,31.234966411000073],[119.00179783400006,31.23163134600003],[119.01649229700001,31.236772462000033],[119.05703378600003,31.25097300500005],[119.08553311200001,31.269477272000074],[119.13985358100001,31.289738734000025],[119.17604438500007,31.25787912900006]]]}}]}
