{"type":"FeatureCollection","name":"admin2_chn_cn-bj","adm0A3":"CHN","parentCode":"CN-BJ","parentName":"Beijing","bbox":[115.40417710800011,39.417053827000075,117.46482569900002,41.05700939700006],"features":[{"type":"Feature","properties":{"code":"CN011010","name":"Beijing Municipality","label":"Beijing Municipality · 北京市","type":"Municipality","parentCode":"CN-BJ"},"geometry":{"type":"Polygon","coordinates":[[[117.31470775600008,40.180915139000035],[117.31989510500011,40.173054310000055],[117.32554440000001,40.169237612000074],[117.36724735700011,40.135466214000076],[117.31889546800005,40.11996418600006],[117.26583086000005,40.12783713600004],[117.24440984600005,40.114688700000045],[117.21451475100002,40.086008965000076],[117.21415744800004,40.084914549000075],[116.97226169900011,40.02443352700004],[116.94775014800007,40.026102664000064],[116.87590153200006,40.02804555700004],[116.82538886100008,40.02707724100003],[116.78139695100003,40.01861583200008],[116.75110944700009,40.00229938700005],[116.74297382300006,39.992000449000045],[116.73435447700001,39.97636767700004],[116.72510062900005,39.95362148500004],[116.72414201000004,39.942958685000065],[116.73715916900005,39.92801283600005],[116.75084239600005,39.920177032000026],[116.75348851700005,39.87004862500004],[116.77365354300002,39.85473510300005],[116.79381062300001,39.83942313800003],[116.82111420700005,39.823736058000065],[116.85653150900009,39.81833918800004],[116.88579100000004,39.823968396000055],[116.89310408100005,39.82537593500007],[116.91273178600011,39.80470977900006],[116.90976407700009,39.772726136000074],[116.89982320600006,39.74288966900008],[116.88209281600007,39.706313891000036],[116.88791816500009,39.691734918000066],[116.90120790900005,39.680328005000035],[116.84170080700005,39.646502663000035],[116.81041584200011,39.61073403700004],[116.80318026600003,39.579201383000054],[116.78749921600001,39.56226612900008],[116.7699695440001,39.578915290000054],[116.74106667700005,39.60321028200008],[116.73195000100009,39.60803789700003],[116.71166258500011,39.60627997900008],[116.69241005300012,39.58689470300004],[116.68724051400011,39.58168921400005],[116.66398789700008,39.57208905400006],[116.6067911560001,39.583432825000045],[116.58713895100004,39.605517752000026],[116.53500711700008,39.590059593000035],[116.52765536400011,39.57091109400005],[116.5021139910001,39.54634139500007],[116.43791627500002,39.52693796900007],[116.40528214900007,39.50176280900007],[116.40066752300004,39.49811666800008],[116.39146987700008,39.49084019900005],[116.39443264600004,39.48269560500006],[116.42380395300006,39.46384008000007],[116.42866627600006,39.43355814100005],[116.42758036400005,39.42911184600007],[116.386439816,39.417053827000075],[116.3840702760001,39.417168512000046],[116.34880536700007,39.42244282100006],[116.29561728300007,39.44104981000004],[116.26582375700002,39.45495795900007],[116.23660295800005,39.47596793300005],[116.21895935000009,39.49286274000008],[116.210348683,39.503971945000046],[116.2098955890001,39.527183249000075],[116.18061362200001,39.576736296000036],[116.17161454900008,39.57856624300007],[116.133399542,39.55708851300005],[116.069828658,39.54544634000007],[116.01106458400011,39.53447352000006],[115.9927713300001,39.544026347000056],[115.95251270200004,39.54381188000008],[115.92753872000003,39.54211602400005],[115.89056804300003,39.55590302000007],[115.83996573900004,39.542776149000076],[115.82440898800007,39.52213474600006],[115.80779164100011,39.503298037000036],[115.77934918800008,39.49456689500005],[115.72813189800002,39.47883547300006],[115.66950555900007,39.54287558400006],[115.6371457250001,39.57411143400003],[115.60961426300003,39.58836731000008],[115.56169784100007,39.57946094400006],[115.53827361100002,39.58382512000003],[115.50792871400006,39.59107884900004],[115.48826513900008,39.61829484200007],[115.45229237500007,39.66995230200007],[115.43538928900011,39.704140522000046],[115.44851567,39.70545309400006],[115.46438755500003,39.71286337600003],[115.41579287200011,39.733110974000056],[115.41601666500003,39.776437430000044],[115.47837784400008,39.767209302000026],[115.54995393900003,39.77266792900008],[115.54623874800006,39.78808984700004],[115.54522227400003,39.79229354700004],[115.4789258510001,39.85386916400006],[115.47827797800005,39.88219169300004],[115.43803133600011,39.904808650000064],[115.4223634440001,39.93729999300007],[115.40417710800011,39.97495786700006],[115.40782419600009,40.015525353000044],[115.44931149900003,40.03179423900008],[115.52092078300007,40.033737389000066],[115.541624737,40.04901885400005],[115.56214524000006,40.06414134200003],[115.6039416210001,40.103358600000035],[115.67432582800006,40.122075531000064],[115.7370588550001,40.114492072000075],[115.79081016800001,40.13375030200007],[115.84847725500003,40.14380298900005],[115.85359678500004,40.14469528400008],[115.85832976100005,40.17991249600004],[115.9216894760001,40.21647169500005],[115.92389822900009,40.235706443000026],[115.92746920400009,40.266689573000065],[115.89590357500003,40.29532003600008],[115.84574831500004,40.350291809000055],[115.77444461400012,40.39451979300003],[115.74681979000002,40.43004757400007],[115.73618976000012,40.450792603000025],[115.71131016100003,40.47381834500004],[115.70813544000009,40.49871747800006],[115.73343659800003,40.51904245500003],[115.76525435500002,40.53600954900003],[115.79598937300011,40.554325352000035],[115.81100831300012,40.56081496300004],[115.83790735600007,40.56500240500003],[115.89756174600006,40.585603441000046],[115.94971625700009,40.57257462700005],[116.00512335600001,40.57010502600008],[116.03714672900003,40.57759432800003],[116.06029465100005,40.59440836400006],[116.07710168800008,40.62222523300005],[116.1029661870001,40.64247307100004],[116.1291476880001,40.66628296400006],[116.15864240300004,40.70065666000005],[116.19059089000007,40.734913273000075],[116.20808593900006,40.74124436000005],[116.23493306400007,40.743575848000035],[116.24881322300007,40.73578139600005],[116.27506412800005,40.73098386200007],[116.28501971500009,40.73408994000005],[116.3007261780001,40.747646529000065],[116.31536102100006,40.74874682600006],[116.39440099600006,40.737853716000075],[116.45433743600006,40.73937257400007],[116.429886968,40.76825314600006],[116.39379821200009,40.78480031700008],[116.36483386300006,40.800156575000074],[116.29952735200004,40.87898128900008],[116.29697143500005,40.910080728000025],[116.31165789200008,40.91303158800008],[116.32389957700002,40.90645104600003],[116.33835894700007,40.89866848500003],[116.3590183440001,40.884537022000075],[116.39543946300012,40.87153050200004],[116.43751265800006,40.86979669300007],[116.43549075300007,40.89114589700006],[116.41649523000001,40.911415770000076],[116.40477708900005,40.948217671000066],[116.427025791,40.95527094100004],[116.47610351900005,40.949698726000065],[116.50311527200006,40.95566254000005],[116.53648513000007,40.96577847900005],[116.55700272900003,41.02870654600008],[116.62084033400004,41.05700939700006],[116.63399727300009,41.039613734000056],[116.64768510700003,40.99826796800005],[116.6498608170001,40.98396614700005],[116.65486405400009,40.95100206200004],[116.68097430000012,40.91443898600005],[116.7068148830001,40.89028856600004],[116.70875258300009,40.86894008200005],[116.70269344700012,40.85325630300008],[116.76440643500007,40.82576404500003],[116.79733611400002,40.81545337800003],[116.83850875600001,40.78794251700003],[116.8573348220001,40.76140235200006],[116.90005927900006,40.71791304100003],[116.91672483200011,40.696381071000076],[116.933389895,40.67484263700004],[116.95774476500003,40.668986120000056],[117.01418143800004,40.67293446800005],[117.09870907800007,40.677679012000056],[117.17309506800007,40.67371907800003],[117.27751667400003,40.65889898200004],[117.3792751740001,40.648738379000065],[117.45382663300006,40.64690773900003],[117.46482569900002,40.632507073000056],[117.45277586600002,40.60970514300004],[117.43752369600008,40.60874574400003],[117.41160532800006,40.598695400000054],[117.40334105600004,40.57846546800005],[117.40856182100003,40.55761872800008],[117.38718167800005,40.53296864400005],[117.34428384500006,40.536821890000056],[117.2981753150001,40.54523607700003],[117.24748182400003,40.54234840600003],[117.20187152000005,40.52855840400008],[117.16614504800009,40.50367324700005],[117.18831559800003,40.43973416700004],[117.17457428000012,40.39078149200003],[117.16353400000003,40.37358457100004],[117.19035715600012,40.34900066300003],[117.20021576600004,40.339969659000076],[117.23304915400001,40.289695831000074],[117.25796557600006,40.25928024900003],[117.27477607500009,40.24607453300007],[117.28777207200005,40.23039444500006],[117.3029829940001,40.19866742100004],[117.31470775600008,40.180915139000035]]]}}]}
