{"type":"FeatureCollection","name":"admin2_chn_cn-cq","adm0A3":"CHN","parentCode":"CN-CQ","parentName":"Chongqing","bbox":[105.30953763100007,28.169630426000026,110.15310568000007,32.20283413100003],"features":[{"type":"Feature","properties":{"code":"CN050010","name":"Chongqing Municipality","label":"Chongqing Municipality · 重庆市","type":"Municipality","parentCode":"CN-CQ"},"geometry":{"type":"Polygon","coordinates":[[[109.54600341600008,31.72160671300003],[109.56351573100005,31.718651728000054],[109.59432299100007,31.731396722000056],[109.63816709900004,31.73274003000006],[109.66310394200008,31.71259840400006],[109.70933202200007,31.62703496000006],[109.71311154200004,31.588940596000043],[109.69131275700005,31.547930953000048],[109.76303130600007,31.535308850000035],[109.78973999300007,31.53377765500005],[109.83334156300003,31.545689504000052],[109.88727819600007,31.502681041000073],[109.89208698700008,31.501674157000025],[109.92733751500003,31.48748962600007],[109.92793260700006,31.460919524000076],[109.98295953700006,31.442220141000064],[110.00569243800004,31.412228810000045],[110.02714985400007,31.39995851900005],[110.04938477300004,31.41253350200003],[110.11545747300005,31.310054249000075],[110.11498059500008,31.304802797000036],[110.10878197500006,31.234592060000068],[110.15310568000007,31.160323240000025],[110.09281733800009,31.13420874700006],[110.08796655300006,31.090690064000057],[110.09904132400004,31.047268606000046],[110.14452764800006,30.952571082000077],[110.11348224400007,30.878683894000062],[110.09235733400004,30.844326068000044],[110.08224781000007,30.827872762000027],[110.04229564200006,30.803628412000023],[109.99221445500007,30.834348787000067],[109.97765857500008,30.901722936000056],[109.95748661800008,30.905120055000054],[109.91000778600005,30.89054384800005],[109.83377171500007,30.88812856800007],[109.74620162000008,30.865136705000054],[109.70115630100008,30.83273503500004],[109.64788108200008,30.787799009000025],[109.63685466400005,30.775603924000052],[109.60736169700004,30.742971770000054],[109.56526721300008,30.66790489500005],[109.52198704900007,30.665647312000033],[109.52008979600004,30.665439751000065],[109.47665108900009,30.66067825600004],[109.42243475000004,30.621829827000056],[109.39276120900007,30.57171547200005],[109.38415524400006,30.524516179000045],[109.34473408100007,30.49025001600006],[109.32503007400004,30.527314356000034],[109.33409250300008,30.54964263100004],[109.32411876800006,30.574391862000027],[109.29376808300009,30.613972601000057],[109.27969901100005,30.631551285000057],[109.25971396200003,30.62772951900007],[109.21410141800004,30.58712166600003],[109.17682089000004,30.553717900000038],[109.16122905900005,30.542831852000063],[109.12113232600007,30.54313564200004],[109.10863365100005,30.55955097100008],[109.07222035400008,30.607264156000042],[109.04512105400005,30.637942616000032],[108.99749330000009,30.642528834000075],[108.99529888600006,30.642223581000053],[108.94696904000006,30.63550158700008],[108.89945290400004,30.592071843000042],[108.88035921400007,30.57532847300007],[108.85504306700005,30.553116035000073],[108.82671629800006,30.505535047000023],[108.78056736700006,30.495839928000066],[108.68501380700008,30.558981550000055],[108.64969298000005,30.61519191700006],[108.61361601000004,30.621615056000053],[108.59223368800008,30.55634258500004],[108.58711477300005,30.513586488000044],[108.56556964800006,30.492727906000027],[108.48576355700004,30.48136759600004],[108.43568206000003,30.499008908000064],[108.40835046300003,30.49634169600006],[108.38942327100006,30.49448963900005],[108.38549800000004,30.41619091800004],[108.38800153800008,30.369130029000075],[108.42949321200007,30.354886828000076],[108.46944944500007,30.32103549900006],[108.52060590500008,30.262497690000032],[108.53614404600006,30.234356156000047],[108.53790320200005,30.209490880000033],[108.53665300200004,30.143662582000047],[108.51183959700006,30.094249106000063],[108.48905104900007,30.048427625000045],[108.49462778800006,30.03697827600007],[108.52954708400006,29.989642652000043],[108.49410717100005,29.94711823700004],[108.49881450100008,29.910239164000075],[108.49954157500008,29.904521205000037],[108.50243759500006,29.87699701400004],[108.49216177000005,29.870559573000037],[108.45050659300006,29.863475356000038],[108.44733635000006,29.86411989800007],[108.41470330800007,29.87073966300005],[108.37808908400007,29.869963959000074],[108.34528177800007,29.84790711000005],[108.34495944400004,29.82476052800007],[108.37173308000007,29.80397755000007],[108.37472287900005,29.79891636800005],[108.39710172500008,29.760908378000067],[108.44773523600009,29.71034363900003],[108.51613505200004,29.72086686800003],[108.52780810700006,29.72265993600007],[108.52481494700004,29.746878464000076],[108.52373578300006,29.75550633900008],[108.53512792100008,29.79578467300007],[108.55621071500008,29.826461231000053],[108.60794717500005,29.847048164000057],[108.62263547300006,29.825685342000043],[108.64717716600006,29.78995950500007],[108.65101699100006,29.764223705000063],[108.65977959900005,29.710990666000043],[108.66239676100008,29.691456420000065],[108.72364620200005,29.665894836000064],[108.76151663400009,29.655014189000042],[108.81003711800008,29.63540742600003],[108.84524395100004,29.604865154000038],[108.83633961800007,29.585123140000064],[108.85731235000009,29.58103696200004],[108.88354441700005,29.574364296000056],[108.85915211600008,29.54812921200005],[108.82910293800006,29.499524845000053],[108.83425325300004,29.46043308700007],[108.88339979500006,29.452377988000023],[108.90811432200007,29.42074070900003],[108.89790153700005,29.369803003000072],[108.88838930000009,29.33312068200007],[108.91766942700008,29.326490789000047],[108.93596177100005,29.332774551000057],[108.95583881200008,29.339595650000035],[108.99812201500004,29.35453542500005],[109.02961985700006,29.387988564000068],[109.03560741100006,29.391257430000053],[109.04811575500008,29.398081629000046],[109.08981064100004,29.347957775000054],[109.08566136600007,29.300686877000032],[109.09171078700007,29.261584158000062],[109.08550508700006,29.212490702000025],[109.09342358100008,29.18321067100004],[109.15616415000005,29.161879705000047],[109.18315478700003,29.161384229000078],[109.20468001800003,29.123380698000062],[109.20470153800005,29.139390872000035],[109.28571439300003,29.064809490000073],[109.29245022900005,29.038166428000068],[109.28151321900003,29.014841192000063],[109.26334527300008,28.99052713100008],[109.24244396200004,28.948340603000076],[109.21122511800007,28.905997353000032],[109.20371735100008,28.86844501300004],[109.23114743800005,28.817815804000077],[109.24134722700006,28.79675645800006],[109.26734754100005,28.768468464000023],[109.27936407100009,28.755375138000034],[109.24723270000004,28.709444321000035],[109.22801819100005,28.68954947000003],[109.17704862400007,28.659375545000046],[109.19827149700006,28.630247892000057],[109.20488186600005,28.60982842800007],[109.29701978600008,28.590599518000033],[109.29118506100008,28.572678576000044],[109.27772169900004,28.556392195000058],[109.27105089400004,28.54831333100003],[109.24893282600004,28.487394626000025],[109.19538829800007,28.469603040000038],[109.14599148400004,28.419787599000074],[109.13343942600005,28.38121932000007],[109.12728646200009,28.33203038100004],[109.11689326000004,28.289022140000043],[109.08771583800007,28.26089264500007],[109.09028937800008,28.236824394000053],[109.09215440200006,28.19845566400005],[109.05532935900004,28.192521640000052],[109.03443347000007,28.20915475000004],[109.01176880900005,28.21325268100003],[108.99880872400007,28.196077939000077],[108.96555345300004,28.169630426000026],[108.93292766400003,28.20480615300005],[108.91408189900005,28.220557099000075],[108.86412421700004,28.206297310000025],[108.83696312600006,28.225464014000067],[108.81163355800004,28.253587079000056],[108.77052916000008,28.21355015000006],[108.73547287000008,28.220045656000025],[108.74791473900007,28.335456994000026],[108.73915759300007,28.436164553000026],[108.71666735700006,28.46966056100007],[108.70633917500004,28.47492219800006],[108.68117793100004,28.487733140000046],[108.62721655100006,28.465269999000043],[108.63162684300005,28.454645261000053],[108.64620751400008,28.448680010000032],[108.64905059500006,28.41928423400003],[108.63969685400008,28.384288395000056],[108.62123186700006,28.34464780600007],[108.56220579100005,28.35896156800004],[108.56515155300008,28.364959159000023],[108.57705592400004,28.417866643000025],[108.57670105700004,28.467843295000023],[108.56087673600007,28.518396401000075],[108.58450799300005,28.55813156000005],[108.60722919600005,28.63174470900003],[108.54428907300007,28.668853675000037],[108.48411070400005,28.64442385700005],[108.47294744000004,28.602260152000042],[108.43511535600004,28.62644698200006],[108.40165424900005,28.641794897000068],[108.33724811600007,28.65645226600003],[108.28750178500007,28.729391744000054],[108.35238112500008,28.769185235000066],[108.34537877700006,28.795788222000056],[108.31747064700005,28.829066260000047],[108.33358834000006,28.910568757000078],[108.30594123900005,28.96791589000003],[108.28981255600007,28.989916054000048],[108.28214088300007,29.000371659000052],[108.26592298400004,29.087365998000053],[108.24649610900008,29.07890370900003],[108.23566261000008,29.06083154600003],[108.22575676000008,29.046342509000056],[108.16347356000006,29.080558332000066],[108.11710977300004,29.071441191000076],[108.07844782000006,29.08031930800007],[108.05367624900003,29.07742886500006],[108.04952335800004,29.076944337000043],[108.00573547900007,29.053579823000064],[107.96269699000004,29.039135630000033],[107.92626244700006,29.043560894000052],[107.88375747800006,29.014833499000076],[107.86475594100006,28.96708366400003],[107.83545362700005,28.958101218000024],[107.78656524700006,29.00871638800004],[107.78573217600007,29.01305092800004],[107.77626353800008,29.062824440000043],[107.76373485900007,29.120435341000075],[107.75443150500007,29.174554572000034],[107.70985459000008,29.200087609000036],[107.66837837800006,29.17131551700004],[107.62934612200007,29.16042582700004],[107.58043026200005,29.163503201000026],[107.54803500300005,29.194667826000057],[107.53513542300004,29.20588239500006],[107.49416189900006,29.191325348000078],[107.42714253800006,29.204503786000032],[107.42319095400006,29.198425133000057],[107.40469697400005,29.169962388000044],[107.39725571700006,29.149238669000056],[107.37819096500004,29.133507764000058],[107.35749134000008,29.082955945000037],[107.37734043900008,29.03005800300008],[107.39321578700009,28.99754455200008],[107.42007448900006,28.974273078000067],[107.44198146200006,28.920520991000046],[107.41487035100005,28.87511703100006],[107.38053806200008,28.852855000000034],[107.35141605000007,28.833945396000047],[107.27451875200006,28.794101729000033],[107.24523524200004,28.778019132000054],[107.24116325100005,28.783028046000027],[107.20918281700006,28.822376579000036],[107.21440561300005,28.844846808000057],[107.14955919900007,28.883805634000055],[107.09199564600004,28.897992959000078],[107.02792539400008,28.88265263200003],[107.01417254800003,28.87935763300004],[106.98116377400004,28.832744369000068],[106.96422092600005,28.78164466800007],[106.94221662100006,28.790010866000046],[106.90280230500008,28.794329299000026],[106.85375826100005,28.779595347000054],[106.84474876100006,28.770074695000062],[106.81900654500004,28.742873863000057],[106.84319125900004,28.675561790000074],[106.86356381500008,28.654649041000027],[106.83645347400005,28.607393174000038],[106.80692223600005,28.59763543300005],[106.76134973600006,28.603524272000072],[106.73175771900009,28.622370671000056],[106.73924375800004,28.588586725000027],[106.76889001300003,28.56794860100007],[106.72401269100004,28.555948460000025],[106.74206411900008,28.515299853000045],[106.74127381400007,28.48216731000008],[106.72191625700003,28.471457134000048],[106.69694426800004,28.45763789500006],[106.67014453200005,28.484610630000077],[106.64968730300006,28.507285468000077],[106.60375726000007,28.496995062000053],[106.57285103900006,28.52292612000008],[106.60799439100003,28.59733568000007],[106.62879571300004,28.64446601900005],[106.64357737700004,28.66189166600003],[106.64468473800008,28.686074674000054],[106.59722711600006,28.711522479000052],[106.56581812300004,28.722224151000034],[106.57633054200005,28.743105274000072],[106.54639230300006,28.76815468500007],[106.51695597700007,28.78068642900007],[106.50896002800005,28.799224382000034],[106.47709821700005,28.844762612000068],[106.45285986900006,28.855645924000044],[106.43771466400005,28.847746139000037],[106.42554095000008,28.841394785000034],[106.43965022100008,28.776546069000062],[106.47508457100008,28.719494962000056],[106.51912351500005,28.702938519000043],[106.52717933400004,28.65755774200005],[106.49954902900004,28.627200380000033],[106.49087727600005,28.612619711000036],[106.47976032300005,28.581863764000047],[106.50440672800005,28.534293234000074],[106.46851696700008,28.530517314000065],[106.44376049700008,28.555707466000058],[106.38288840200005,28.55739397800005],[106.37760352000004,28.521749242000055],[106.32400670600003,28.54209131400006],[106.32897199800004,28.576699089000044],[106.32635109400007,28.604481847000045],[106.31464790800004,28.63040368000003],[106.31098960100007,28.659933100000046],[106.30606613000003,28.690374185000053],[106.29495788900005,28.729222039000035],[106.27264838400004,28.75274753900004],[106.25031431800005,28.779048769000042],[106.25740810400004,28.809592961000078],[106.25312376500005,28.84103044400007],[106.21419988000008,28.86864886400008],[106.17630474900005,28.895800287000043],[106.14060146800006,28.899820866000027],[106.09976783200005,28.892711656000074],[106.06250162600008,28.897631567000076],[106.04315431900005,28.925282395000067],[106.01201064800006,28.938535269000056],[105.98395268800004,28.952720003000024],[105.95046311300007,28.934502089000034],[105.91903046300007,28.918137424000065],[105.91150778300005,28.89173406900005],[105.87630799000004,28.894754783000053],[105.83276801200009,28.903717485000072],[105.79688171000004,28.92197015200003],[105.78627566700004,28.948248340000077],[105.74988555800007,29.01132238200006],[105.75941862300004,29.040055675000076],[105.73117994600005,29.064342556000042],[105.71858947100009,29.12479557200004],[105.71361379500007,29.152950781000072],[105.70600014000007,29.18339340700004],[105.70359916400008,29.212948467000047],[105.71075960400009,29.260761927000033],[105.64928238200008,29.239777079000078],[105.63836960400005,29.26932798200005],[105.57149981300006,29.27145383000004],[105.52481322000006,29.26501997300005],[105.48931092000004,29.27761975800007],[105.41279418800008,29.322596764000025],[105.43364941600004,29.35422224200005],[105.43472905600004,29.387499453000032],[105.41042971000007,29.41265349500003],[105.40840074400006,29.444963103000077],[105.41784915100004,29.474623018000045],[105.40651895600007,29.501291037000044],[105.37153896300003,29.506007236000073],[105.33950943600007,29.522288058000072],[105.30953763100007,29.538580358000047],[105.32616880400008,29.57478393100007],[105.35165374100006,29.612923610000053],[105.38769618300006,29.644700675000024],[105.42146815400008,29.68983237200007],[105.45093659300005,29.673970584000074],[105.47204073100005,29.695873036000023],[105.50938597700008,29.714235833000032],[105.54388424700005,29.711785151000072],[105.55862837400008,29.742842691000078],[105.59887960300006,29.74089058100003],[105.60301608800006,29.78615829100005],[105.61673842800008,29.817661330000078],[105.65847812000004,29.825851363000027],[105.72156386900008,29.83056058300008],[105.72106833100008,29.887255364000055],[105.71497860700003,29.917663047000076],[105.73494447600007,29.958415631000037],[105.75140444500005,29.986221555000043],[105.75051785800008,30.018968573000052],[105.72509089500005,30.04369255000006],[105.69249469000005,30.051282465000043],[105.64908614200004,30.08553365100005],[105.62057795400005,30.10052059800006],[105.58676456700005,30.11913904800008],[105.58431861500009,30.14632912500008],[105.54917549100009,30.143713138000066],[105.54819638200007,30.17829755400004],[105.55043639000007,30.20690720600004],[105.59156170000006,30.195280061000062],[105.62413875000004,30.19509505600007],[105.65764801400007,30.20367217300003],[105.63156410200008,30.231126386000028],[105.62334151000005,30.259188166000058],[105.65892942500005,30.27146718000006],[105.69589473700006,30.258389798000053],[105.72992007400006,30.270632112000044],[105.71486136200008,30.30048970300004],[105.72613214500007,30.327777825000055],[105.75323213400009,30.351032537000037],[105.76715464400007,30.378330908000066],[105.77895738800004,30.40791313300008],[105.79976327000008,30.431109484000046],[105.83683921000005,30.410613238000053],[105.86814083300004,30.387306141000067],[105.90600349100004,30.391686279000055],[105.93767054200003,30.383108442000037],[105.97309287000007,30.36301786200005],[106.00662649100008,30.382558489000075],[106.03422012700008,30.353191405000075],[106.06330218100004,30.333503935000067],[106.09496482400004,30.31889252700006],[106.13335462600008,30.320436208000046],[106.17598370100006,30.317830831000038],[106.18565820000003,30.28236740500006],[106.18318239300004,30.253308520000076],[106.19594469300006,30.22845452000007],[106.20553763900006,30.202204024000025],[106.24234728900007,30.195405151000045],[106.29070280300004,30.18586048700007],[106.32737342400009,30.20992995900008],[106.35673135200005,30.228902240000025],[106.40135785400008,30.238210062000064],[106.43760553400006,30.241496535000067],[106.46670483700007,30.286889873000064],[106.54738094900006,30.28494338400003],[106.59731711300009,30.296941651000054],[106.62204086500009,30.276195216000076],[106.63389232600008,30.245430602000056],[106.62838173000006,30.20656593900003],[106.65779679400003,30.17658172600005],[106.67932185300003,30.153049303000046],[106.67484997700006,30.109422279000057],[106.70920680200004,30.073237927000037],[106.74851549500005,30.052437913000063],[106.77680980400004,30.038100392000047],[106.80667182200006,30.02744344300004],[106.86984452300004,30.038579454000057],[106.90838374900005,30.031834696000033],[106.94461271800009,30.054335405000074],[106.98812042600008,30.047285791000036],[107.01742004200008,30.03380564500003],[107.05422114100008,30.055348182000046],[107.07692686400009,30.087084977000075],[107.10539548100007,30.115105578000055],[107.13808625700005,30.142168600000048],[107.16765810700008,30.17292952100007],[107.18938889800006,30.203718998000056],[107.23656345500007,30.234657541000047],[107.24824786700009,30.284106493000024],[107.26482390600006,30.32090101600005],[107.28766690400005,30.35211720800004],[107.30523228800007,30.377369730000055],[107.32763000800009,30.414571892000026],[107.34155789700009,30.444449846000055],[107.36982108200004,30.484828032000053],[107.40085398500008,30.50538501500006],[107.43050930200008,30.549861431000068],[107.44656573200007,30.575093460000062],[107.46631197300007,30.597532543000057],[107.49184256500007,30.61900143300005],[107.49265719400006,30.647102179000058],[107.45276631800004,30.673199089000036],[107.43137580400008,30.70145391500006],[107.43965927900007,30.741017665000072],[107.46208741600009,30.76389017500003],[107.49097880800008,30.797768373000054],[107.51566013800004,30.838346217000037],[107.52708841400005,30.86819965500007],[107.56568354100006,30.856141614000023],[107.59572142100006,30.843916404000026],[107.62839561300007,30.83166035100004],[107.66566283900005,30.849757010000076],[107.69811420100007,30.867668105000064],[107.74437739200005,30.87804350600004],[107.75927199000006,30.842890553000075],[107.76630649100008,30.814261271000078],[107.81049849100003,30.795393293000075],[107.85610762300007,30.80367305200008],[107.88451618300007,30.82870036500003],[107.91922171700008,30.848589937000042],[107.94085367300005,30.877825822000034],[107.95081934600006,30.906729674000076],[107.92035235200007,30.923193814000058],[107.91777625700007,30.963748080000073],[107.93835696800005,30.992068135000068],[107.98898316200007,31.008070493000048],[108.01695769500009,31.032147473000066],[108.03761366000003,31.06182558000006],[108.00879639400006,31.08519347300006],[108.02411930400007,31.11309964900005],[108.04902850500008,31.140883102000032],[108.06587806800007,31.164156003000073],[108.08177208000006,31.192961965000052],[108.04581427600004,31.203992000000028],[108.03535783600006,31.246471056000075],[108.06900336000007,31.254345903000058],[108.09638126500005,31.268734051000024],[108.13983432000003,31.28889388500005],[108.17064222300007,31.314729030000024],[108.16220237600004,31.34844045500006],[108.16754183800003,31.378287581000052],[108.19665477800004,31.39676755200003],[108.20730654300007,31.42469471800007],[108.20846787900007,31.458272446000024],[108.20255456800004,31.48458143700003],[108.24430776500009,31.492298150000067],[108.29122529700004,31.49026183500007],[108.31871023300005,31.504133266000053],[108.34015013700008,31.534653649000063],[108.38190443500008,31.566248391000045],[108.38094130500008,31.597088923000058],[108.41451772500005,31.618205424000053],[108.45774717500007,31.61616358400005],[108.49937042600004,31.63713320100004],[108.51952406800007,31.677754596000057],[108.51986670300005,31.71685283200003],[108.52162378100007,31.74764421200007],[108.48944763300005,31.768389419000073],[108.45223218500007,31.780471301000034],[108.43077593500004,31.803338937000035],[108.39562718600007,31.812607812000067],[108.36180386000007,31.83518487400005],[108.33209283700006,31.84941456000007],[108.30631516400007,31.87369717100006],[108.28387188100004,31.903446165000048],[108.26992613300007,31.931231339000078],[108.26573883800006,31.963475386000027],[108.29618391300005,31.983741043000066],[108.33990785700007,31.96978348700003],[108.35493424000003,31.99577499000003],[108.33519471600005,32.02778211900005],[108.35340739900005,32.05188640200004],[108.39023385700006,32.06605914000005],[108.42881653500007,32.06134130100003],[108.42786846000007,32.09215664800007],[108.41567952500009,32.125443474000065],[108.38221630600009,32.14479113200008],[108.38509131600006,32.179221373000075],[108.43299727500005,32.18034582900003],[108.50206629400009,32.20283413100003],[108.55941533400005,32.175198634000026],[108.62915614600007,32.14460389100003],[108.63943209000007,32.13737180800007],[108.70156088800007,32.09363408000007],[108.76798818200007,32.061128144000065],[108.85424746200005,32.007644105000054],[108.89781798200005,31.982659397000077],[108.96881646200006,31.976708943000062],[109.02426195700008,31.946543530000042],[109.04027061300008,31.935186147000024],[109.09514992200008,31.89619005700007],[109.15083303700004,31.85089713600007],[109.15297542900004,31.84888303500003],[109.18146718400004,31.82207400200008],[109.22513715300005,31.78366555200006],[109.24551407200005,31.730742788000043],[109.25699451300005,31.72266454000004],[109.29869312800008,31.69331531800003],[109.35615364700004,31.70824506100007],[109.39856933800007,31.72827426200007],[109.48413220600008,31.73017813000007],[109.53688860900007,31.711267072000055],[109.54600341600008,31.72160671300003]]]}}]}
