{"type":"FeatureCollection","name":"admin2_chn_cn-gz","adm0A3":"CHN","parentCode":"CN-GZ","parentName":"Guizhou","bbox":[103.61242764300005,24.605391361000045,109.52724129000006,29.20588239500006],"features":[{"type":"Feature","properties":{"code":"CN052010","name":"Anshun","label":"Anshun · 安顺市","type":"Prefecture-level city","parentCode":"CN-GZ"},"geometry":{"type":"Polygon","coordinates":[[[106.46577969200007,26.31316698100005],[106.40969520300007,26.309121016000063],[106.37764436800006,26.30755412800005],[106.34355873000004,26.306329435000066],[106.33500155500008,26.258677415000022],[106.29799759700006,26.272140141000023],[106.26393102000009,26.278533984000035],[106.23828788300005,26.263304925000057],[106.25873293700005,26.234190331000036],[106.27140334400008,26.208732249000036],[106.26997160100007,26.175811227000054],[106.28821308100004,26.149272110000027],[106.26132202500008,26.130380582000043],[106.24308932600007,26.093906771000036],[106.22497887300005,26.071390890000032],[106.26414884000008,26.054456148000043],[106.29617780500007,26.038954674000024],[106.30323526200004,26.006447408000042],[106.28070192400008,25.97470685500008],[106.28881911800005,25.941345460000036],[106.29288162200004,25.908677818000058],[106.27482502200007,25.885704317000034],[106.25159984900006,25.865622013000063],[106.23008351300007,25.84246650500006],[106.22985334800006,25.814528732000042],[106.24234348200008,25.783175180000057],[106.26581505200005,25.751477177000027],[106.29780631300008,25.735063142000058],[106.32094763900005,25.70828484900005],[106.34084105400007,25.68539729500003],[106.37908720700005,25.67197109500006],[106.42523082400004,25.684155720000035],[106.45339386400008,25.704904551000027],[106.48595886600003,25.69942853200007],[106.47700399700005,25.669555796000054],[106.46201882200006,25.645399532000056],[106.44388138300008,25.615672717000052],[106.42962940500007,25.587935552000033],[106.40738003300004,25.536360757000068],[106.39494406600005,25.503742480000028],[106.38362122300003,25.439058548000048],[106.34488040400004,25.403866703000062],[106.30500535100003,25.413142074000064],[106.28491223500004,25.44008829200004],[106.25033965400007,25.467650737000042],[106.21872402100007,25.479566266000063],[106.18276567300006,25.48899856500003],[106.14765204800005,25.51649858500008],[106.13552659700008,25.550134412000034],[106.13037017900007,25.59134232200006],[106.08881429900003,25.594142731000034],[106.05939500900007,25.586744315000033],[106.03662231800007,25.607187789000022],[106.00733045500004,25.635395045000053],[105.97897242000005,25.624258757000064],[105.98416915000007,25.593595153000024],[105.96301232000008,25.56677842700003],[105.93140060200005,25.55516940600006],[105.91062379800007,25.530608665000045],[105.91534531800005,25.489825779000057],[105.92292787700006,25.458215064000058],[105.89255965400008,25.44349744400006],[105.85277687800004,25.450363047000053],[105.82419533300003,25.47541696500008],[105.79486172400004,25.511241614000028],[105.76430731800008,25.550143605000073],[105.77131655400007,25.55329524600006],[105.74080964900008,25.57248098200006],[105.72422083400005,25.586239660000047],[105.70692375600004,25.614374232000046],[105.69758985700008,25.64281259200004],[105.67230658700004,25.67062403600005],[105.65639521600008,25.66999699300004],[105.59096415900007,25.70340259200003],[105.56708167800008,25.702446675000033],[105.53700294600009,25.687316045000046],[105.53595933000008,25.686796204000075],[105.49471903200003,25.71391969900003],[105.47843046600008,25.720452304000048],[105.46068050600007,25.75572008300003],[105.43566713400008,25.77628624700003],[105.40380630400006,25.774963873000047],[105.39508908600004,25.788997497000025],[105.37729329700005,25.824244769000074],[105.39171981300007,25.853634792000037],[105.38262576200003,25.87484641800006],[105.36629177400005,25.88136128000008],[105.33441573300007,25.880020139000067],[105.30212464800007,25.88585192200003],[105.27551234600008,25.935091971000077],[105.24165261100006,25.969617395000057],[105.23291276400005,25.983631175000028],[105.23134401900006,26.012340707000078],[105.22824494400004,26.06975662600007],[105.28525880200004,26.029343862000076],[105.32278222300005,26.030200811000043],[105.36639888600007,26.03680784000005],[105.41384343500005,26.03911677900004],[105.45961361000008,26.036805756000035],[105.52135769500006,26.063303184000063],[105.54112063300005,26.08829429700006],[105.57624465100008,26.10198831300005],[105.59121992500008,26.13119083400005],[105.59847411300007,26.16311373600007],[105.62576938300003,26.181748696000056],[105.66773423500007,26.184536458000025],[105.67596344700007,26.21739720100004],[105.64521844700005,26.24044058000004],[105.60869843800003,26.24560318300007],[105.56694507800006,26.246411128000034],[105.52611763900006,26.255354304000036],[105.49819051000009,26.266368314000033],[105.47681825300003,26.29080222500005],[105.48446037300005,26.324091188000068],[105.50465661700008,26.350885018000042],[105.53316263700003,26.386674215000028],[105.56890071300006,26.42168008400006],[105.59474457000005,26.447417921000067],[105.62496833500006,26.461247401000037],[105.65398985800005,26.470956768000065],[105.69264428200006,26.479838631000064],[105.73420447600006,26.46863012400007],[105.76198148700007,26.45305791000004],[105.79221286300009,26.48168067100005],[105.83270254700005,26.49330836400003],[105.88146980300007,26.516604761000053],[105.92529933900005,26.538713229000052],[105.96689765100007,26.526973904000045],[106.02801638200003,26.44617427700007],[106.08420891700007,26.448158437000075],[106.09993365000008,26.45588971600006],[106.10798077200008,26.45617035600003],[106.12306580400008,26.47824168300008],[106.13881330200007,26.48596955100004],[106.16102039800006,26.529818114000022],[106.16843527400005,26.544435391000036],[106.16747980800005,26.565941619000057],[106.17521085400006,26.573384728000065],[106.18788174100007,26.562050448000036],[106.21390832600008,26.541336898000054],[106.24749025100004,26.559652458000073],[106.28770238800007,26.561204813000074],[106.30625446500005,26.523017297000024],[106.32614676000009,26.48713691300003],[106.37124723400007,26.46642507000007],[106.42303109900007,26.476085150000074],[106.47698575300006,26.457164315000057],[106.48119498100004,26.42139726000005],[106.51110031800005,26.40124872800004],[106.54213717700009,26.403622958000028],[106.55269276300004,26.370400748000066],[106.50949404100004,26.33686881700004],[106.46577969200007,26.31316698100005]]]}},{"type":"Feature","properties":{"code":"CN052020","name":"Bijie","label":"Bijie · 毕节市","type":"Prefecture-level city","parentCode":"CN-GZ"},"geometry":{"type":"Polygon","coordinates":[[[106.00890943800005,27.743298208000056],[105.99645546100004,27.703597074000072],[105.99662443300008,27.67137532600003],[106.02764251900004,27.650594605000038],[106.06645339000005,27.650356655000053],[106.10063105900008,27.635530897000024],[106.11521532800003,27.608047403000057],[106.13262904900006,27.57620428100006],[106.15810065100004,27.553266360000066],[106.19142636400005,27.549963990000037],[106.22206485300006,27.55636426800004],[106.24849902700004,27.572857654000074],[106.27853812700005,27.588641961000064],[106.31419715500004,27.59711180000005],[106.32488595100006,27.557752934000064],[106.32709061700007,27.52384982800004],[106.31761332600007,27.489376763000053],[106.35105081400008,27.476237166000033],[106.37917768600005,27.476466551000044],[106.41108392300004,27.49180201100006],[106.44268936200007,27.514284748000023],[106.46736734900009,27.50789369900008],[106.50944976800008,27.473388775000046],[106.54194251100006,27.474384228000076],[106.57330054300007,27.503978334000067],[106.58926108700007,27.511623349000047],[106.62176926800004,27.51259572400005],[106.62227557900007,27.505594667000025],[106.63364446000008,27.492276410000045],[106.65951285900007,27.46832729500005],[106.69567626400004,27.45919418400007],[106.70594730300007,27.431834802000026],[106.72183514000005,27.40381948000004],[106.71938788900007,27.376324286000056],[106.72925899500007,27.312139856000044],[106.65580445700004,27.300776469000027],[106.62857954800006,27.280728984000064],[106.60690956800005,27.26136052000004],[106.58437941800008,27.239700249000066],[106.55047364800004,27.229581808000034],[106.50710517100003,27.216278741000053],[106.46911137500007,27.198270604000072],[106.44786081300003,27.178508629000078],[106.41828470500008,27.150960896000072],[106.39535972300007,27.09650447000007],[106.40969939800004,27.070313509000073],[106.42874649300006,27.033597127000064],[106.44871835700008,27.006323748000057],[106.41926917000006,26.983848797000064],[106.37764178000003,26.97781810200007],[106.36786860400008,26.940584771000033],[106.36530513100007,26.90144071000003],[106.37171635800007,26.881322083000043],[106.33167518800008,26.872850597000024],[106.29134111700006,26.871527111000034],[106.27643484900005,26.84234124900007],[106.26744729900008,26.86356367700006],[106.25069833900005,26.877351179000073],[106.25038217500008,26.88451742600006],[106.22649599100004,26.876541281000073],[106.21130456000009,26.85450985600005],[106.19548071400004,26.84680213100006],[106.19611283700004,26.83247479100004],[106.17192583700006,26.831653071000062],[106.12450772500006,26.808503092000024],[106.13319457000006,26.79444979300007],[106.14995895200008,26.780672759000026],[106.17570312900006,26.745676736000064],[106.17601940600008,26.73851006900003],[106.16828076700006,26.731070620000025],[106.17111747100006,26.666569464000077],[106.14760065100006,26.651407360000064],[106.13151410200004,26.65085302700004],[106.12410690500008,26.636242433000064],[106.14918841300005,26.615570422000076],[106.16590717000008,26.60178618900005],[106.16654683600007,26.58744734900006],[106.17521085400006,26.573384728000065],[106.16747980800005,26.565941619000057],[106.16843527400005,26.544435391000036],[106.16102039800006,26.529818114000022],[106.13881330200007,26.48596955100004],[106.12306580400008,26.47824168300008],[106.10798077200008,26.45617035600003],[106.09993365000008,26.45588971600006],[106.08420891700007,26.448158437000075],[106.02801638200003,26.44617427700007],[105.96689765100007,26.526973904000045],[105.92529933900005,26.538713229000052],[105.88146980300007,26.516604761000053],[105.83270254700005,26.49330836400003],[105.79221286300009,26.48168067100005],[105.76198148700007,26.45305791000004],[105.73420447600006,26.46863012400007],[105.69264428200006,26.479838631000064],[105.65398985800005,26.470956768000065],[105.62496833500006,26.461247401000037],[105.59474457000005,26.447417921000067],[105.56890071300006,26.42168008400006],[105.53316263700003,26.386674215000028],[105.50432427300007,26.437816304000023],[105.49874385500004,26.473033798000074],[105.47192698500004,26.48859838900006],[105.44120121400005,26.488636319000022],[105.39863112700004,26.492033711000033],[105.35867988000007,26.50096408400003],[105.36544676400007,26.531938353000044],[105.31952600400007,26.54634995600003],[105.27810351800008,26.540776726000047],[105.23325984100006,26.534893477000026],[105.20709638300008,26.55403676900005],[105.19437603400007,26.588809652000066],[105.17369163300003,26.608715811000025],[105.14139246200006,26.615329592000023],[105.10758762900008,26.61554805800006],[105.08004619600007,26.63232695000005],[105.08275185500008,26.662619868000036],[105.08504316400007,26.698282790000064],[105.08049284200007,26.730830925000078],[105.07284846300007,26.764087133000032],[105.05294574200008,26.805590369000072],[105.02985134400006,26.829365160000066],[104.99950629400007,26.829314557000032],[104.97577426700008,26.84809154800007],[105.00547623400007,26.869231911000043],[105.03452626700005,26.898863911000035],[105.01833815200007,26.93413881500004],[104.97411544500005,26.920352996000076],[104.94442740700003,26.886169746000064],[104.92079443000006,26.85864861300007],[104.88530532600004,26.85959912800007],[104.86052156500006,26.878287923000073],[104.82676952000008,26.895061740000074],[104.79226179700004,26.852446677000046],[104.77311659800006,26.82651528300005],[104.75591407700006,26.80159939300006],[104.75103347800007,26.762169990000075],[104.75286427900005,26.72720829800005],[104.75573504200008,26.685567397000057],[104.74274270000006,26.652808985000036],[104.71105862200005,26.632801322000034],[104.69173183900006,26.603674351000052],[104.70300081500005,26.576951697000027],[104.65892038700008,26.56692706900003],[104.56359335000008,26.585635040000057],[104.54103724300006,26.599315999000055],[104.46693787500004,26.638879192000047],[104.48257798000009,26.710741996000024],[104.40732822400008,26.734903001000077],[104.29353230100008,26.621172193000064],[104.19948496400008,26.639734675000057],[104.10753291000003,26.611529439000037],[104.08310538500007,26.540009748000045],[103.99929185800005,26.52743743700006],[103.92004220900009,26.517708343000038],[103.89433141700005,26.51454214000006],[103.82779770300004,26.55771599800005],[103.76466611100005,26.594733543000075],[103.73210419200007,26.655042024000068],[103.72066954000007,26.772326883000062],[103.73108523300004,26.83860704500006],[103.77281209600005,26.877825297000072],[103.76771875700007,26.977404802000024],[103.70148869800005,27.038477275000048],[103.63706489500004,27.00427073900005],[103.62986829000005,27.010473584000067],[103.61242764300005,27.03615271800004],[103.63750568800003,27.053668264000066],[103.67129950500004,27.077253196000072],[103.65349468000005,27.09873970900003],[103.64756116500007,27.12448369300006],[103.66227292600007,27.13160354400003],[103.72016885000005,27.15912745600008],[103.74145435400004,27.18828679300003],[103.75437746500006,27.205978321000032],[103.81329464000004,27.263163096000028],[103.87913010300008,27.338647706000074],[103.89688454500003,27.40430506000007],[103.93367148300007,27.444676875000027],[103.95457876000006,27.467591260000063],[103.99037290400008,27.43626445800004],[104.04155411900007,27.40303599600003],[104.13937926200003,27.31111691700005],[104.19727955800005,27.26648107400007],[104.22663082000008,27.273346162000053],[104.25632471700004,27.28028129200004],[104.28674504900005,27.312376397000037],[104.33130109300004,27.37750493300007],[104.35949427200006,27.413049668000042],[104.38121498400005,27.439276136000046],[104.42124025000004,27.45023701300005],[104.45691811100005,27.422880839000072],[104.46085931400006,27.41985459500006],[104.51026068200008,27.395315563000054],[104.52300716900004,27.354615851000062],[104.55269944600008,27.30305203300003],[104.64341600400007,27.31547084700003],[104.71760856600008,27.332436952000023],[104.78838550300009,27.322248355000056],[104.82451051900006,27.330194706000043],[104.86421012700004,27.30627724800007],[104.89935133300008,27.285092191000047],[104.94001804100009,27.354281164000042],[105.02749270300006,27.371629042000052],[105.14227434400004,27.42868898000006],[105.22032974500007,27.41584701900007],[105.24176339500008,27.451759415000026],[105.25705443800007,27.488305654000044],[105.26951247100004,27.521138119000057],[105.24657406300008,27.56774696000008],[105.26779951600008,27.608117331000074],[105.27235146800007,27.618178766000028],[105.32957826100005,27.65373880800007],[105.32501281500004,27.700203560000034],[105.33217022900004,27.711922172000072],[105.34383020300004,27.710843358000034],[105.38283919800006,27.725891712000077],[105.39177544900008,27.730738230000043],[105.42536338300005,27.75182415200004],[105.47654102700005,27.769114242000057],[105.51520200600004,27.74933715900005],[105.52723610800007,27.746842705000063],[105.53612861400006,27.73287315500005],[105.56092850700009,27.726686030000053],[105.57831390400008,27.70588540800003],[105.59459830100008,27.706518043000074],[105.61125234500008,27.699999266000077],[105.63566774800006,27.700942102000056],[105.65231424000007,27.694421541000054],[105.69373025200008,27.68167905400003],[105.72630695300006,27.682907167000053],[105.74222201300006,27.690665805000037],[105.75002142100004,27.698118670000042],[105.76558995100004,27.71301885200006],[105.79002062400008,27.71392648500006],[105.79781229800005,27.721372866000024],[105.81409700100005,27.721973739000077],[105.83073571700004,27.715427344000034],[105.85516625300005,27.716318615000034],[105.85550524300004,27.709173037000028],[105.86365156100004,27.709469806000072],[105.87145868600004,27.716911545000073],[105.87959718000008,27.717206848000046],[105.89307736400008,27.717696919000048],[105.89588930700006,27.717796237000073],[105.90105235300007,27.73957380400003],[105.93525598100007,27.747844461000057],[105.97699583600007,27.727852719000055],[106.00890943800005,27.743298208000056]]]}},{"type":"Feature","properties":{"code":"CN052030","name":"Guiyang","label":"Guiyang · 贵阳市","type":"Prefecture-level city","parentCode":"CN-GZ"},"geometry":{"type":"Polygon","coordinates":[[[106.46577969200007,26.31316698100005],[106.50949404100004,26.33686881700004],[106.55269276300004,26.370400748000066],[106.54213717700009,26.403622958000028],[106.51110031800005,26.40124872800004],[106.48119498100004,26.42139726000005],[106.47698575300006,26.457164315000057],[106.42303109900007,26.476085150000074],[106.37124723400007,26.46642507000007],[106.32614676000009,26.48713691300003],[106.30625446500005,26.523017297000024],[106.28770238800007,26.561204813000074],[106.24749025100004,26.559652458000073],[106.21390832600008,26.541336898000054],[106.18788174100007,26.562050448000036],[106.17521085400006,26.573384728000065],[106.16654683600007,26.58744734900006],[106.16590717000008,26.60178618900005],[106.14918841300005,26.615570422000076],[106.12410690500008,26.636242433000064],[106.13151410200004,26.65085302700004],[106.14760065100006,26.651407360000064],[106.17111747100006,26.666569464000077],[106.16828076700006,26.731070620000025],[106.17601940600008,26.73851006900003],[106.17570312900006,26.745676736000064],[106.14995895200008,26.780672759000026],[106.13319457000006,26.79444979300007],[106.12450772500006,26.808503092000024],[106.17192583700006,26.831653071000062],[106.19611283700004,26.83247479100004],[106.19548071400004,26.84680213100006],[106.21130456000009,26.85450985600005],[106.22649599100004,26.876541281000073],[106.25038217500008,26.88451742600006],[106.25069833900005,26.877351179000073],[106.26744729900008,26.86356367700006],[106.27643484900005,26.84234124900007],[106.29134111700006,26.871527111000034],[106.33167518800008,26.872850597000024],[106.37171635800007,26.881322083000043],[106.36530513100007,26.90144071000003],[106.36786860400008,26.940584771000033],[106.37764178000003,26.97781810200007],[106.41926917000006,26.983848797000064],[106.44871835700008,27.006323748000057],[106.42874649300006,27.033597127000064],[106.40969939800004,27.070313509000073],[106.39535972300007,27.09650447000007],[106.41828470500008,27.150960896000072],[106.44786081300003,27.178508629000078],[106.46911137500007,27.198270604000072],[106.50710517100003,27.216278741000053],[106.55047364800004,27.229581808000034],[106.58437941800008,27.239700249000066],[106.60690956800005,27.26136052000004],[106.62857954800006,27.280728984000064],[106.65580445700004,27.300776469000027],[106.72925899500007,27.312139856000044],[106.74030207900006,27.280364203000033],[106.72516667200006,27.253245160000063],[106.71710710300005,27.218389314000035],[106.75717462400007,27.218857334000063],[106.77781121700008,27.247561810000036],[106.79833544600007,27.287032036000028],[106.80801277800003,27.317447925000067],[106.87289948900008,27.31925848700007],[106.87368014600008,27.29778985100006],[106.88936869000008,27.286772557000063],[106.92832192400004,27.305291398000065],[106.95506593300007,27.326677953000058],[106.99475141100004,27.344117013000073],[107.03093097700008,27.33310984900004],[107.05951310700004,27.321761799000058],[107.09387180800007,27.324972828000057],[107.12780726200003,27.335761313000035],[107.17160038300005,27.35232390500005],[107.20933550800004,27.368661173000078],[107.19552057800007,27.323275005000028],[107.15830806100007,27.29802412300006],[107.14160369300004,27.269579186000044],[107.13170640800007,27.237369516000058],[107.16540095500005,27.242785371000025],[107.19930545700004,27.254022965000047],[107.24239541000009,27.245487312000023],[107.25390493200007,27.21101530100003],[107.25777850900005,27.176672791000044],[107.22203875000008,27.162213945000076],[107.19062053100004,27.161825735000036],[107.16809959700004,27.13758247000004],[107.16310044700003,27.108214213000053],[107.15930709900005,27.075282664000042],[107.17050932900008,27.045634328000062],[107.19779179500006,27.02740003300005],[107.22398924300006,27.000591228000076],[107.24559571100008,26.96558585500003],[107.25755450600008,26.93159571500007],[107.26327506800004,26.891550547000065],[107.25897100600008,26.85913247600007],[107.24943764900007,26.830076017000067],[107.23992171400005,26.796114482000064],[107.20619731400006,26.80472753500004],[107.16541379900008,26.818052652000063],[107.10090047800009,26.81640666800007],[107.08502337500005,26.808824796000067],[107.06130873700005,26.793863979000037],[107.04567170500007,26.779105366000067],[107.02149259900006,26.778467400000068],[107.00562316100007,26.77087331100006],[106.98217894300006,26.748725483000044],[106.95215678500006,26.744239857000025],[106.95309677700004,26.724280804000045],[106.93548492100007,26.69656541300003],[106.93791028300006,26.662532938000027],[106.89922278500006,26.659936750000043],[106.86563828500005,26.647671469000045],[106.87632113500007,26.619392950000076],[106.85003593500005,26.594413661000033],[106.82204918300005,26.572947155000065],[106.83740467600006,26.54217727400004],[106.81278928700004,26.51501262900007],[106.81471243700008,26.464309660000026],[106.77221679900003,26.442164607000052],[106.76114204000004,26.416488926000056],[106.78667836300008,26.401015831000052],[106.82161257800004,26.396744588000047],[106.79857461900008,26.369182333000026],[106.82081438100005,26.331968758000073],[106.85469810000006,26.31055327000007],[106.85341486300007,26.271374369000057],[106.87649487500005,26.244972208000036],[106.84627256700009,26.229230760000064],[106.80926871300005,26.227114537000034],[106.79821346100005,26.253600737000056],[106.78410577600005,26.28894138900006],[106.74775661200005,26.31831726400003],[106.71663276200007,26.292158334000078],[106.67881805500008,26.31155076600004],[106.64361183400007,26.295525054000052],[106.62090016300004,26.25533676300006],[106.58631982600008,26.23751844700007],[106.55420727500007,26.237353318000032],[106.52488567600005,26.249001295000028],[106.50446718600006,26.270966973000043],[106.46577969200007,26.31316698100005]]]}},{"type":"Feature","properties":{"code":"CN052040","name":"Liupanshui","label":"Liupanshui · 六盘水市","type":"Prefecture-level city","parentCode":"CN-GZ"},"geometry":{"type":"Polygon","coordinates":[[[105.53316263700003,26.386674215000028],[105.50465661700008,26.350885018000042],[105.48446037300005,26.324091188000068],[105.47681825300003,26.29080222500005],[105.49819051000009,26.266368314000033],[105.52611763900006,26.255354304000036],[105.56694507800006,26.246411128000034],[105.60869843800003,26.24560318300007],[105.64521844700005,26.24044058000004],[105.67596344700007,26.21739720100004],[105.66773423500007,26.184536458000025],[105.62576938300003,26.181748696000056],[105.59847411300007,26.16311373600007],[105.59121992500008,26.13119083400005],[105.57624465100008,26.10198831300005],[105.54112063300005,26.08829429700006],[105.52135769500006,26.063303184000063],[105.45961361000008,26.036805756000035],[105.41384343500005,26.03911677900004],[105.36639888600007,26.03680784000005],[105.32278222300005,26.030200811000043],[105.28525880200004,26.029343862000076],[105.22824494400004,26.06975662600007],[105.20730790000005,26.092720261000068],[105.19343207100007,26.13692642500007],[105.15268226600006,26.204272770000046],[105.13194347600006,26.180060965000052],[105.08568726700008,26.193919125000036],[105.05600827900008,26.188057292000053],[105.02906162300008,26.172902668000063],[105.00347355500008,26.153318332000026],[104.97491223200007,26.120480933000067],[104.96813632000004,26.091685812000037],[104.96226974400008,26.05753496600005],[104.94774864400006,26.018791596000028],[104.94147867800007,25.983708309000065],[104.94706533100003,25.95071185000006],[104.95365776500006,25.91777376500005],[104.93239832100005,25.882193063000045],[104.89269096200007,25.858972195000035],[104.88161326800008,25.82176209100004],[104.89094282300005,25.78582990700005],[104.89821927900005,25.756982341000025],[104.91024813200005,25.718059382000035],[104.90189364200006,25.690925076000042],[104.88195869400005,25.658549192000066],[104.86871846900004,25.617566685000043],[104.88597309800008,25.58211364300007],[104.91899543700004,25.561639573000036],[104.91485670800006,25.531600783000044],[104.89404718800006,25.510886966000044],[104.87441206200003,25.487987348000047],[104.85485967600005,25.451544811000076],[104.86104426500003,25.41086654000003],[104.79521160200005,25.374615763000065],[104.76422794700005,25.369914751000067],[104.73455178100005,25.373867759000063],[104.70077279000009,25.39786281100004],[104.54838238700006,25.39938750700003],[104.54591976800003,25.401354446000028],[104.56103239200007,25.447256612000047],[104.52914740400007,25.528749179000044],[104.44375975000008,25.475718508000057],[104.43045166000007,25.49762025600006],[104.43945983500004,25.576620665000064],[104.36828743300003,25.598287619000075],[104.32054602000005,25.674369899000055],[104.35235440200006,25.739172110000027],[104.42208986400004,25.75805230800006],[104.43667998700005,25.85982370000005],[104.45468747400008,25.90762961100006],[104.46669189200009,25.98379882000006],[104.46901653700007,25.998516653000024],[104.47109734900005,26.029274651000037],[104.53023183900007,26.17460998400003],[104.58880484200006,26.282887134000077],[104.61209301300005,26.314693937000072],[104.68256729500007,26.41078506300005],[104.67762586000003,26.43303768000004],[104.65984099300005,26.460935973000062],[104.65765145600005,26.49676511000007],[104.64875182300005,26.510710859000028],[104.64072753800008,26.51032578400003],[104.62422572200006,26.516716952000024],[104.58054034200006,26.57208876800007],[104.56359335000008,26.585635040000057],[104.65892038700008,26.56692706900003],[104.70300081500005,26.576951697000027],[104.69173183900006,26.603674351000052],[104.71105862200005,26.632801322000034],[104.74274270000006,26.652808985000036],[104.75573504200008,26.685567397000057],[104.75286427900005,26.72720829800005],[104.75103347800007,26.762169990000075],[104.75591407700006,26.80159939300006],[104.77311659800006,26.82651528300005],[104.79226179700004,26.852446677000046],[104.82676952000008,26.895061740000074],[104.86052156500006,26.878287923000073],[104.88530532600004,26.85959912800007],[104.92079443000006,26.85864861300007],[104.94442740700003,26.886169746000064],[104.97411544500005,26.920352996000076],[105.01833815200007,26.93413881500004],[105.03452626700005,26.898863911000035],[105.00547623400007,26.869231911000043],[104.97577426700008,26.84809154800007],[104.99950629400007,26.829314557000032],[105.02985134400006,26.829365160000066],[105.05294574200008,26.805590369000072],[105.07284846300007,26.764087133000032],[105.08049284200007,26.730830925000078],[105.08504316400007,26.698282790000064],[105.08275185500008,26.662619868000036],[105.08004619600007,26.63232695000005],[105.10758762900008,26.61554805800006],[105.14139246200006,26.615329592000023],[105.17369163300003,26.608715811000025],[105.19437603400007,26.588809652000066],[105.20709638300008,26.55403676900005],[105.23325984100006,26.534893477000026],[105.27810351800008,26.540776726000047],[105.31952600400007,26.54634995600003],[105.36544676400007,26.531938353000044],[105.35867988000007,26.50096408400003],[105.39863112700004,26.492033711000033],[105.44120121400005,26.488636319000022],[105.47192698500004,26.48859838900006],[105.49874385500004,26.473033798000074],[105.50432427300007,26.437816304000023],[105.53316263700003,26.386674215000028]]]}},{"type":"Feature","properties":{"code":"CN052050","name":"Qiandongnan Miao and Dong Autonomous Prefecture","label":"Qiandongnan Miao and Dong Autonomous Prefecture · 黔东南苗族侗族自治州","type":"Autonomous prefecture","parentCode":"CN-GZ"},"geometry":{"type":"Polygon","coordinates":[[[108.86184289300007,27.147318279000046],[108.83084600400008,27.099914958000056],[108.79271460700005,27.04151427200003],[108.93508143100007,27.060170998000046],[108.94003333100005,27.062396559000035],[108.99726301400005,27.08808828000008],[109.08740717200004,27.137008310000056],[109.10203362600004,27.116644026000074],[109.15200755300003,27.10129861300004],[109.17670302500005,27.133010882000065],[109.24218734700008,27.154568836000067],[109.29693099200006,27.154448956000067],[109.36744209700004,27.180477291000045],[109.37603277600005,27.17543327900006],[109.45247974200004,27.130543259000035],[109.43393089700004,27.090016826000067],[109.46476068400005,27.064436555000043],[109.47963400100008,27.05253487300007],[109.48527540500004,27.048017048000077],[109.50992198300008,27.028273821000028],[109.52724129000006,26.95951485300003],[109.51324827200006,26.949494651000066],[109.42611506600008,26.899140398000043],[109.48612005900009,26.87839094700007],[109.48555518700005,26.851505875000043],[109.50285100300005,26.783615549000046],[109.49675684600004,26.779718625000044],[109.48285464400004,26.770823224000026],[109.37846775400004,26.73722073400006],[109.34859231100006,26.716204395000034],[109.32976467300006,26.71242903700005],[109.28627303000007,26.70369235800007],[109.28275948700008,26.675850039000068],[109.33689021700008,26.63895185000007],[109.36967260900008,26.609806870000057],[109.36733015900006,26.57211478800008],[109.36691276300007,26.539827329000047],[109.34888496700006,26.478597043000036],[109.34401860400004,26.472894180000026],[109.30163034700007,26.423229837000065],[109.27530217600008,26.379793711000048],[109.25419856100007,26.327447231000065],[109.30360354200008,26.26353729300007],[109.33687758500008,26.25592414500005],[109.35647076600009,26.282219284000064],[109.36717492300005,26.301207299000055],[109.43416327200003,26.318242097000052],[109.44233302700007,26.302095829000052],[109.45806221100008,26.270985161000056],[109.41825699000009,26.250730393000026],[109.42312918500005,26.20142756100006],[109.46405211000007,26.15347613700004],[109.46251971800007,26.125624086000073],[109.44959133600008,26.060812111000075],[109.47281620600006,26.04943374000004],[109.48204789500005,26.04257277800008],[109.44434917000007,26.015842487000043],[109.41086695900009,25.983973479000042],[109.39098073500008,25.919935335000048],[109.35355884500007,25.88798721200004],[109.33622612800008,25.851804839000067],[109.31993069800006,25.81384003200003],[109.32334852600007,25.79142001200006],[109.33100296200007,25.754677258000072],[109.30243725000008,25.734504901000037],[109.21050256900008,25.74125086400005],[109.17201321400006,25.769429839000054],[109.15766302200007,25.771785499000032],[109.14697082300006,25.773536915000022],[109.11546206800006,25.80090246800006],[109.10302189000004,25.82317234900006],[109.00420424000004,25.773919384000067],[108.94878508300008,25.75229385500006],[108.87765830700005,25.720473653000056],[108.92209654700008,25.696992669000053],[108.95577311200009,25.707471729000076],[109.00816694300005,25.729040891000068],[109.05014867900007,25.726144649000048],[109.04228942500004,25.716676757000073],[109.03653962700008,25.709740273000023],[109.03188493600004,25.647626889000037],[109.02306488600004,25.594429192000064],[109.05289021700008,25.550855752000075],[109.01961864500004,25.523323477000076],[108.97676861700006,25.52529346600005],[108.92564361800004,25.54059161300006],[108.87869920100007,25.546949470000072],[108.81507191200006,25.54218512700004],[108.76808076500004,25.55029227800003],[108.77932125700005,25.579286298000056],[108.76242226700003,25.618534604000047],[108.74209842300007,25.634333077000065],[108.68691726100008,25.608972141000038],[108.65956011500003,25.549067585000046],[108.66431539600006,25.518582321000054],[108.59939759300005,25.488475777000076],[108.59622416500008,25.420028478000063],[108.60559573600005,25.347412320000046],[108.60745470500007,25.33296668500003],[108.57203050100009,25.35743207300004],[108.52946730700006,25.42492787300006],[108.49109589200003,25.44570195600005],[108.42816215400006,25.455117100000052],[108.35926016700006,25.497652807000065],[108.31157944400007,25.52804470800004],[108.30377861700003,25.52328397900004],[108.27748117700008,25.56764208000004],[108.26217800600006,25.600929370000074],[108.22667876400004,25.653123177000055],[108.17471216100006,25.644449226000063],[108.14177462700007,25.633897481000076],[108.09624416900004,25.66163503000007],[108.09477123600004,25.69625719800007],[108.09994678300006,25.73874853700005],[108.10263682700008,25.769002362000037],[108.09048362600004,25.796501738000075],[108.07961563600009,25.828988581000033],[108.08880592100007,25.859002418000046],[108.10818074700006,25.896552172000042],[108.12924162500008,25.93010238000005],[108.15198861500005,25.959651025000028],[108.17889792900007,25.985735614000077],[108.20289126300008,26.022056141000064],[108.20276583000003,26.05863217700005],[108.17289658200008,26.068744090000052],[108.14260416400003,26.086629988000027],[108.12623065300005,26.111488654000027],[108.09161318600007,26.10786104500005],[108.05659048900009,26.107127312000046],[108.01793715500008,26.09771515400007],[107.99260766900005,26.081551637000075],[107.94595482300008,26.083527842000024],[107.92060983900006,26.112774502000036],[107.88904834200008,26.12380064900003],[107.86046817400006,26.14616389100007],[107.83064680700005,26.151839281000036],[107.80105252600003,26.130537093000044],[107.77338614500007,26.154260624000074],[107.72336751500006,26.181212022000068],[107.72762765400006,26.210584749000077],[107.74010047300004,26.243865913000036],[107.75505478300005,26.267338686000073],[107.76552330600003,26.300980098000025],[107.73917827200006,26.348556302000077],[107.70153391400004,26.348068674000046],[107.67281713300008,26.339358676000074],[107.63719535700005,26.317800182000042],[107.61309152800004,26.348797889000025],[107.59016570300008,26.386122924000063],[107.55424081700005,26.39104242800005],[107.51952710800003,26.381616655000073],[107.50422811800007,26.40618878600003],[107.47557559200004,26.436074030000043],[107.43034617300003,26.42576193900004],[107.40419274300007,26.396420705000025],[107.34369790100004,26.40440743700003],[107.32101221900007,26.44924902400004],[107.30543691200006,26.477825675000076],[107.33123097900005,26.494588561000057],[107.32210168000006,26.524763903000064],[107.37801570400006,26.56293710600005],[107.41521764600009,26.564413439000077],[107.45601979400004,26.574100349000048],[107.48633198600004,26.56226243900005],[107.52963085300007,26.562590431000046],[107.54763368600004,26.585288398000046],[107.57252106800007,26.601504005000038],[107.61119317700008,26.60386676400003],[107.65247241100008,26.604521242000033],[107.68302366800003,26.587253330000067],[107.70976065600007,26.607544692000033],[107.70572069600007,26.63926880200006],[107.68966453100006,26.66919700400007],[107.68014874900007,26.709683459000075],[107.69048386300005,26.73564417500006],[107.70988678000003,26.76237702800006],[107.73402271000003,26.816638596000075],[107.73279468700008,26.86322817100006],[107.70344511700006,26.88502410800004],[107.68228718200004,26.863173321000033],[107.65662601400004,26.840249567000058],[107.62358444900008,26.854716816000064],[107.61871087200007,26.892202371000053],[107.59310794800007,26.91903969300006],[107.59962973900008,26.950669618000063],[107.62774893200009,26.96516428500007],[107.66006874800007,26.97621849400008],[107.64767434300006,27.012511864000032],[107.61871525200007,27.04550346600007],[107.63890771300004,27.077615626000068],[107.66214629200005,27.099071452000032],[107.67618038500007,27.13317915600004],[107.66934898600005,27.16920867400006],[107.65283958500004,27.20575410300006],[107.66194156300008,27.258030293000047],[107.69966161400004,27.24420619600005],[107.73117000500008,27.232847752000055],[107.76124662800004,27.21960031100008],[107.77491126500007,27.187794430000054],[107.83544764400006,27.171947432000024],[107.87371378500006,27.17777224100007],[107.89920117400004,27.19706612300007],[107.93089082500006,27.203127669000025],[107.98039158000006,27.219214176000037],[108.00515979100004,27.243807916000037],[107.99094743100005,27.288533907000044],[107.96528416000007,27.32843217800007],[108.01997141200007,27.32089518300006],[108.04962570400005,27.328204888000073],[108.08089664400006,27.333288370000048],[108.11823957500008,27.326420554000038],[108.15695773200008,27.29847153600008],[108.18414719700007,27.341109732000064],[108.19973883100005,27.368991213000072],[108.23113441700008,27.38344262100003],[108.26728473400004,27.36930824800004],[108.31063909300008,27.364337299000056],[108.34623475600006,27.37619493400007],[108.37872103900008,27.402788587000032],[108.42079074300005,27.40590809200006],[108.45708871200009,27.400729479000063],[108.48562851500009,27.411417564000033],[108.50518022700004,27.44374715600003],[108.52511791700005,27.46668748600007],[108.55051687100007,27.493844933000048],[108.58108216400007,27.49293566500006],[108.59228495300005,27.519721057000027],[108.62301278300004,27.528238257000055],[108.65479214700008,27.522438803000057],[108.68623162300008,27.52556734700005],[108.71869960300006,27.50048027100007],[108.76116308700006,27.47920023200004],[108.79302863100008,27.483592034000026],[108.83552338900006,27.503947598000025],[108.90732172100007,27.50273355400003],[108.93990594900004,27.502225601000077],[108.93697500000007,27.46854724600007],[108.96757980300004,27.450480735000042],[109.00169671700007,27.448172294000074],[109.00668826400005,27.390575166000076],[108.96537715600005,27.365836839000053],[108.93173942800007,27.369472057000053],[108.89837295000007,27.365040694000072],[108.86975643800008,27.355351789000053],[108.82983698500004,27.364159913000037],[108.82750834500007,27.32960750500007],[108.83713262200007,27.301177479000046],[108.82696720100006,27.272653261000073],[108.79127930000004,27.248361656000043],[108.76853396200005,27.217679201000067],[108.77572098200005,27.18647154300004],[108.80982363200008,27.168123106000053],[108.83927684300005,27.151882020000073],[108.86184289300007,27.147318279000046]]]}},{"type":"Feature","properties":{"code":"CN052060","name":"Qiannan Buyi and Miao Autonomous Prefecture","label":"Qiannan Buyi and Miao Autonomous Prefecture · 黔南布依族苗族自治州","type":"Autonomous prefecture","parentCode":"CN-GZ"},"geometry":{"type":"Polygon","coordinates":[[[107.66194156300008,27.258030293000047],[107.65283958500004,27.20575410300006],[107.66934898600005,27.16920867400006],[107.67618038500007,27.13317915600004],[107.66214629200005,27.099071452000032],[107.63890771300004,27.077615626000068],[107.61871525200007,27.04550346600007],[107.64767434300006,27.012511864000032],[107.66006874800007,26.97621849400008],[107.62774893200009,26.96516428500007],[107.59962973900008,26.950669618000063],[107.59310794800007,26.91903969300006],[107.61871087200007,26.892202371000053],[107.62358444900008,26.854716816000064],[107.65662601400004,26.840249567000058],[107.68228718200004,26.863173321000033],[107.70344511700006,26.88502410800004],[107.73279468700008,26.86322817100006],[107.73402271000003,26.816638596000075],[107.70988678000003,26.76237702800006],[107.69048386300005,26.73564417500006],[107.68014874900007,26.709683459000075],[107.68966453100006,26.66919700400007],[107.70572069600007,26.63926880200006],[107.70976065600007,26.607544692000033],[107.68302366800003,26.587253330000067],[107.65247241100008,26.604521242000033],[107.61119317700008,26.60386676400003],[107.57252106800007,26.601504005000038],[107.54763368600004,26.585288398000046],[107.52963085300007,26.562590431000046],[107.48633198600004,26.56226243900005],[107.45601979400004,26.574100349000048],[107.41521764600009,26.564413439000077],[107.37801570400006,26.56293710600005],[107.32210168000006,26.524763903000064],[107.33123097900005,26.494588561000057],[107.30543691200006,26.477825675000076],[107.32101221900007,26.44924902400004],[107.34369790100004,26.40440743700003],[107.40419274300007,26.396420705000025],[107.43034617300003,26.42576193900004],[107.47557559200004,26.436074030000043],[107.50422811800007,26.40618878600003],[107.51952710800003,26.381616655000073],[107.55424081700005,26.39104242800005],[107.59016570300008,26.386122924000063],[107.61309152800004,26.348797889000025],[107.63719535700005,26.317800182000042],[107.67281713300008,26.339358676000074],[107.70153391400004,26.348068674000046],[107.73917827200006,26.348556302000077],[107.76552330600003,26.300980098000025],[107.75505478300005,26.267338686000073],[107.74010047300004,26.243865913000036],[107.72762765400006,26.210584749000077],[107.72336751500006,26.181212022000068],[107.77338614500007,26.154260624000074],[107.80105252600003,26.130537093000044],[107.83064680700005,26.151839281000036],[107.86046817400006,26.14616389100007],[107.88904834200008,26.12380064900003],[107.92060983900006,26.112774502000036],[107.94595482300008,26.083527842000024],[107.99260766900005,26.081551637000075],[108.01793715500008,26.09771515400007],[108.05659048900009,26.107127312000046],[108.09161318600007,26.10786104500005],[108.12623065300005,26.111488654000027],[108.14260416400003,26.086629988000027],[108.17289658200008,26.068744090000052],[108.20276583000003,26.05863217700005],[108.20289126300008,26.022056141000064],[108.17889792900007,25.985735614000077],[108.15198861500005,25.959651025000028],[108.12924162500008,25.93010238000005],[108.10818074700006,25.896552172000042],[108.08880592100007,25.859002418000046],[108.07961563600009,25.828988581000033],[108.09048362600004,25.796501738000075],[108.10263682700008,25.769002362000037],[108.09994678300006,25.73874853700005],[108.09477123600004,25.69625719800007],[108.09624416900004,25.66163503000007],[108.14177462700007,25.633897481000076],[108.17471216100006,25.644449226000063],[108.22667876400004,25.653123177000055],[108.26217800600006,25.600929370000074],[108.27748117700008,25.56764208000004],[108.30377861700003,25.52328397900004],[108.26561993900003,25.499975051000035],[108.22601385700005,25.460343384000055],[108.18096539700008,25.469149065000067],[108.17321216400006,25.43026446400006],[108.15375670400005,25.41628888300005],[108.12933332900008,25.370684449000066],[108.13877587900004,25.323209011000074],[108.14658585700005,25.26398905600007],[108.12889485400007,25.226631789000066],[108.06083604500009,25.18258345000004],[107.96790229500004,25.172953625000048],[107.89204880100004,25.157407183000032],[107.85009307300004,25.137341094000078],[107.83912040800004,25.136012374000074],[107.76319502000007,25.12680180600006],[107.77269308600006,25.16670351600004],[107.75387234800007,25.19408958200006],[107.76225598600007,25.237557064000043],[107.74053188600004,25.234237363000034],[107.68149408900007,25.19290823600005],[107.67143517800008,25.223237968000035],[107.64192282100004,25.297111827000037],[107.63677767200005,25.299627721000036],[107.62978047600006,25.30305704600005],[107.59373764100008,25.283975334000047],[107.55803993700005,25.22977456700005],[107.48710051200004,25.21589560700005],[107.42868180900007,25.262709765000068],[107.43826931300003,25.32244023100003],[107.38876227400004,25.392903008000076],[107.35179341800006,25.397126436000065],[107.31174041700007,25.428243167000062],[107.32305211700009,25.468211104000034],[107.30134420800005,25.50894399300006],[107.29286983500003,25.524832961000072],[107.25797111400004,25.549786205000032],[107.22951723200003,25.56324777900005],[107.21577163700005,25.605977246000066],[107.15599379100007,25.581482463000043],[107.13411379100006,25.55413016600005],[107.06439708400006,25.578998397000078],[107.04858212900007,25.507202543000062],[106.95694727400007,25.396700107000072],[106.98197498000007,25.361377110000035],[106.99114486300005,25.32561084500003],[106.98468115200006,25.28220969700004],[106.97773784900005,25.253199791000043],[106.96287696600007,25.22396838900005],[106.93911663300008,25.223309612000037],[106.93860668400004,25.237706954000032],[106.93069654200008,25.237486497000077],[106.91561132600003,25.215445614000032],[106.91711074900007,25.172247939000044],[106.87752281000007,25.171130043000062],[106.85351505900007,25.177653428000042],[106.82186009300005,25.17674231500007],[106.79835454900007,25.16885132300007],[106.75087185600006,25.167459273000077],[106.73502926900005,25.166989459000035],[106.69519385200005,25.173002246000067],[106.64797371100008,25.164366697000048],[106.61740709200006,25.13459378600004],[106.59392174000004,25.100855272000047],[106.55974857100006,25.122891025000058],[106.48986886100005,25.168768834000048],[106.47859032200006,25.21605001200004],[106.49322281600007,25.244736482000064],[106.49683536100008,25.275586452000027],[106.46813656700004,25.306667744000038],[106.45840185600008,25.344528782000054],[106.44490867200005,25.370026979000045],[106.41875586500004,25.399409625000033],[106.38362122300003,25.439058548000048],[106.39494406600005,25.503742480000028],[106.40738003300004,25.536360757000068],[106.42962940500007,25.587935552000033],[106.44388138300008,25.615672717000052],[106.46201882200006,25.645399532000056],[106.47700399700005,25.669555796000054],[106.48595886600003,25.69942853200007],[106.45339386400008,25.704904551000027],[106.42523082400004,25.684155720000035],[106.37908720700005,25.67197109500006],[106.34084105400007,25.68539729500003],[106.32094763900005,25.70828484900005],[106.29780631300008,25.735063142000058],[106.26581505200005,25.751477177000027],[106.24234348200008,25.783175180000057],[106.22985334800006,25.814528732000042],[106.23008351300007,25.84246650500006],[106.25159984900006,25.865622013000063],[106.27482502200007,25.885704317000034],[106.29288162200004,25.908677818000058],[106.28881911800005,25.941345460000036],[106.28070192400008,25.97470685500008],[106.30323526200004,26.006447408000042],[106.29617780500007,26.038954674000024],[106.26414884000008,26.054456148000043],[106.22497887300005,26.071390890000032],[106.24308932600007,26.093906771000036],[106.26132202500008,26.130380582000043],[106.28821308100004,26.149272110000027],[106.26997160100007,26.175811227000054],[106.27140334400008,26.208732249000036],[106.25873293700005,26.234190331000036],[106.23828788300005,26.263304925000057],[106.26393102000009,26.278533984000035],[106.29799759700006,26.272140141000023],[106.33500155500008,26.258677415000022],[106.34355873000004,26.306329435000066],[106.37764436800006,26.30755412800005],[106.40969520300007,26.309121016000063],[106.46577969200007,26.31316698100005],[106.50446718600006,26.270966973000043],[106.52488567600005,26.249001295000028],[106.55420727500007,26.237353318000032],[106.58631982600008,26.23751844700007],[106.62090016300004,26.25533676300006],[106.64361183400007,26.295525054000052],[106.67881805500008,26.31155076600004],[106.71663276200007,26.292158334000078],[106.74775661200005,26.31831726400003],[106.78410577600005,26.28894138900006],[106.79821346100005,26.253600737000056],[106.80926871300005,26.227114537000034],[106.84627256700009,26.229230760000064],[106.87649487500005,26.244972208000036],[106.85341486300007,26.271374369000057],[106.85469810000006,26.31055327000007],[106.82081438100005,26.331968758000073],[106.79857461900008,26.369182333000026],[106.82161257800004,26.396744588000047],[106.78667836300008,26.401015831000052],[106.76114204000004,26.416488926000056],[106.77221679900003,26.442164607000052],[106.81471243700008,26.464309660000026],[106.81278928700004,26.51501262900007],[106.83740467600006,26.54217727400004],[106.82204918300005,26.572947155000065],[106.85003593500005,26.594413661000033],[106.87632113500007,26.619392950000076],[106.86563828500005,26.647671469000045],[106.89922278500006,26.659936750000043],[106.93791028300006,26.662532938000027],[106.93548492100007,26.69656541300003],[106.95309677700004,26.724280804000045],[106.95215678500006,26.744239857000025],[106.98217894300006,26.748725483000044],[107.00562316100007,26.77087331100006],[107.02149259900006,26.778467400000068],[107.04567170500007,26.779105366000067],[107.06130873700005,26.793863979000037],[107.08502337500005,26.808824796000067],[107.10090047800009,26.81640666800007],[107.16541379900008,26.818052652000063],[107.20619731400006,26.80472753500004],[107.23992171400005,26.796114482000064],[107.24943764900007,26.830076017000067],[107.25897100600008,26.85913247600007],[107.26327506800004,26.891550547000065],[107.25755450600008,26.93159571500007],[107.24559571100008,26.96558585500003],[107.22398924300006,27.000591228000076],[107.19779179500006,27.02740003300005],[107.17050932900008,27.045634328000062],[107.15930709900005,27.075282664000042],[107.16310044700003,27.108214213000053],[107.16809959700004,27.13758247000004],[107.19062053100004,27.161825735000036],[107.22203875000008,27.162213945000076],[107.25777850900005,27.176672791000044],[107.25390493200007,27.21101530100003],[107.24239541000009,27.245487312000023],[107.19930545700004,27.254022965000047],[107.16540095500005,27.242785371000025],[107.13170640800007,27.237369516000058],[107.14160369300004,27.269579186000044],[107.15830806100007,27.29802412300006],[107.19552057800007,27.323275005000028],[107.20933550800004,27.368661173000078],[107.23152189900009,27.39110344000005],[107.25301290200008,27.41708830300007],[107.25841402600008,27.449101764000034],[107.26109563300008,27.494489947000034],[107.32895867800005,27.44301417400004],[107.36369607400007,27.421108613000058],[107.38114855700007,27.38815377700007],[107.38624690900008,27.35829179600006],[107.42454877000006,27.35438045500007],[107.48977796200006,27.34128773900005],[107.46971921700003,27.315853551000032],[107.44303783800007,27.291522195000027],[107.43910709900007,27.259588448000045],[107.47223679900009,27.23714310300005],[107.51155794600004,27.222071477000043],[107.52665186600007,27.254908491000037],[107.55094192500007,27.27643123100006],[107.59857370600008,27.267407607000052],[107.66194156300008,27.258030293000047]]]}},{"type":"Feature","properties":{"code":"CN052070","name":"Qianxinan Buyi and Miao Autonomous Prefecture","label":"Qianxinan Buyi and Miao Autonomous Prefecture · 黔西南布依族苗族自治州","type":"Autonomous prefecture","parentCode":"CN-GZ"},"geometry":{"type":"Polygon","coordinates":[[[105.22824494400004,26.06975662600007],[105.23134401900006,26.012340707000078],[105.23291276400005,25.983631175000028],[105.24165261100006,25.969617395000057],[105.27551234600008,25.935091971000077],[105.30212464800007,25.88585192200003],[105.33441573300007,25.880020139000067],[105.36629177400005,25.88136128000008],[105.38262576200003,25.87484641800006],[105.39171981300007,25.853634792000037],[105.37729329700005,25.824244769000074],[105.39508908600004,25.788997497000025],[105.40380630400006,25.774963873000047],[105.43566713400008,25.77628624700003],[105.46068050600007,25.75572008300003],[105.47843046600008,25.720452304000048],[105.49471903200003,25.71391969900003],[105.53595933000008,25.686796204000075],[105.53700294600009,25.687316045000046],[105.56708167800008,25.702446675000033],[105.59096415900007,25.70340259200003],[105.65639521600008,25.66999699300004],[105.67230658700004,25.67062403600005],[105.69758985700008,25.64281259200004],[105.70692375600004,25.614374232000046],[105.72422083400005,25.586239660000047],[105.74080964900008,25.57248098200006],[105.77131655400007,25.55329524600006],[105.76430731800008,25.550143605000073],[105.79486172400004,25.511241614000028],[105.82419533300003,25.47541696500008],[105.85277687800004,25.450363047000053],[105.89255965400008,25.44349744400006],[105.92292787700006,25.458215064000058],[105.91534531800005,25.489825779000057],[105.91062379800007,25.530608665000045],[105.93140060200005,25.55516940600006],[105.96301232000008,25.56677842700003],[105.98416915000007,25.593595153000024],[105.97897242000005,25.624258757000064],[106.00733045500004,25.635395045000053],[106.03662231800007,25.607187789000022],[106.05939500900007,25.586744315000033],[106.08881429900003,25.594142731000034],[106.13037017900007,25.59134232200006],[106.13552659700008,25.550134412000034],[106.14765204800005,25.51649858500008],[106.18276567300006,25.48899856500003],[106.21872402100007,25.479566266000063],[106.25033965400007,25.467650737000042],[106.28491223500004,25.44008829200004],[106.30500535100003,25.413142074000064],[106.34488040400004,25.403866703000062],[106.38362122300003,25.439058548000048],[106.41875586500004,25.399409625000033],[106.44490867200005,25.370026979000045],[106.45840185600008,25.344528782000054],[106.46813656700004,25.306667744000038],[106.49683536100008,25.275586452000027],[106.49322281600007,25.244736482000064],[106.47859032200006,25.21605001200004],[106.48986886100005,25.168768834000048],[106.55974857100006,25.122891025000058],[106.59392174000004,25.100855272000047],[106.53206450400006,25.08867375400007],[106.49365620200007,25.05861114000004],[106.44795481800008,25.013869759000045],[106.40112677900004,24.997916923000048],[106.37831411800005,24.97552825200006],[106.32301265800004,24.973686618000045],[106.28293746300005,24.98675643100006],[106.23644789200006,24.963529294000068],[106.20518486200007,24.955234655000027],[106.16842970600004,24.94224355700004],[106.20004205700008,24.89012500900003],[106.23312428500009,24.85519402400007],[106.21856792000005,24.825823884000044],[106.21159790600007,24.803930640000033],[106.20433509200006,24.789246053000056],[106.19041050400006,24.745453009000073],[106.13713364600005,24.700264057000027],[106.10595430800004,24.691933488000075],[106.07573005700004,24.661967729000025],[106.03043948900006,24.616998283000044],[105.99045585500005,24.629976291000048],[105.96491419300008,24.672360095000045],[105.93901855600006,24.721940833000076],[105.89965152300005,24.72046680300008],[105.86061538300004,24.711769769000057],[105.83733065400008,24.703661172000068],[105.79042238500006,24.694641314000023],[105.74834514300005,24.750769352000077],[105.73190863300005,24.76456608700005],[105.70039800000006,24.763325611000027],[105.68463910200006,24.76270291700007],[105.66819475700004,24.776489646000073],[105.66031521900004,24.776178558000026],[105.64420963400005,24.782754500000067],[105.62021719400008,24.78901377300008],[105.57293961900007,24.78710447900005],[105.53247986900004,24.80711314000007],[105.50811063700007,24.820547839000028],[105.49053571200005,24.855916266000065],[105.47331488400005,24.884074631000033],[105.45607903300004,24.912227616000052],[105.45445515700004,24.929504631000043],[105.42341505700006,24.932512990000077],[105.37606889500006,24.930521259000045],[105.35276912000006,24.92231428100007],[105.32122036200008,24.920967184000062],[105.28965649900005,24.91961024400007],[105.26561027600007,24.925788803000046],[105.25580855500004,24.96144687700007],[105.24600671100006,24.99710271500004],[105.22905613500006,25.018012084000077],[105.20537931300004,25.01697413900007],[105.19823827900007,25.002231730000062],[105.18323279000003,24.98713722900004],[105.16031707000008,24.971694158000048],[105.14570371100007,24.94939396700005],[105.12281857200009,24.933939588000044],[105.09954915600008,24.925681132000022],[105.08652629700003,24.923950637000075],[105.04668610000004,24.858449134000068],[105.02393975400008,24.82304305300005],[104.99215343400004,24.80802044400008],[104.91189338800007,24.741884671000037],[104.89568292800004,24.679592383000056],[104.81586590400008,24.658525953000037],[104.78292627300004,24.649810050000042],[104.75239868400007,24.61485170000003],[104.70660282400007,24.605391361000045],[104.70452882600006,24.64059476700004],[104.69058979100004,24.642632797000033],[104.66728823500006,24.653261824000026],[104.62039416300007,24.678107930000067],[104.60428151900004,24.699940171000037],[104.56288877700007,24.742376941000032],[104.54533749100005,24.760357037000063],[104.55721824800008,24.825194959000044],[104.60993285500007,24.869424111000058],[104.66982747400004,24.926635685000065],[104.70422404700008,24.997938041000054],[104.65614805100006,25.03990671200006],[104.62906907800004,25.078358611000056],[104.64895224700007,25.09296131900004],[104.67038118100004,25.09323069800007],[104.69409606200009,25.09438353400003],[104.70990116700006,25.09514897500003],[104.73191081700008,25.12507148700007],[104.74644816900008,25.147414815000047],[104.79162340700009,25.163933163000024],[104.81609718700008,25.203946748000078],[104.80752414100004,25.283051085000068],[104.74221727300005,25.29529910100007],[104.65575345600007,25.26221985500007],[104.60970639400006,25.350306225000054],[104.54838238700006,25.39938750700003],[104.70077279000009,25.39786281100004],[104.73455178100005,25.373867759000063],[104.76422794700005,25.369914751000067],[104.79521160200005,25.374615763000065],[104.86104426500003,25.41086654000003],[104.85485967600005,25.451544811000076],[104.87441206200003,25.487987348000047],[104.89404718800006,25.510886966000044],[104.91485670800006,25.531600783000044],[104.91899543700004,25.561639573000036],[104.88597309800008,25.58211364300007],[104.86871846900004,25.617566685000043],[104.88195869400005,25.658549192000066],[104.90189364200006,25.690925076000042],[104.91024813200005,25.718059382000035],[104.89821927900005,25.756982341000025],[104.89094282300005,25.78582990700005],[104.88161326800008,25.82176209100004],[104.89269096200007,25.858972195000035],[104.93239832100005,25.882193063000045],[104.95365776500006,25.91777376500005],[104.94706533100003,25.95071185000006],[104.94147867800007,25.983708309000065],[104.94774864400006,26.018791596000028],[104.96226974400008,26.05753496600005],[104.96813632000004,26.091685812000037],[104.97491223200007,26.120480933000067],[105.00347355500008,26.153318332000026],[105.02906162300008,26.172902668000063],[105.05600827900008,26.188057292000053],[105.08568726700008,26.193919125000036],[105.13194347600006,26.180060965000052],[105.15268226600006,26.204272770000046],[105.19343207100007,26.13692642500007],[105.20730790000005,26.092720261000068],[105.22824494400004,26.06975662600007]]]}},{"type":"Feature","properties":{"code":"CN052080","name":"Tongren","label":"Tongren · 铜仁市","type":"Prefecture-level city","parentCode":"CN-GZ"},"geometry":{"type":"Polygon","coordinates":[[[109.24893282600004,28.487394626000025],[109.25587869000009,28.383370769000067],[109.27743570400008,28.328560742000036],[109.26896515400006,28.253562421000026],[109.34700608600008,28.28962803400003],[109.35218149000008,28.231664054000078],[109.32920688400009,28.175808412000038],[109.31490006000007,28.140975714000035],[109.28728511100007,28.084324946000038],[109.28454348500009,28.067319956000063],[109.32368667500003,28.056242394000037],[109.32700875100005,28.042888826000024],[109.32033239600008,28.016888684000037],[109.28584367100007,27.946730416000037],[109.30392096300005,27.844337085000063],[109.31336858300006,27.790715040000066],[109.35405472100007,27.744782887000042],[109.39712372500009,27.717008715000077],[109.40568417500003,27.71148545400007],[109.44441772200008,27.65475845700007],[109.44030284000007,27.598373523000078],[109.42947137100003,27.576061707000065],[109.42851229600006,27.574075304000075],[109.37211980400008,27.537573271000042],[109.34412560900006,27.519099827000048],[109.28362756900009,27.479122610000047],[109.25092484900006,27.444965684000067],[109.23675917800006,27.430147094000063],[109.18057685600007,27.441852277000066],[109.14997095700005,27.419288266000024],[109.11245622900009,27.39160288000005],[109.09028887500006,27.334884085000056],[109.04534099800009,27.29926110100007],[108.98773122900008,27.286682385000063],[108.94811407400005,27.243050105000066],[108.90180736000008,27.183166219000043],[108.87088830800008,27.16113440400005],[108.86184289300007,27.147318279000046],[108.83927684300005,27.151882020000073],[108.80982363200008,27.168123106000053],[108.77572098200005,27.18647154300004],[108.76853396200005,27.217679201000067],[108.79127930000004,27.248361656000043],[108.82696720100006,27.272653261000073],[108.83713262200007,27.301177479000046],[108.82750834500007,27.32960750500007],[108.82983698500004,27.364159913000037],[108.86975643800008,27.355351789000053],[108.89837295000007,27.365040694000072],[108.93173942800007,27.369472057000053],[108.96537715600005,27.365836839000053],[109.00668826400005,27.390575166000076],[109.00169671700007,27.448172294000074],[108.96757980300004,27.450480735000042],[108.93697500000007,27.46854724600007],[108.93990594900004,27.502225601000077],[108.90732172100007,27.50273355400003],[108.83552338900006,27.503947598000025],[108.79302863100008,27.483592034000026],[108.76116308700006,27.47920023200004],[108.71869960300006,27.50048027100007],[108.68623162300008,27.52556734700005],[108.65479214700008,27.522438803000057],[108.62301278300004,27.528238257000055],[108.59228495300005,27.519721057000027],[108.58108216400007,27.49293566500006],[108.55051687100007,27.493844933000048],[108.52511791700005,27.46668748600007],[108.50518022700004,27.44374715600003],[108.48562851500009,27.411417564000033],[108.45708871200009,27.400729479000063],[108.42079074300005,27.40590809200006],[108.37872103900008,27.402788587000032],[108.34623475600006,27.37619493400007],[108.31063909300008,27.364337299000056],[108.26728473400004,27.36930824800004],[108.23113441700008,27.38344262100003],[108.19973883100005,27.368991213000072],[108.18414719700007,27.341109732000064],[108.15695773200008,27.29847153600008],[108.11823957500008,27.326420554000038],[108.08089664400006,27.333288370000048],[108.04962570400005,27.328204888000073],[108.01997141200007,27.32089518300006],[107.96528416000007,27.32843217800007],[107.92915698100006,27.341589089000024],[107.89024413400006,27.348806640000078],[107.85682253000004,27.34676273200006],[107.81680388300003,27.355227160000027],[107.78746132000003,27.36360335300003],[107.76278015300005,27.390958710000064],[107.78381255200009,27.419041399000037],[107.81025128600004,27.44056781100005],[107.80795326500004,27.47806815100006],[107.80894184700009,27.510758210000063],[107.81625001900005,27.539221372000043],[107.84347603500004,27.55588274100006],[107.87490799900007,27.559254975000044],[107.91978407500005,27.601991009000074],[107.90624663400007,27.65256639200004],[107.91747805800009,27.697368359000052],[107.92274282300008,27.727602122000064],[107.92659174300007,27.75507421700007],[107.92123510800008,27.783111537000025],[107.89994331700007,27.813270500000044],[107.88219678500008,27.854265894000036],[107.90707092500008,27.879706749000036],[107.92334288400008,27.903503237000052],[107.91493882600008,27.930024849000063],[107.90084942700008,27.95769327000005],[107.90509338100009,27.98735027400005],[107.87119084700004,28.00142321800007],[107.84078514600009,28.017419764000067],[107.81111558300006,28.039233977000038],[107.78159457900006,28.067731167000034],[107.77768786100006,28.106027536000056],[107.77504106900005,28.13943309600006],[107.77715432500008,28.19184354600003],[107.84455308000008,28.210361762000048],[107.84730310200007,28.240482505000045],[107.84791050100006,28.272765521000053],[107.85631473900008,28.30307198500003],[107.88224559800005,28.33264382300007],[107.92253076000009,28.352389765000055],[107.95900844500005,28.353182116000028],[107.99798474000005,28.355389900000034],[108.02860854000005,28.37294819500005],[108.04760825600005,28.410685496000042],[108.04938197300004,28.442022975000043],[108.04728924400007,28.479022634000046],[108.03607012900005,28.511243427000068],[108.01601066300009,28.54497413300004],[108.03212047100004,28.57175254300006],[108.07040915700009,28.591175445000033],[108.09089598600008,28.612358732000075],[108.13059719400007,28.626622183000052],[108.16049697000005,28.65790267600005],[108.18126804500008,28.702851043000067],[108.18402511600004,28.733407054000054],[108.17914969700007,28.772329628000023],[108.16263541500007,28.80262675800003],[108.14082872500006,28.82651160100005],[108.11028681000005,28.854668120000042],[108.11659897500004,28.89158927400007],[108.12858181000007,28.92612259300006],[108.11096332700004,28.955027636000068],[108.08552749000006,28.98217279200003],[108.06265261700008,29.008360366000034],[108.05435972800007,29.039906547000044],[108.05367624900003,29.07742886500006],[108.07844782000006,29.08031930800007],[108.11710977300004,29.071441191000076],[108.16347356000006,29.080558332000066],[108.22575676000008,29.046342509000056],[108.23566261000008,29.06083154600003],[108.24649610900008,29.07890370900003],[108.26592298400004,29.087365998000053],[108.28214088300007,29.000371659000052],[108.28981255600007,28.989916054000048],[108.30594123900005,28.96791589000003],[108.33358834000006,28.910568757000078],[108.31747064700005,28.829066260000047],[108.34537877700006,28.795788222000056],[108.35238112500008,28.769185235000066],[108.28750178500007,28.729391744000054],[108.33724811600007,28.65645226600003],[108.40165424900005,28.641794897000068],[108.43511535600004,28.62644698200006],[108.47294744000004,28.602260152000042],[108.48411070400005,28.64442385700005],[108.54428907300007,28.668853675000037],[108.60722919600005,28.63174470900003],[108.58450799300005,28.55813156000005],[108.56087673600007,28.518396401000075],[108.57670105700004,28.467843295000023],[108.57705592400004,28.417866643000025],[108.56515155300008,28.364959159000023],[108.56220579100005,28.35896156800004],[108.62123186700006,28.34464780600007],[108.63969685400008,28.384288395000056],[108.64905059500006,28.41928423400003],[108.64620751400008,28.448680010000032],[108.63162684300005,28.454645261000053],[108.62721655100006,28.465269999000043],[108.68117793100004,28.487733140000046],[108.70633917500004,28.47492219800006],[108.71666735700006,28.46966056100007],[108.73915759300007,28.436164553000026],[108.74791473900007,28.335456994000026],[108.73547287000008,28.220045656000025],[108.77052916000008,28.21355015000006],[108.81163355800004,28.253587079000056],[108.83696312600006,28.225464014000067],[108.86412421700004,28.206297310000025],[108.91408189900005,28.220557099000075],[108.93292766400003,28.20480615300005],[108.96555345300004,28.169630426000026],[108.99880872400007,28.196077939000077],[109.01176880900005,28.21325268100003],[109.03443347000007,28.20915475000004],[109.05532935900004,28.192521640000052],[109.09215440200006,28.19845566400005],[109.09028937800008,28.236824394000053],[109.08771583800007,28.26089264500007],[109.11689326000004,28.289022140000043],[109.12728646200009,28.33203038100004],[109.13343942600005,28.38121932000007],[109.14599148400004,28.419787599000074],[109.19538829800007,28.469603040000038],[109.24893282600004,28.487394626000025]]]}},{"type":"Feature","properties":{"code":"CN052090","name":"Zunyi","label":"Zunyi · 遵义市","type":"Prefecture-level city","parentCode":"CN-GZ"},"geometry":{"type":"Polygon","coordinates":[[[108.05367624900003,29.07742886500006],[108.05435972800007,29.039906547000044],[108.06265261700008,29.008360366000034],[108.08552749000006,28.98217279200003],[108.11096332700004,28.955027636000068],[108.12858181000007,28.92612259300006],[108.11659897500004,28.89158927400007],[108.11028681000005,28.854668120000042],[108.14082872500006,28.82651160100005],[108.16263541500007,28.80262675800003],[108.17914969700007,28.772329628000023],[108.18402511600004,28.733407054000054],[108.18126804500008,28.702851043000067],[108.16049697000005,28.65790267600005],[108.13059719400007,28.626622183000052],[108.09089598600008,28.612358732000075],[108.07040915700009,28.591175445000033],[108.03212047100004,28.57175254300006],[108.01601066300009,28.54497413300004],[108.03607012900005,28.511243427000068],[108.04728924400007,28.479022634000046],[108.04938197300004,28.442022975000043],[108.04760825600005,28.410685496000042],[108.02860854000005,28.37294819500005],[107.99798474000005,28.355389900000034],[107.95900844500005,28.353182116000028],[107.92253076000009,28.352389765000055],[107.88224559800005,28.33264382300007],[107.85631473900008,28.30307198500003],[107.84791050100006,28.272765521000053],[107.84730310200007,28.240482505000045],[107.84455308000008,28.210361762000048],[107.77715432500008,28.19184354600003],[107.77504106900005,28.13943309600006],[107.77768786100006,28.106027536000056],[107.78159457900006,28.067731167000034],[107.81111558300006,28.039233977000038],[107.84078514600009,28.017419764000067],[107.87119084700004,28.00142321800007],[107.90509338100009,27.98735027400005],[107.90084942700008,27.95769327000005],[107.91493882600008,27.930024849000063],[107.92334288400008,27.903503237000052],[107.90707092500008,27.879706749000036],[107.88219678500008,27.854265894000036],[107.89994331700007,27.813270500000044],[107.92123510800008,27.783111537000025],[107.92659174300007,27.75507421700007],[107.92274282300008,27.727602122000064],[107.91747805800009,27.697368359000052],[107.90624663400007,27.65256639200004],[107.91978407500005,27.601991009000074],[107.87490799900007,27.559254975000044],[107.84347603500004,27.55588274100006],[107.81625001900005,27.539221372000043],[107.80894184700009,27.510758210000063],[107.80795326500004,27.47806815100006],[107.81025128600004,27.44056781100005],[107.78381255200009,27.419041399000037],[107.76278015300005,27.390958710000064],[107.78746132000003,27.36360335300003],[107.81680388300003,27.355227160000027],[107.85682253000004,27.34676273200006],[107.89024413400006,27.348806640000078],[107.92915698100006,27.341589089000024],[107.96528416000007,27.32843217800007],[107.99094743100005,27.288533907000044],[108.00515979100004,27.243807916000037],[107.98039158000006,27.219214176000037],[107.93089082500006,27.203127669000025],[107.89920117400004,27.19706612300007],[107.87371378500006,27.17777224100007],[107.83544764400006,27.171947432000024],[107.77491126500007,27.187794430000054],[107.76124662800004,27.21960031100008],[107.73117000500008,27.232847752000055],[107.69966161400004,27.24420619600005],[107.66194156300008,27.258030293000047],[107.59857370600008,27.267407607000052],[107.55094192500007,27.27643123100006],[107.52665186600007,27.254908491000037],[107.51155794600004,27.222071477000043],[107.47223679900009,27.23714310300005],[107.43910709900007,27.259588448000045],[107.44303783800007,27.291522195000027],[107.46971921700003,27.315853551000032],[107.48977796200006,27.34128773900005],[107.42454877000006,27.35438045500007],[107.38624690900008,27.35829179600006],[107.38114855700007,27.38815377700007],[107.36369607400007,27.421108613000058],[107.32895867800005,27.44301417400004],[107.26109563300008,27.494489947000034],[107.25841402600008,27.449101764000034],[107.25301290200008,27.41708830300007],[107.23152189900009,27.39110344000005],[107.20933550800004,27.368661173000078],[107.17160038300005,27.35232390500005],[107.12780726200003,27.335761313000035],[107.09387180800007,27.324972828000057],[107.05951310700004,27.321761799000058],[107.03093097700008,27.33310984900004],[106.99475141100004,27.344117013000073],[106.95506593300007,27.326677953000058],[106.92832192400004,27.305291398000065],[106.88936869000008,27.286772557000063],[106.87368014600008,27.29778985100006],[106.87289948900008,27.31925848700007],[106.80801277800003,27.317447925000067],[106.79833544600007,27.287032036000028],[106.77781121700008,27.247561810000036],[106.75717462400007,27.218857334000063],[106.71710710300005,27.218389314000035],[106.72516667200006,27.253245160000063],[106.74030207900006,27.280364203000033],[106.72925899500007,27.312139856000044],[106.71938788900007,27.376324286000056],[106.72183514000005,27.40381948000004],[106.70594730300007,27.431834802000026],[106.69567626400004,27.45919418400007],[106.65951285900007,27.46832729500005],[106.63364446000008,27.492276410000045],[106.62227557900007,27.505594667000025],[106.62176926800004,27.51259572400005],[106.58926108700007,27.511623349000047],[106.57330054300007,27.503978334000067],[106.54194251100006,27.474384228000076],[106.50944976800008,27.473388775000046],[106.46736734900009,27.50789369900008],[106.44268936200007,27.514284748000023],[106.41108392300004,27.49180201100006],[106.37917768600005,27.476466551000044],[106.35105081400008,27.476237166000033],[106.31761332600007,27.489376763000053],[106.32709061700007,27.52384982800004],[106.32488595100006,27.557752934000064],[106.31419715500004,27.59711180000005],[106.27853812700005,27.588641961000064],[106.24849902700004,27.572857654000074],[106.22206485300006,27.55636426800004],[106.19142636400005,27.549963990000037],[106.15810065100004,27.553266360000066],[106.13262904900006,27.57620428100006],[106.11521532800003,27.608047403000057],[106.10063105900008,27.635530897000024],[106.06645339000005,27.650356655000053],[106.02764251900004,27.650594605000038],[105.99662443300008,27.67137532600003],[105.99645546100004,27.703597074000072],[106.00890943800005,27.743298208000056],[106.08223203000006,27.745845135000025],[106.08158445900006,27.76013818800004],[106.08939912500006,27.76756339900004],[106.09755263800008,27.767843322000033],[106.09722904900008,27.774990650000063],[106.10538264600007,27.775269982000054],[106.12134359400005,27.782971057000054],[106.13797460300003,27.776380663000054],[106.15523778800008,27.75549456600004],[106.17968360900005,27.75631797400007],[106.19661578300008,27.742568125000048],[106.25363813600006,27.744462299000077],[106.27746678900007,27.759556428000053],[106.29498661900004,27.773319738000055],[106.33796655300006,27.830519226000035],[106.31932984900004,27.883702871000025],[106.32118496200007,27.935742078000033],[106.29123927700005,27.989441079000073],[106.25030610800007,28.01230354200004],[106.25853184700009,28.034971735000056],[106.25824002100006,28.112755159000073],[106.16232717100007,28.14735726300006],[106.09440832100006,28.12983488900005],[105.99570606100008,28.091485417000058],[105.94446734400009,28.134480303000032],[105.87953035000004,28.141121781000038],[105.86256227200005,28.195157296000048],[105.86505196800005,28.22838851100005],[105.83700966800006,28.25603873600005],[105.81863948900008,28.280331626000077],[105.80733850600006,28.295261699000037],[105.77953514300003,28.317527821000056],[105.72667426700008,28.285122005000062],[105.69395696300006,28.261506653000026],[105.68230185200008,28.26835530900007],[105.64524758600004,28.290123365000056],[105.63495919700006,28.350629766000054],[105.65185722200005,28.402318790000038],[105.65791125300007,28.42492885300004],[105.62464094700005,28.468117634000066],[105.62374111200006,28.469297753000035],[105.62703732600005,28.505230019000066],[105.66465839300008,28.535301092000054],[105.68009889000007,28.576156746000038],[105.72258628200007,28.61264889100005],[105.80817799400006,28.61310893700005],[105.90010416400008,28.610149603000025],[105.89047258200009,28.681389671000034],[105.96147287400004,28.750995601000056],[105.98067907800004,28.759717994000027],[106.00395789900006,28.74800152000006],[106.00106047000008,28.721957865000036],[106.03798249700009,28.705333800000062],[106.06272176000004,28.683814523000024],[106.08057607800004,28.654898570000057],[106.10747349100006,28.63075251300006],[106.13907831800009,28.63897324100003],[106.17881705900004,28.62687421800007],[106.18196943500004,28.60281841400007],[106.21983313500004,28.56290400000006],[106.24144133300007,28.540342619000057],[106.25261412000003,28.53716151200007],[106.28942620900006,28.52668288700005],[106.29511431500003,28.491066617000058],[106.33929332200006,28.469211708000046],[106.37409542100005,28.49805327000007],[106.37760352000004,28.521749242000055],[106.38288840200005,28.55739397800005],[106.44376049700008,28.555707466000058],[106.46851696700008,28.530517314000065],[106.50440672800005,28.534293234000074],[106.47976032300005,28.581863764000047],[106.49087727600005,28.612619711000036],[106.49954902900004,28.627200380000033],[106.52717933400004,28.65755774200005],[106.51912351500005,28.702938519000043],[106.47508457100008,28.719494962000056],[106.43965022100008,28.776546069000062],[106.42554095000008,28.841394785000034],[106.43771466400005,28.847746139000037],[106.45285986900006,28.855645924000044],[106.47709821700005,28.844762612000068],[106.50896002800005,28.799224382000034],[106.51695597700007,28.78068642900007],[106.54639230300006,28.76815468500007],[106.57633054200005,28.743105274000072],[106.56581812300004,28.722224151000034],[106.59722711600006,28.711522479000052],[106.64468473800008,28.686074674000054],[106.64357737700004,28.66189166600003],[106.62879571300004,28.64446601900005],[106.60799439100003,28.59733568000007],[106.57285103900006,28.52292612000008],[106.60375726000007,28.496995062000053],[106.64968730300006,28.507285468000077],[106.67014453200005,28.484610630000077],[106.69694426800004,28.45763789500006],[106.72191625700003,28.471457134000048],[106.74127381400007,28.48216731000008],[106.74206411900008,28.515299853000045],[106.72401269100004,28.555948460000025],[106.76889001300003,28.56794860100007],[106.73924375800004,28.588586725000027],[106.73175771900009,28.622370671000056],[106.76134973600006,28.603524272000072],[106.80692223600005,28.59763543300005],[106.83645347400005,28.607393174000038],[106.86356381500008,28.654649041000027],[106.84319125900004,28.675561790000074],[106.81900654500004,28.742873863000057],[106.84474876100006,28.770074695000062],[106.85375826100005,28.779595347000054],[106.90280230500008,28.794329299000026],[106.94221662100006,28.790010866000046],[106.96422092600005,28.78164466800007],[106.98116377400004,28.832744369000068],[107.01417254800003,28.87935763300004],[107.02792539400008,28.88265263200003],[107.09199564600004,28.897992959000078],[107.14955919900007,28.883805634000055],[107.21440561300005,28.844846808000057],[107.20918281700006,28.822376579000036],[107.24116325100005,28.783028046000027],[107.24523524200004,28.778019132000054],[107.27451875200006,28.794101729000033],[107.35141605000007,28.833945396000047],[107.38053806200008,28.852855000000034],[107.41487035100005,28.87511703100006],[107.44198146200006,28.920520991000046],[107.42007448900006,28.974273078000067],[107.39321578700009,28.99754455200008],[107.37734043900008,29.03005800300008],[107.35749134000008,29.082955945000037],[107.37819096500004,29.133507764000058],[107.39725571700006,29.149238669000056],[107.40469697400005,29.169962388000044],[107.42319095400006,29.198425133000057],[107.42714253800006,29.204503786000032],[107.49416189900006,29.191325348000078],[107.53513542300004,29.20588239500006],[107.54803500300005,29.194667826000057],[107.58043026200005,29.163503201000026],[107.62934612200007,29.16042582700004],[107.66837837800006,29.17131551700004],[107.70985459000008,29.200087609000036],[107.75443150500007,29.174554572000034],[107.76373485900007,29.120435341000075],[107.77626353800008,29.062824440000043],[107.78573217600007,29.01305092800004],[107.78656524700006,29.00871638800004],[107.83545362700005,28.958101218000024],[107.86475594100006,28.96708366400003],[107.88375747800006,29.014833499000076],[107.92626244700006,29.043560894000052],[107.96269699000004,29.039135630000033],[108.00573547900007,29.053579823000064],[108.04952335800004,29.076944337000043],[108.05367624900003,29.07742886500006]]]}}]}
