{"type":"FeatureCollection","name":"admin2_chn_cn-he","adm0A3":"CHN","parentCode":"CN-HE","parentName":"Hebei","bbox":[113.43986781500007,36.03858433600004,119.8066533120001,42.56244057200007],"features":[{"type":"Feature","properties":{"code":"CN013010","name":"Baoding","label":"Baoding · 保定市","type":"Prefecture-level city","parentCode":"CN-HE"},"geometry":{"type":"Polygon","coordinates":[[[116.21895935000009,39.49286274000008],[116.15753821800001,39.47013678700006],[116.12275928600002,39.458343325000044],[116.10381711200012,39.43143305500007],[116.09465297400004,39.40122462700003],[116.08626953100008,39.36638052600006],[116.11777951900001,39.32148388200005],[116.15615942000011,39.30783736400008],[116.17346511100004,39.27658260900006],[116.18072793500005,39.24543849200006],[116.18723329000011,39.19920116000003],[116.19012741200004,39.17197182700005],[116.19719590800003,39.14542787700003],[116.24987007400011,39.12102121200007],[116.29431034000004,39.06551540100003],[116.31083395300004,39.03978730000006],[116.32730829800005,38.99885560400003],[116.28583006500003,38.951805738000076],[116.2533445570001,38.93030913500007],[116.22077064000007,38.914308411000036],[116.19503197200004,38.91598374900008],[116.15256762000001,38.920522479000056],[116.09830204100001,38.904815873000075],[116.07047992000003,38.88208859400004],[116.05235725900002,38.84919107800005],[116.03097707400002,38.812344661000054],[116.00665567400006,38.77519951800008],[115.9804563670001,38.74320290600008],[115.95948799500002,38.676065677000054],[115.95882792500004,38.63392679000003],[115.95482344400011,38.60068490900005],[115.94313996400001,38.566500113000075],[115.91421034900009,38.517742429000066],[115.84663673500006,38.51731497000003],[115.81142499600003,38.52245417800003],[115.77929454200012,38.49442173700004],[115.74879222400011,38.47867351600007],[115.72224388300003,38.45398780000005],[115.70368761700001,38.419703550000065],[115.69894115900001,38.390172319000044],[115.70096787000011,38.350651173000074],[115.65199178900002,38.32167745900006],[115.59769720400004,38.313130244000035],[115.5338429730001,38.301397130000055],[115.4939596480001,38.29800751700003],[115.43999331600003,38.30816659300007],[115.36978574800003,38.30447889800007],[115.35111422600005,38.28115920300007],[115.32884561300011,38.24886039800003],[115.27850147000004,38.24502280000007],[115.25883246400008,38.26984639800003],[115.215164404,38.29313253400005],[115.15762647300005,38.27128798000007],[115.12793157300007,38.25536000000005],[115.07579013400004,38.250623404000066],[115.02363320200004,38.24586241800006],[114.98565471000006,38.251838253000074],[114.934740325,38.25613912600005],[114.8830848240001,38.272894465000036],[114.88152728000011,38.32695180400003],[114.88094706900006,38.368203083000026],[114.86335418100009,38.407973525000045],[114.85597266800005,38.43580805300007],[114.82474733900006,38.49821062700005],[114.75060304800002,38.48155158700007],[114.71058378800001,38.47654453500007],[114.6284066930001,38.46285913300005],[114.62056909300009,38.46938248200007],[114.61273913500008,38.475909485000045],[114.6052703260001,38.488670514000034],[114.59779362300003,38.501426940000044],[114.59015171600004,38.51106839100004],[114.58249474600007,38.52070989200007],[114.57482260800009,38.53035586900006],[114.56716558200003,38.53999419500008],[114.56810592500005,38.55557846800008],[114.56175033600005,38.58704222100005],[114.51816605600004,38.630066268000064],[114.48687928700008,38.64337681500007],[114.44473210000001,38.66082290200006],[114.40472044800003,38.675414491000026],[114.36518111600003,38.689685558000065],[114.33321020800008,38.70122606700005],[114.29447067100011,38.70579817600003],[114.24564759700002,38.69589625800006],[114.20920795500001,38.68244257500004],[114.14833643100008,38.67505288800004],[114.11425413300003,38.657874571000036],[114.06845766300012,38.65472327100008],[114.0278483510001,38.653732611000066],[113.9777667730001,38.66472280900007],[113.9424432620001,38.68619842600003],[113.90528457100004,38.715788101000044],[113.87395007100008,38.73196109300005],[113.83803514100009,38.74922119200005],[113.80311479400007,38.761590193000075],[113.81231301900004,38.818799056000046],[113.75410935000002,38.85984164300004],[113.7206245540001,38.937423644000035],[113.74169821900011,38.967879770000025],[113.7474583710001,38.98771546100005],[113.75112882100007,39.00035776800007],[113.7742216580001,39.021052078000025],[113.85301637700002,39.05374044200005],[113.89461521500004,39.06604593900005],[113.9345699380001,39.095153538000034],[113.94587484800002,39.097646765000036],[114.00338942700012,39.11031644800005],[114.04481663100012,39.08812414600004],[114.08356727500006,39.05891100800005],[114.1579226980001,39.038516661000074],[114.21271371600005,39.055691129000024],[114.25428654600012,39.09119144500005],[114.25790342000005,39.09429670500003],[114.27530967400003,39.088543067000046],[114.31077343200002,39.09292102500007],[114.31263052100007,39.13440461500005],[114.3634416210001,39.16487464000005],[114.4369490900001,39.17615943200008],[114.41397135000011,39.21389503800003],[114.3954341330001,39.27183051700007],[114.42688325900008,39.31428880000004],[114.4539385060001,39.36304500700004],[114.48143947200003,39.445373345000064],[114.48513100700006,39.49830463200004],[114.49763989500002,39.53883545600007],[114.56909556800008,39.54351660100008],[114.60123992700005,39.56361769000006],[114.6353711270001,39.59506387500005],[114.67220279500009,39.62226659400005],[114.71047028600003,39.63563956000007],[114.74699883000005,39.63259265100004],[114.78963993000002,39.606783301000064],[114.82641546700006,39.59911199900006],[114.85666613500007,39.62427835600005],[114.89904020300003,39.62825190900003],[114.9417668420001,39.62896983700006],[114.98347357700004,39.64806447600006],[115.01109230800012,39.676992892000044],[115.07901564200006,39.648966554000026],[115.13192938300006,39.65875688400007],[115.1798723490001,39.67290797900006],[115.21246941700008,39.68825930000003],[115.2558196760001,39.71957416300006],[115.28470938300006,39.74013881900004],[115.32394080000006,39.78630999600006],[115.34659752300001,39.81772672300008],[115.37192837900011,39.867803894000076],[115.4223634440001,39.93729999300007],[115.43803133600011,39.904808650000064],[115.47827797800005,39.88219169300004],[115.4789258510001,39.85386916400006],[115.54522227400003,39.79229354700004],[115.54623874800006,39.78808984700004],[115.54995393900003,39.77266792900008],[115.47837784400008,39.767209302000026],[115.41601666500003,39.776437430000044],[115.41579287200011,39.733110974000056],[115.46438755500003,39.71286337600003],[115.44851567,39.70545309400006],[115.43538928900011,39.704140522000046],[115.45229237500007,39.66995230200007],[115.48826513900008,39.61829484200007],[115.50792871400006,39.59107884900004],[115.53827361100002,39.58382512000003],[115.56169784100007,39.57946094400006],[115.60961426300003,39.58836731000008],[115.6371457250001,39.57411143400003],[115.66950555900007,39.54287558400006],[115.72813189800002,39.47883547300006],[115.77934918800008,39.49456689500005],[115.80779164100011,39.503298037000036],[115.82440898800007,39.52213474600006],[115.83996573900004,39.542776149000076],[115.89056804300003,39.55590302000007],[115.92753872000003,39.54211602400005],[115.95251270200004,39.54381188000008],[115.9927713300001,39.544026347000056],[116.01106458400011,39.53447352000006],[116.069828658,39.54544634000007],[116.133399542,39.55708851300005],[116.17161454900008,39.57856624300007],[116.18061362200001,39.576736296000036],[116.2098955890001,39.527183249000075],[116.210348683,39.503971945000046],[116.21895935000009,39.49286274000008]]]}},{"type":"Feature","properties":{"code":"CN013020","name":"Cangzhou","label":"Cangzhou · 沧州市","type":"Prefecture-level city","parentCode":"CN-HE"},"geometry":{"type":"Polygon","coordinates":[[[116.19503197200004,38.91598374900008],[116.19570593200001,38.84376161500006],[116.22192301400003,38.815195250000045],[116.27421248100006,38.796111120000035],[116.31118538600003,38.789825155000074],[116.34575069300001,38.78274804000006],[116.39967585500005,38.756637771000044],[116.39049073600006,38.69435255800005],[116.35823758000004,38.66828688000004],[116.33885960400005,38.64191168800005],[116.37234222000006,38.59775317700007],[116.40950773100008,38.56894888700003],[116.41994423800008,38.542191056000036],[116.4307228560001,38.506696042000044],[116.4740540360001,38.47567046000006],[116.52609133100009,38.476207928000065],[116.56435727400003,38.47297259900006],[116.59343594400002,38.49642707900006],[116.61501863600006,38.52721133400007],[116.62794375400006,38.55256859700006],[116.64992502300004,38.58103582900003],[116.69319727300001,38.60543729200003],[116.71516101200007,38.62701480900006],[116.73213456700012,38.65762157000006],[116.71638915200003,38.68290165600007],[116.72513788800006,38.74730927600007],[116.73296933600011,38.73838826800005],[116.74863420800011,38.72884332600006],[116.78036285700011,38.715029525000034],[116.80425619700009,38.705987820000075],[116.81949839200001,38.69114612100003],[116.82943964700007,38.68361992500007],[116.86912082700007,38.68180622500006],[116.90033971600008,38.67683736400005],[116.94989802700002,38.681619914000066],[117.00262110100005,38.68181740700004],[117.02569098300012,38.66304133300008],[117.03245218600011,38.63087554500004],[117.0325729870001,38.60344900000007],[117.1081165700001,38.58306502500005],[117.11436751300005,38.58807040800008],[117.11982761400009,38.59181543200003],[117.16023952600005,38.61948988800003],[117.19440103000011,38.622266968000076],[117.22601572300005,38.60834774700004],[117.20328130700011,38.58822089100005],[117.18201462100001,38.571556548000046],[117.20952048900006,38.550760454000056],[117.2280743340001,38.54897577300005],[117.28304909200006,38.56309732200003],[117.32118711800001,38.557684497000025],[117.36774873400009,38.55537603600004],[117.39419525100004,38.56378913700007],[117.43444595900007,38.58300826800007],[117.46091518200001,38.59141211600007],[117.51232935500002,38.59057820800007],[117.52017765200003,38.58956091400006],[117.54607975200008,38.56406356900004],[117.57615874100009,38.517390429000045],[117.5954848450001,38.48301368600005],[117.61564432400007,38.44498195800003],[117.6542995640001,38.402324158000056],[117.68124044600006,38.37381206200007],[117.70444866900004,38.34369646000005],[117.72521710600006,38.32542777900005],[117.74707635200002,38.30619455800007],[117.76328736000005,38.28996854500008],[117.7397553290001,38.26697550100005],[117.72544781700003,38.26597312000007],[117.69307569000011,38.27408785500006],[117.70302130100004,38.242011079000065],[117.69187483200005,38.232009342000026],[117.67844409700001,38.219962517000056],[117.68236944600005,38.199031846000025],[117.70701666700006,38.20936423400008],[117.72208741000009,38.218430685000044],[117.7402415150001,38.220997425000064],[117.7589163240001,38.219963120000045],[117.77198045300008,38.23274052700003],[117.77800830800004,38.22159286800007],[117.760290456,38.19737194800007],[117.7616847810001,38.18738660300005],[117.78389557500009,38.204779346000066],[117.74595316900002,38.156738165000036],[117.73633055500011,38.12712148000003],[117.71385263900004,38.10078858500003],[117.67222341900003,38.08062013600005],[117.61800214100003,38.066208277000044],[117.57110559500006,38.05889121800004],[117.53282026900001,38.038486610000064],[117.50468548900005,37.98730248700008],[117.45001866000007,37.899915229000044],[117.4422568650001,37.88778775900005],[117.40711286300007,37.864657356000066],[117.36012669600007,37.85476691700006],[117.32414048800001,37.85681047000003],[117.30077545200004,37.85310100700008],[117.18793806000008,37.841825468000025],[117.14869881600009,37.843999104000034],[117.03307665300008,37.837772691000055],[117.00925831400002,37.82900676100007],[116.98219426700007,37.820416597000076],[116.93946671200001,37.820203124000045],[116.87890929000002,37.841038808000064],[116.82918331700012,37.83613589400005],[116.8233471310001,37.83570412000006],[116.76963579000005,37.83172461000004],[116.73539267000001,37.81591696100003],[116.71856392600012,37.77405956300004],[116.700257523,37.75239032200005],[116.65451640900005,37.71705299900003],[116.64036952700008,37.705214958000056],[116.62862224700007,37.68319780300004],[116.61928314400006,37.65100416700005],[116.60841239500007,37.638995401000045],[116.5256227530001,37.590433501000064],[116.45513836500004,37.53115686500007],[116.45121347800011,37.522243881000065],[116.42616101600004,37.50339073500004],[116.38640808900004,37.488769793000074],[116.37882117600009,37.48597459000007],[116.36594501400009,37.51569386800003],[116.34657532200004,37.56778789500004],[116.2787824190001,37.575058788000035],[116.32042959600005,37.64338037500005],[116.32720125000003,37.68576764000005],[116.3568454870001,37.72703074400005],[116.37770370200008,37.74107793100006],[116.39982194200002,37.77014051300006],[116.41291349100004,37.81783930700004],[116.42511977800007,37.83674397200008],[116.43987773200001,37.85611216700005],[116.4675383010001,37.87232276000003],[116.47883932700006,37.889348520000055],[116.504031886,37.95343232300007],[116.51156606600011,38.003318044000025],[116.4339452700001,38.019766240000024],[116.3773563210001,38.01251032500005],[116.34024432100011,38.00176696200003],[116.31521157300006,37.97785622600003],[116.25785329900009,37.960539906000065],[116.2160606760001,37.97260317000007],[116.18575118400008,37.96400248300006],[116.14460867600008,37.94334883300007],[116.10903750500006,37.90985327900006],[116.09480164900003,37.98354006200003],[116.06724957900008,38.03488711700004],[116.07435328400004,38.06097536900006],[116.02843292300008,38.11017573700008],[115.98879091100002,38.12938614300003],[115.9518736330001,38.13284079300007],[115.89994593000006,38.13758818300005],[115.86356100500007,38.16193126200005],[115.8454756430001,38.18874441100007],[115.8408610890001,38.224291623000056],[115.83568843100011,38.25299075600003],[115.8238922700001,38.28451976800005],[115.81280098800005,38.32117315700003],[115.77751875100012,38.338692157000025],[115.74147192600003,38.33974100900008],[115.70096787000011,38.350651173000074],[115.69894115900001,38.390172319000044],[115.70368761700001,38.419703550000065],[115.72224388300003,38.45398780000005],[115.74879222400011,38.47867351600007],[115.77929454200012,38.49442173700004],[115.81142499600003,38.52245417800003],[115.84663673500006,38.51731497000003],[115.91421034900009,38.517742429000066],[115.94313996400001,38.566500113000075],[115.95482344400011,38.60068490900005],[115.95882792500004,38.63392679000003],[115.95948799500002,38.676065677000054],[115.9804563670001,38.74320290600008],[116.00665567400006,38.77519951800008],[116.03097707400002,38.812344661000054],[116.05235725900002,38.84919107800005],[116.07047992000003,38.88208859400004],[116.09830204100001,38.904815873000075],[116.15256762000001,38.920522479000056],[116.19503197200004,38.91598374900008]]]}},{"type":"Feature","properties":{"code":"CN013030","name":"Chengde","label":"Chengde · 承德市","type":"Prefecture-level city","parentCode":"CN-HE"},"geometry":{"type":"Polygon","coordinates":[[[119.18676221600003,41.30574491300007],[119.19478559600009,41.305252231000054],[119.1978068950001,41.299736653000025],[119.17066724100005,41.28542680400005],[119.16886911400002,41.25889928200007],[119.1433119290001,41.19387214500006],[119.12469221600008,41.157719661000044],[119.09242888100005,41.12950561400004],[119.03478483700007,41.11259230500008],[119.02349854200008,41.09818225200007],[119.01860232500007,41.086938685000064],[118.94300888300006,41.060417544000074],[118.89998503900006,41.04346076000007],[118.87732097700007,41.02439882800007],[118.92622809200009,40.995747745000074],[118.95252482300009,40.981746014000066],[118.92635457200004,40.96379034700004],[118.86385348700003,40.93379471500003],[118.81478297500007,40.904757596000024],[118.76957792000007,40.85507058400003],[118.80156671100008,40.80439028700005],[118.80008176400008,40.76810325900004],[118.842076012,40.75144695900008],[118.85790523700007,40.745164620000025],[118.91039900800001,40.71808056900005],[118.9698870420001,40.65595291100004],[119.03599726700008,40.643954731000065],[119.09697082500008,40.66152765500004],[119.1380355020001,40.66254819900007],[119.1014222020001,40.61511615400008],[119.11340128800009,40.58564676800006],[119.08907816600004,40.57219169700005],[119.04358480300004,40.56514996100003],[118.99490417800007,40.55189223900004],[118.9526789460001,40.53719938900008],[118.9168999420001,40.50221149500004],[118.87744858500002,40.50431225900007],[118.81465901900003,40.50726177900003],[118.78207967900005,40.48258968700003],[118.72796810500006,40.468271049000066],[118.66669826500004,40.44941471000004],[118.6208893060001,40.41924837400006],[118.61533750700005,40.38884673100006],[118.62298217200009,40.358367342000065],[118.61710933300003,40.330281435000074],[118.60798528500004,40.290484898000045],[118.60100670100007,40.25327952300006],[118.54496644500011,40.23123541700005],[118.52762090300007,40.25599080200004],[118.52072779800005,40.30755576900003],[118.52993069200011,40.34366757200007],[118.50260937900009,40.37052816900007],[118.46420951300001,40.38071710300005],[118.40415129400003,40.38052123400007],[118.3696651460001,40.39315907200006],[118.30852191300005,40.41415676400004],[118.24880286500002,40.417080457000054],[118.21205100800012,40.40592023500005],[118.17226689000006,40.40462007700006],[118.13920573000007,40.36329045200006],[118.10111500400001,40.34023690600003],[118.10211823800012,40.30753111300004],[118.06379966500003,40.30288002300006],[118.03026991500008,40.29282726300005],[117.99459782300005,40.274644022000075],[117.95419865600002,40.26184153400004],[117.9132422670001,40.24952718600008],[117.86123644700001,40.239798224000026],[117.81940499300003,40.23533209300007],[117.78351667600009,40.23043967700005],[117.74659531800012,40.22147343900008],[117.70560946100011,40.20817770700006],[117.64661288100001,40.19425397500004],[117.57477190300006,40.169988104000026],[117.56423881900002,40.183632818000035],[117.52870020000012,40.18922826200003],[117.44251908400008,40.194066159000045],[117.3819517070001,40.190289911000036],[117.31470775600008,40.180915139000035],[117.3029829940001,40.19866742100004],[117.28777207200005,40.23039444500006],[117.27477607500009,40.24607453300007],[117.25796557600006,40.25928024900003],[117.23304915400001,40.289695831000074],[117.20021576600004,40.339969659000076],[117.19035715600012,40.34900066300003],[117.16353400000003,40.37358457100004],[117.17457428000012,40.39078149200003],[117.18831559800003,40.43973416700004],[117.16614504800009,40.50367324700005],[117.20187152000005,40.52855840400008],[117.24748182400003,40.54234840600003],[117.2981753150001,40.54523607700003],[117.34428384500006,40.536821890000056],[117.38718167800005,40.53296864400005],[117.40856182100003,40.55761872800008],[117.40334105600004,40.57846546800005],[117.41160532800006,40.598695400000054],[117.43752369600008,40.60874574400003],[117.45277586600002,40.60970514300004],[117.46482569900002,40.632507073000056],[117.45382663300006,40.64690773900003],[117.3792751740001,40.648738379000065],[117.27751667400003,40.65889898200004],[117.17309506800007,40.67371907800003],[117.09870907800007,40.677679012000056],[117.01418143800004,40.67293446800005],[116.95774476500003,40.668986120000056],[116.933389895,40.67484263700004],[116.91672483200011,40.696381071000076],[116.90005927900006,40.71791304100003],[116.8573348220001,40.76140235200006],[116.83850875600001,40.78794251700003],[116.79733611400002,40.81545337800003],[116.76440643500007,40.82576404500003],[116.70269344700012,40.85325630300008],[116.70875258300009,40.86894008200005],[116.7068148830001,40.89028856600004],[116.68097430000012,40.91443898600005],[116.65486405400009,40.95100206200004],[116.6498608170001,40.98396614700005],[116.64768510700003,40.99826796800005],[116.63399727300009,41.039613734000056],[116.62084033400004,41.05700939700006],[116.55700272900003,41.02870654600008],[116.53648513000007,40.96577847900005],[116.50311527200006,40.95566254000005],[116.47610351900005,40.949698726000065],[116.427025791,40.95527094100004],[116.40477708900005,40.948217671000066],[116.41649523000001,40.911415770000076],[116.43549075300007,40.89114589700006],[116.43751265800006,40.86979669300007],[116.39543946300012,40.87153050200004],[116.3590183440001,40.884537022000075],[116.33835894700007,40.89866848500003],[116.32389957700002,40.90645104600003],[116.28675590300008,40.96335082100006],[116.25891242000012,40.99569774400004],[116.25443004500005,41.02581507700006],[116.2449004340001,41.06035337600008],[116.23588714800007,41.08750792200004],[116.22126075500012,41.112679824000054],[116.20409990600001,41.14350753400004],[116.19871163000005,41.19067265000007],[116.18562077100012,41.21989652700006],[116.17574333900006,41.25123720400006],[116.17298498900004,41.287696537000045],[116.16552265100006,41.31890161700005],[116.1295782520001,41.34433262300007],[116.0862106190001,41.354995288000055],[116.03757989500002,41.35444961800005],[116.01569288000007,41.38826549300006],[115.9844216030001,41.419376689000046],[115.95949390300007,41.45381630700007],[115.9467849670001,41.482076120000045],[115.93700391400012,41.516153504000044],[115.906480826,41.563754276000054],[115.886504263,41.59975781900005],[115.90782259500008,41.63446474500006],[115.96891067400009,41.670261614000026],[116.00740726200002,41.698521166000035],[116.03141743300012,41.75717779300004],[116.0443065710001,41.75034068800005],[116.0801715990001,41.791534883000054],[116.08177548900005,41.83137684800005],[116.10880560500004,41.85073433800005],[116.18121095200001,41.855026527000064],[116.20156073400005,41.89946938700007],[116.21504735200006,41.93353337700006],[116.2739104640001,41.96846739400007],[116.31664683600002,41.983623512000065],[116.35271506000004,41.991050321000046],[116.38785701000006,41.98608223800005],[116.39312133600004,41.94240588100007],[116.39090055200006,41.92918852200006],[116.41746820800006,41.93633108000006],[116.44527723200008,41.96275582000004],[116.45823437600006,41.96522717400006],[116.47487721000005,41.96135196100005],[116.48196062200009,41.94560296800006],[116.4882069570001,41.92064775000006],[116.50851258500006,41.91043252600008],[116.59272134100001,41.903299426000046],[116.643411162,41.900834719000045],[116.67014900200002,41.91493991700003],[116.68395949400008,41.92659500600007],[116.68651792200001,41.95421615600003],[116.696379062,41.96913727900005],[116.72625810400007,41.97075085900008],[116.80265264600007,41.97004307800006],[116.82522189000008,41.98433038400003],[116.84532253000009,42.01723766100008],[116.84968559300012,42.06327267900008],[116.83536060300003,42.09174712300006],[116.8210200310001,42.120217155000034],[116.78378780900005,42.17273630400007],[116.80380802500008,42.192285549000076],[116.84821338500001,42.17969783800004],[116.90123423000011,42.21199312200008],[116.8845711250001,42.24823569600005],[116.85354183900006,42.28954497500007],[116.85120229900008,42.350909469000044],[116.86984856000004,42.38295506400004],[116.91433665500006,42.406111285000065],[116.9548342920001,42.427166240000076],[117.01389081200011,42.440519798000025],[117.0655394690001,42.43908991300003],[117.15739889700001,42.44645527100005],[117.24759813000003,42.462724526000045],[117.31801027400002,42.43633695200003],[117.36727359600002,42.43579328900006],[117.39464781600009,42.45225948700005],[117.41684026900009,42.47963377000008],[117.42503609200003,42.51566862000004],[117.43949916100007,42.53897378700003],[117.48045081500004,42.55477666000007],[117.52635542200005,42.54367136900004],[117.56577911500005,42.52931864400006],[117.61347286500006,42.53765225700005],[117.6874283410001,42.56244057200007],[117.73676719100001,42.56176051300008],[117.74412448700002,42.55627677500007],[117.77252297000007,42.53508657300006],[117.80164273000003,42.516735432000075],[117.88724565300004,42.45728651100006],[117.95604375700009,42.403983924000045],[117.9864902060001,42.34997728800005],[117.99887674900003,42.300461486000074],[118.00868147900007,42.275076521000074],[117.98553620300004,42.239853020000055],[117.96623843100008,42.231081936000066],[117.9365380810001,42.21662693300004],[117.998193506,42.17666198100005],[118.0427278090001,42.15551672200007],[118.05863742300005,42.14532278000007],[118.057269399,42.13305399500007],[118.0479083250001,42.08730031300007],[118.09158517200001,42.09706504900004],[118.1078194050001,42.08992652300003],[118.1054235680001,42.068460696000045],[118.09877592100008,42.04724831500005],[118.09739960600007,42.034986539000045],[118.12206083900003,42.02734524600004],[118.15587472000004,42.02532593900003],[118.16925560100003,42.03069874600004],[118.18963221400008,42.06034394000005],[118.20759014300006,42.068524042000035],[118.22485234500004,42.07057358800006],[118.24010153900008,42.06562829200004],[118.25145028000009,42.060521090000066],[118.260785811,42.03158784500005],[118.24491677800006,41.99602267800003],[118.25358914000003,41.98489397000003],[118.28710950900006,41.95288226000008],[118.25730224200004,41.912754275000054],[118.24048802400011,41.90389234500003],[118.27247896300003,41.86929962600004],[118.31319655900006,41.84843070100004],[118.30549058300005,41.808890502000054],[118.29639944200005,41.76764839000003],[118.27530397300006,41.740383809000036],[118.26017781700011,41.73588476600003],[118.22537127900011,41.766182479000065],[118.1603568480001,41.78832048100003],[118.10891434300004,41.76266029400006],[118.09725363300004,41.706463745000065],[118.14188756700003,41.659490711000046],[118.19033077900008,41.611823454000046],[118.19619552600011,41.56090619400004],[118.26534909000009,41.54562405400003],[118.26768892200005,41.53624157100006],[118.27748222900004,41.49702634600004],[118.25291949600012,41.47084917400008],[118.239373107,41.44496442900004],[118.24469902800001,41.435495193000065],[118.2465919330001,41.43214624900003],[118.2716868980001,41.415687185000024],[118.29060727100011,41.38625413300008],[118.29294464100008,41.36127513300005],[118.30659840600003,41.31615757700007],[118.32577995400004,41.30179028200007],[118.34542163200001,41.29183009700006],[118.378156192,41.29560722600007],[118.41301665900005,41.29961788400004],[118.42614756600005,41.32106928800005],[118.47349371000007,41.344155801000056],[118.52971940100008,41.33566291900007],[118.57562465800004,41.33305515300003],[118.61427687500009,41.330849828000055],[118.6395449580001,41.31697580200006],[118.68784964200006,41.31418899400006],[118.7320724110001,41.31872706900003],[118.78233772300007,41.32290289800005],[118.81144611400009,41.29988655000005],[118.85226193000005,41.26197899700003],[118.91997047400002,41.27039354300007],[118.95112787100004,41.29960788500006],[119.0237448790001,41.297026334000066],[119.06984984600001,41.27470806300005],[119.17427477500007,41.30651376800006],[119.18676221600003,41.30574491300007]]]}},{"type":"Feature","properties":{"code":"CN013040","name":"Handan","label":"Handan · 邯郸市","type":"Prefecture-level city","parentCode":"CN-HE"},"geometry":{"type":"Polygon","coordinates":[[[115.42578269900002,36.70892592800004],[115.41886781800008,36.70491269400003],[115.4174729130001,36.68487699000008],[115.3960388590001,36.65565155200005],[115.3286533910001,36.61579442300007],[115.3079508730001,36.59656585500005],[115.31844570100009,36.56096312300008],[115.307246426,36.538828857000055],[115.27234841400002,36.50009546500007],[115.25440216000004,36.473214695000024],[115.26008089200002,36.459260087000075],[115.27472136300003,36.391997536000076],[115.27606728900003,36.36431582700004],[115.30399989900002,36.33285855500003],[115.38902421800003,36.33162870800004],[115.39975916000003,36.30120143200003],[115.42428165400008,36.254371313000036],[115.44768371100008,36.20846166000007],[115.45925248000003,36.17357806600006],[115.46640044900005,36.14061737500003],[115.44233389200008,36.11613533700006],[115.41840466600001,36.132628201000045],[115.37556655000003,36.11559949700006],[115.34020098500002,36.09034664200004],[115.31158753300008,36.08428283400008],[115.26751743700004,36.10526017600006],[115.23785172500004,36.14163451300004],[115.19051089000004,36.186558897000054],[115.11031537000008,36.21135816300006],[115.10279768100008,36.20761311700005],[115.05215556100006,36.18236269300007],[115.02690307500006,36.13282680200007],[115.01255204400002,36.09619040800004],[114.98015042600002,36.060132993000025],[114.93609611800002,36.03858433600004],[114.90327967500002,36.05995700400007],[114.88088805600012,36.13135327200007],[114.77423024200004,36.12496867100003],[114.73423596000009,36.11497627600005],[114.72384532900003,36.11237750200007],[114.66182706400002,36.13987107300005],[114.607938923,36.12468795500007],[114.54708996500005,36.10526322100003],[114.48488047100011,36.154762160000075],[114.43493551000006,36.17649128200003],[114.36821440800009,36.21677650600003],[114.25148301900003,36.23210781500006],[114.2072504460001,36.24613881800008],[114.16273165000007,36.25514310400007],[114.13169829600008,36.27624522800005],[114.08460283400007,36.29785626700004],[114.06842093300008,36.295866423000064],[114.05519131400001,36.288762320000046],[114.00497753100001,36.31295370600003],[113.95447798400005,36.33210901100006],[113.94138400100007,36.32749774300004],[113.93086637700003,36.31025514000004],[113.90826122200008,36.30844431700007],[113.89245450900012,36.31395096500006],[113.86726482300003,36.32476425700003],[113.83599719100005,36.34328676600006],[113.81623176400001,36.33384323700005],[113.7962262100001,36.31938465500008],[113.76363712900002,36.31031947100007],[113.70676590100004,36.33207692900004],[113.71116723400007,36.35704348500008],[113.69568302200003,36.370049548000054],[113.59881091200009,36.433072104000075],[113.56709544900002,36.44889885500004],[113.55368039200005,36.45609037100007],[113.53647618100001,36.51914566600004],[113.5502100650001,36.55594440200008],[113.50696911000011,36.58951973000006],[113.44990948200007,36.61894341000004],[113.43986781500007,36.660644363000074],[113.4859006800001,36.67560595700007],[113.44766357900005,36.690513585000076],[113.44164869800011,36.716240689000074],[113.47201843100004,36.73857983200003],[113.49242790900007,36.742203388000064],[113.51213627700008,36.745701550000035],[113.56625998700008,36.762230232000036],[113.60033520000002,36.79152714700007],[113.63680856000008,36.82341227500007],[113.63944383,36.86662047200008],[113.6651768910001,36.88372295600004],[113.69915726900001,36.844121846000064],[113.71398458500005,36.84379229900003],[113.73217874200009,36.85546544300007],[113.75253563000001,36.868536720000066],[113.75116158800006,36.89329188900007],[113.72925948400007,36.95117949200005],[113.74596178400009,37.00202120100005],[113.73799097200003,37.013875367000026],[113.82993493800006,37.02160896500004],[113.89543297900002,36.98710474600006],[113.92872195100006,36.96549844000003],[113.95994990100007,36.93928621200007],[113.99885853900003,36.91230310000003],[114.04551270200011,36.88970270100003],[114.0797003780001,36.858250525000074],[114.11587989500003,36.833382447000076],[114.170190821,36.842833005000045],[114.22558795000009,36.84641120500004],[114.2694537750001,36.84448527400008],[114.30616062900003,36.83782621100005],[114.35428893100004,36.83110752700003],[114.4014319900001,36.82715896000008],[114.4498388510001,36.82496963700004],[114.48815572400008,36.82596726600008],[114.52269163100004,36.839037596000026],[114.57417786000008,36.86642053500003],[114.60928569000009,36.87898125800007],[114.64539325400006,36.91040344700008],[114.68979540400005,36.90359101200005],[114.7299157870001,36.91739610800005],[114.77860745200007,36.93187328400006],[114.85269247200006,36.94813418800004],[114.95444232800003,36.95506243300008],[115.01073183300002,36.94663269700004],[115.06705826600012,36.95022884500003],[115.1078544400001,36.90524844500004],[115.16924508800003,36.86077468700006],[115.2154391040001,36.86267514100007],[115.27634060100002,36.84060069800006],[115.3276791400001,36.77891412500003],[115.38736494800003,36.75232878200006],[115.41613650300008,36.71983117000008],[115.42578269900002,36.70892592800004]]]}},{"type":"Feature","properties":{"code":"CN013050","name":"Hengshui","label":"Hengshui · 衡水市","type":"Prefecture-level city","parentCode":"CN-HE"},"geometry":{"type":"Polygon","coordinates":[[[116.2787824190001,37.575058788000035],[116.26207706000002,37.57084478200005],[116.24026849800009,37.544260972000075],[116.23110493100012,37.51204243900003],[116.2215558800001,37.474813149000056],[116.19247548900012,37.452377252000076],[116.19411669400006,37.418343597000046],[116.22483297600002,37.394245288000036],[116.21345729100005,37.374694702000056],[116.19426068900009,37.359258811000075],[116.0553653610001,37.357121180000036],[116.03851711200002,37.350376948000076],[115.97863386800009,37.33558878800005],[115.94381316200008,37.30705973600004],[115.92926772900012,37.28763266300007],[115.92522367100003,37.23506602200007],[115.88663665700005,37.19915741600005],[115.84981753600005,37.143065913000044],[115.84200561700004,37.12583653300004],[115.85039262600003,37.10787207100003],[115.84184168500008,37.08062492100004],[115.81268313600003,37.11086930700003],[115.78159944800007,37.13780556800003],[115.75208120900004,37.170151254000075],[115.73389349000001,37.21163733800006],[115.68066691500007,37.210285431000045],[115.64363368300008,37.23568118900005],[115.61304479500006,37.263001521000035],[115.57958480000002,37.30895354300003],[115.56892190300005,37.33427142000005],[115.50708057400004,37.31910604800004],[115.44935995100002,37.34645549900006],[115.40096198900005,37.36779019200003],[115.37890548900009,37.407127252000066],[115.3889728040001,37.44446658500004],[115.41632658600008,37.46318751900003],[115.41856174100008,37.49971962600006],[115.38948003500002,37.519113263000065],[115.34549998600005,37.53194342900008],[115.28797581200001,37.54133770300007],[115.24086627100007,37.55154166700004],[115.20490014200004,37.55658600900006],[115.17866923700001,37.58402932800004],[115.18630168400011,37.617075267000075],[115.21999638000011,37.64330738500007],[115.2587518140001,37.67790867100007],[115.29296246000001,37.70736996000005],[115.30793421800001,37.737290648000055],[115.30907851100005,37.775254106000034],[115.31182999200007,37.803972729000066],[115.33903766900005,37.83463175800006],[115.36268066100001,37.86364776000005],[115.37945057200011,37.89347321400004],[115.394328384,37.936221346000025],[115.4041495570001,37.965947167000024],[115.42725163600005,37.994516987000054],[115.45043496700009,38.01666721000004],[115.46528895400002,38.050712145000034],[115.44507374900002,38.10233601700003],[115.41233862600006,38.08693120200007],[115.37330887300004,38.09308127500003],[115.34615817400004,38.117851115000065],[115.33827495000003,38.143915296000046],[115.33368308100012,38.190423612000075],[115.32884561300011,38.24886039800003],[115.35111422600005,38.28115920300007],[115.36978574800003,38.30447889800007],[115.43999331600003,38.30816659300007],[115.4939596480001,38.29800751700003],[115.5338429730001,38.301397130000055],[115.59769720400004,38.313130244000035],[115.65199178900002,38.32167745900006],[115.70096787000011,38.350651173000074],[115.74147192600003,38.33974100900008],[115.77751875100012,38.338692157000025],[115.81280098800005,38.32117315700003],[115.8238922700001,38.28451976800005],[115.83568843100011,38.25299075600003],[115.8408610890001,38.224291623000056],[115.8454756430001,38.18874441100007],[115.86356100500007,38.16193126200005],[115.89994593000006,38.13758818300005],[115.9518736330001,38.13284079300007],[115.98879091100002,38.12938614300003],[116.02843292300008,38.11017573700008],[116.07435328400004,38.06097536900006],[116.06724957900008,38.03488711700004],[116.09480164900003,37.98354006200003],[116.10903750500006,37.90985327900006],[116.14460867600008,37.94334883300007],[116.18575118400008,37.96400248300006],[116.2160606760001,37.97260317000007],[116.25785329900009,37.960539906000065],[116.31521157300006,37.97785622600003],[116.34024432100011,38.00176696200003],[116.3773563210001,38.01251032500005],[116.4339452700001,38.019766240000024],[116.51156606600011,38.003318044000025],[116.504031886,37.95343232300007],[116.47883932700006,37.889348520000055],[116.4675383010001,37.87232276000003],[116.43987773200001,37.85611216700005],[116.42511977800007,37.83674397200008],[116.41291349100004,37.81783930700004],[116.39982194200002,37.77014051300006],[116.37770370200008,37.74107793100006],[116.3568454870001,37.72703074400005],[116.32720125000003,37.68576764000005],[116.32042959600005,37.64338037500005],[116.2787824190001,37.575058788000035]]]}},{"type":"Feature","properties":{"code":"CN013060","name":"Langfang","label":"Langfang · 廊坊市","type":"Prefecture-level city","parentCode":"CN-HE"},"geometry":{"type":"MultiPolygon","coordinates":[[[[116.7699695440001,39.578915290000054],[116.78749921600001,39.56226612900008],[116.78116608700009,39.55540787600006],[116.77200130200004,39.54431367600006],[116.76874238200003,39.53295655100004],[116.77507106400003,39.507899260000045],[116.79262897500007,39.475259067000025],[116.80387024000004,39.452639189000024],[116.83763211600001,39.43076427600005],[116.81101738000007,39.42311787700004],[116.79374954700006,39.39911714900006],[116.79002476200003,39.351510088000055],[116.80732083900011,39.33126546300008],[116.82456724200006,39.325181728000075],[116.83176311000011,39.31158347100006],[116.84592781300012,39.281746276000035],[116.83768080300001,39.26707870200005],[116.8259979390001,39.22337336100003],[116.81920761200001,39.19713475300006],[116.80524470800003,39.18449623400005],[116.83294230700005,39.16201152300005],[116.85503000900007,39.14331972700006],[116.89292873300008,39.130973073000064],[116.90216433,39.11991948300005],[116.91271817300003,39.108520971000075],[116.91816535100008,39.090381527000034],[116.91888787200003,39.07249973300003],[116.91555182900004,39.06196928400004],[116.907657545,39.05346084200005],[116.88765985700002,39.042018932000076],[116.83480503100009,39.03407559200008],[116.74484542100004,39.00838727300004],[116.72754871300003,39.00035253500005],[116.67946450900001,38.99210926000006],[116.65788814000007,38.95310357400007],[116.66166660800002,38.925521305000075],[116.66941657600012,38.90395083800007],[116.67103086500003,38.848160773000075],[116.67460631600011,38.82616913800007],[116.6790162750001,38.79916240500006],[116.71356907200004,38.76048121300005],[116.72513788800006,38.74730927600007],[116.71638915200003,38.68290165600007],[116.73213456700012,38.65762157000006],[116.71516101200007,38.62701480900006],[116.69319727300001,38.60543729200003],[116.64992502300004,38.58103582900003],[116.62794375400006,38.55256859700006],[116.61501863600006,38.52721133400007],[116.59343594400002,38.49642707900006],[116.56435727400003,38.47297259900006],[116.52609133100009,38.476207928000065],[116.4740540360001,38.47567046000006],[116.4307228560001,38.506696042000044],[116.41994423800008,38.542191056000036],[116.40950773100008,38.56894888700003],[116.37234222000006,38.59775317700007],[116.33885960400005,38.64191168800005],[116.35823758000004,38.66828688000004],[116.39049073600006,38.69435255800005],[116.39967585500005,38.756637771000044],[116.34575069300001,38.78274804000006],[116.31118538600003,38.789825155000074],[116.27421248100006,38.796111120000035],[116.22192301400003,38.815195250000045],[116.19570593200001,38.84376161500006],[116.19503197200004,38.91598374900008],[116.22077064000007,38.914308411000036],[116.2533445570001,38.93030913500007],[116.28583006500003,38.951805738000076],[116.32730829800005,38.99885560400003],[116.31083395300004,39.03978730000006],[116.29431034000004,39.06551540100003],[116.24987007400011,39.12102121200007],[116.19719590800003,39.14542787700003],[116.19012741200004,39.17197182700005],[116.18723329000011,39.19920116000003],[116.18072793500005,39.24543849200006],[116.17346511100004,39.27658260900006],[116.15615942000011,39.30783736400008],[116.11777951900001,39.32148388200005],[116.08626953100008,39.36638052600006],[116.09465297400004,39.40122462700003],[116.10381711200012,39.43143305500007],[116.12275928600002,39.458343325000044],[116.15753821800001,39.47013678700006],[116.21895935000009,39.49286274000008],[116.23660295800005,39.47596793300005],[116.26582375700002,39.45495795900007],[116.29561728300007,39.44104981000004],[116.34880536700007,39.42244282100006],[116.3840702760001,39.417168512000046],[116.386439816,39.417053827000075],[116.42758036400005,39.42911184600007],[116.42866627600006,39.43355814100005],[116.42380395300006,39.46384008000007],[116.39443264600004,39.48269560500006],[116.39146987700008,39.49084019900005],[116.40066752300004,39.49811666800008],[116.40528214900007,39.50176280900007],[116.43791627500002,39.52693796900007],[116.5021139910001,39.54634139500007],[116.52765536400011,39.57091109400005],[116.53500711700008,39.590059593000035],[116.58713895100004,39.605517752000026],[116.6067911560001,39.583432825000045],[116.66398789700008,39.57208905400006],[116.68724051400011,39.58168921400005],[116.69241005300012,39.58689470300004],[116.71166258500011,39.60627997900008],[116.73195000100009,39.60803789700003],[116.74106667700005,39.60321028200008],[116.7699695440001,39.578915290000054]]],[[[117.19727326700001,40.04855135200006],[117.18001046400002,40.01911699100003],[117.16173501800006,39.97901706300007],[117.1296726270001,39.94502178500005],[117.11314269600007,39.92269190800005],[117.11160866600005,39.90669649700004],[117.1165500300001,39.883216213000026],[117.13478026500002,39.84830402500006],[117.16268784200008,39.839657567000074],[117.19094364000011,39.83455737500003],[117.2198860310001,39.836560776000056],[117.23279707000006,39.82156292700006],[117.2031749030001,39.812465925000026],[117.17424756500009,39.81045865300007],[117.14345895800011,39.79238031300008],[117.15229758200007,39.771999067000024],[117.17161331400007,39.73302271500006],[117.16658802100005,39.72971933500003],[117.1470773530001,39.709397258000024],[117.13910838200002,39.670823933000065],[117.14250870500007,39.640571514000044],[117.14481413400006,39.62541499900004],[117.14960238900005,39.61191186000008],[117.12609910700007,39.582704972000045],[117.01968681900007,39.61875116700003],[116.97603024400007,39.63712439600005],[116.93971522600009,39.63189409000006],[116.92578394700001,39.63619421800007],[116.9206309540001,39.65788874100008],[116.92227754600003,39.67565769300006],[116.90120790900005,39.680328005000035],[116.88791816500009,39.691734918000066],[116.88209281600007,39.706313891000036],[116.89982320600006,39.74288966900008],[116.90976407700009,39.772726136000074],[116.91273178600011,39.80470977900006],[116.89310408100005,39.82537593500007],[116.88579100000004,39.823968396000055],[116.85653150900009,39.81833918800004],[116.82111420700005,39.823736058000065],[116.79381062300001,39.83942313800003],[116.77365354300002,39.85473510300005],[116.75348851700005,39.87004862500004],[116.75084239600005,39.920177032000026],[116.73715916900005,39.92801283600005],[116.72414201000004,39.942958685000065],[116.72510062900005,39.95362148500004],[116.73435447700001,39.97636767700004],[116.74297382300006,39.992000449000045],[116.75110944700009,40.00229938700005],[116.78139695100003,40.01861583200008],[116.82538886100008,40.02707724100003],[116.87590153200006,40.02804555700004],[116.94775014800007,40.026102664000064],[116.97226169900011,40.02443352700004],[117.21415744800004,40.084914549000075],[117.22068632600008,40.06693062200003],[117.19727326700001,40.04855135200006]]]]}},{"type":"Feature","properties":{"code":"CN013070","name":"Qinhuangdao","label":"Qinhuangdao · 秦皇岛市","type":"Prefecture-level city","parentCode":"CN-HE"},"geometry":{"type":"Polygon","coordinates":[[[119.19652187600002,40.577656828000045],[119.20535503500003,40.56522060200007],[119.19482193500005,40.52506131500007],[119.22954265600004,40.51313987700007],[119.27499962600007,40.50053550100006],[119.3200818570001,40.51633564200006],[119.39831001400012,40.52734620800004],[119.46651742100005,40.51411044900004],[119.49886910200007,40.49250307600005],[119.51606652600003,40.46477515000004],[119.53226350700004,40.43888203600005],[119.54440867200003,40.419458794000036],[119.54491112400001,40.41113244700006],[119.54727574300011,40.37224291800004],[119.5364326350001,40.32059774000004],[119.56667795800001,40.26932530300007],[119.56744096200009,40.26800755100004],[119.60218029300006,40.216941760000054],[119.64733394600012,40.19357277700004],[119.7246953240001,40.14941673000004],[119.72245033900003,40.11052539700006],[119.72697315000005,40.09589719500008],[119.7328101490001,40.077010259000076],[119.77221293900004,40.016712046000066],[119.78332660600006,40.00975709700003],[119.8066533120001,39.98512561500007],[119.8040306480001,39.97625723700003],[119.80368966200001,39.97614815600008],[119.79424365000011,39.96833923400004],[119.79423505500006,39.968321959000036],[119.78129179600012,39.96188398100003],[119.77571833400009,39.96416792800005],[119.76650151400008,39.96414500800006],[119.76873778000004,39.96100179500007],[119.77570619800008,39.95910570500007],[119.76681852200011,39.95468497400003],[119.76384615400002,39.95743621100007],[119.75843065800007,39.958889948000035],[119.7627166210001,39.95264468800008],[119.76102270900003,39.951802136000026],[119.7193800330001,39.95832187700006],[119.70693031300004,39.93886166500005],[119.70533653900009,39.93842304200007],[119.68316705900008,39.935027717000025],[119.64330229400002,39.92890379900007],[119.63314528500007,39.92820312300006],[119.61368697700004,39.92773810600005],[119.5946535710001,39.920926447000056],[119.5853166710001,39.91158569600003],[119.56671098900006,39.90631642300008],[119.55917382400003,39.900809251000055],[119.54808744700006,39.89272529800007],[119.54600462100007,39.89223540200004],[119.5202080570001,39.897148541000035],[119.4909310270001,39.875673293000034],[119.47902315500005,39.85752648300007],[119.47489873400002,39.83343137300005],[119.48435991400004,39.804482293000035],[119.47416626200004,39.80518352000007],[119.4672315470001,39.807491818000074],[119.46399665600006,39.80693848100003],[119.45279477000008,39.799476553000034],[119.43857499100011,39.796983038000064],[119.43781303100002,39.79722726000006],[119.43768960900002,39.79682778200004],[119.43158682400008,39.79575762500008],[119.4087579610001,39.79041177300007],[119.40168935100007,39.78875358000005],[119.39935155400008,39.78744756900005],[119.39602793200004,39.79069199500003],[119.39398811800004,39.790168126000026],[119.39324160400008,39.78740471700007],[119.3944048950001,39.78468411700004],[119.3757370290001,39.77425531000006],[119.3518893690001,39.75691106600004],[119.3356726720001,39.74265205700004],[119.32186488900004,39.72823983100005],[119.3078438230001,39.71202861800003],[119.30680865700003,39.711039336000056],[119.28327809000007,39.68840259900003],[119.26851587500005,39.66592214600007],[119.26206302600008,39.61130688900005],[119.25609759500003,39.60177624200003],[119.23860196600003,39.59662439300007],[119.20027666100009,39.59916466300007],[119.16308269000001,39.57004452000007],[119.19145869900001,39.575386397000045],[119.20248249800011,39.566537320000066],[119.20340025300004,39.55384218000006],[119.22183476700002,39.56705833800004],[119.2327961520001,39.57806242300006],[119.24564458200007,39.57450251600005],[119.24525257700009,39.56099622200003],[119.19627726500005,39.46228952900003],[119.21498525400011,39.457438926000066],[119.22729622200006,39.44940348200004],[119.23330841000006,39.43907560500003],[119.23738353700003,39.422565674000055],[119.23861109300003,39.412559300000055],[119.22872803400003,39.39545461700004],[119.1613657690001,39.44613127700006],[119.10218266800007,39.46402568900004],[119.09000676000005,39.46486065900007],[119.05736041900002,39.47400417600005],[119.02970409500006,39.47359858500005],[118.98432752500003,39.45370982000003],[118.95776841600002,39.462413576000074],[118.93060520100005,39.491836817000035],[118.92251492300011,39.52685966200005],[118.91474943200001,39.53887909600007],[118.90311069100005,39.544265686000074],[118.87214042300002,39.51646734800005],[118.83918332500002,39.52327442300003],[118.81947616700006,39.538386614000046],[118.80693866600006,39.562206755000034],[118.80650180600003,39.61049591700004],[118.78503750200002,39.62195709700006],[118.74395336400005,39.65372648500005],[118.73136987800001,39.677541649000034],[118.72713533400008,39.69391218100003],[118.72873830000003,39.70759273200008],[118.74326101400004,39.75260934000005],[118.77031428200007,39.79909045900007],[118.76769915500006,39.82914929000003],[118.78596389900008,39.85322933600003],[118.77785689900008,39.86296156000003],[118.80388545900007,39.91452305000007],[118.8099138020001,39.92980081400003],[118.81705507900006,39.954414394000025],[118.8154600580001,39.97646748600005],[118.81535406500007,40.01096442800008],[118.81942445900006,40.04519427400004],[118.82090742700007,40.05763876300006],[118.83838817500009,40.06274719500004],[118.87298681800007,40.069853814000055],[118.91177640600006,40.07667117500006],[118.96919608400003,40.09789611900004],[118.85566431600012,40.14798291100004],[118.81260912900007,40.16737914000004],[118.75876628700007,40.177454899000054],[118.7151962160001,40.18351716700005],[118.65243511800008,40.18916905200007],[118.58256815300001,40.21050103700003],[118.54496644500011,40.23123541700005],[118.60100670100007,40.25327952300006],[118.60798528500004,40.290484898000045],[118.61710933300003,40.330281435000074],[118.62298217200009,40.358367342000065],[118.61533750700005,40.38884673100006],[118.6208893060001,40.41924837400006],[118.66669826500004,40.44941471000004],[118.72796810500006,40.468271049000066],[118.78207967900005,40.48258968700003],[118.81465901900003,40.50726177900003],[118.87744858500002,40.50431225900007],[118.9168999420001,40.50221149500004],[118.9526789460001,40.53719938900008],[118.99490417800007,40.55189223900004],[119.04358480300004,40.56514996100003],[119.08907816600004,40.57219169700005],[119.11340128800009,40.58564676800006],[119.15018894400009,40.58083308000005],[119.19652187600002,40.577656828000045]]]}},{"type":"Feature","properties":{"code":"CN013080","name":"Shijiazhuang","label":"Shijiazhuang · 石家庄市","type":"Prefecture-level city","parentCode":"CN-HE"},"geometry":{"type":"Polygon","coordinates":[[[115.32884561300011,38.24886039800003],[115.33368308100012,38.190423612000075],[115.33827495000003,38.143915296000046],[115.34615817400004,38.117851115000065],[115.37330887300004,38.09308127500003],[115.41233862600006,38.08693120200007],[115.44507374900002,38.10233601700003],[115.46528895400002,38.050712145000034],[115.45043496700009,38.01666721000004],[115.42725163600005,37.994516987000054],[115.4041495570001,37.965947167000024],[115.394328384,37.936221346000025],[115.37945057200011,37.89347321400004],[115.36268066100001,37.86364776000005],[115.33903766900005,37.83463175800006],[115.31182999200007,37.803972729000066],[115.30907851100005,37.775254106000034],[115.30793421800001,37.737290648000055],[115.29296246000001,37.70736996000005],[115.2587518140001,37.67790867100007],[115.22769431200004,37.70017305500005],[115.20259864800005,37.728021013000046],[115.18246669400003,37.760646300000076],[115.15447930300002,37.79382067000006],[115.07659031200001,37.79160952700005],[115.06013683300012,37.75623918400004],[115.03811170200004,37.723437673000035],[114.99119256000006,37.713839731000064],[114.94337909700005,37.70793526600005],[114.91146246800008,37.69758522800004],[114.86418167000011,37.682466239000064],[114.81199876800008,37.67122907700008],[114.78649314400002,37.63626524700004],[114.77416392600003,37.60800111300006],[114.72041256800003,37.59466568200003],[114.66696085900003,37.558102836000046],[114.62670977300002,37.51607199000006],[114.53861719300005,37.53518610300006],[114.49029603100007,37.545627065000076],[114.45297246400003,37.561864238000055],[114.41417293300003,37.544935354000074],[114.3753619470001,37.53293152100008],[114.31198307900002,37.50551762200007],[114.27651235500002,37.509365468000055],[114.23648389000004,37.53618342300007],[114.19566032000012,37.54618620000008],[114.17425324500005,37.521973907000074],[114.13167714400004,37.501196753000045],[114.04442017800011,37.51312194900004],[114.07356703300002,37.54970479000008],[114.09005055500006,37.58637975100004],[114.11375973200006,37.62994333000006],[114.11914182300006,37.676610261000064],[114.09976444800009,37.699738324000066],[114.0828497010001,37.71990952500005],[114.03310565400011,37.71760612400004],[113.98084343900007,37.71004389700005],[113.96155269600001,37.718450794000034],[113.99389723800005,37.747697628000026],[114.00984961400002,37.77115448400008],[114.00954431600007,37.792359643000054],[113.99363035300007,37.79892505500004],[113.96180980400004,37.81293436000004],[113.93379979600002,37.83567624900007],[113.92668771600006,37.86057175800005],[113.90273419700009,37.89910469400007],[113.86320935800006,37.924752030000036],[113.84452273800002,37.95079069700006],[113.8290187770001,37.969689430000074],[113.83566091900002,38.02252209000005],[113.80429390200004,38.051493203000064],[113.78790286800006,38.09470431700004],[113.787398929,38.096026323000046],[113.79607340700011,38.141752945000064],[113.78015740500007,38.150944372000026],[113.7058474800001,38.15081838000003],[113.71860866600002,38.182333689000075],[113.66070506100004,38.21979661000006],[113.64768136500004,38.21300790600003],[113.57088955100005,38.210210000000075],[113.51557587200011,38.25814945900004],[113.50798252900006,38.274198316000025],[113.51447428900008,38.29437837300003],[113.50335846900009,38.34405428900004],[113.50839074600003,38.38987078400004],[113.52380300100003,38.43194764000003],[113.53333432800002,38.472374142000035],[113.52198366300001,38.52010518600008],[113.52109714500011,38.52384537700004],[113.53101657900004,38.57486570300006],[113.57466926300003,38.62166129800005],[113.60327490300006,38.637848115000054],[113.66564375400003,38.649777501000074],[113.67337726000005,38.669926202000056],[113.68986265500007,38.673104755000054],[113.75842614700002,38.724603814000034],[113.80311479400007,38.761590193000075],[113.83803514100009,38.74922119200005],[113.87395007100008,38.73196109300005],[113.90528457100004,38.715788101000044],[113.9424432620001,38.68619842600003],[113.9777667730001,38.66472280900007],[114.0278483510001,38.653732611000066],[114.06845766300012,38.65472327100008],[114.11425413300003,38.657874571000036],[114.14833643100008,38.67505288800004],[114.20920795500001,38.68244257500004],[114.24564759700002,38.69589625800006],[114.29447067100011,38.70579817600003],[114.33321020800008,38.70122606700005],[114.36518111600003,38.689685558000065],[114.40472044800003,38.675414491000026],[114.44473210000001,38.66082290200006],[114.48687928700008,38.64337681500007],[114.51816605600004,38.630066268000064],[114.56175033600005,38.58704222100005],[114.56810592500005,38.55557846800008],[114.56716558200003,38.53999419500008],[114.57482260800009,38.53035586900006],[114.58249474600007,38.52070989200007],[114.59015171600004,38.51106839100004],[114.59779362300003,38.501426940000044],[114.6052703260001,38.488670514000034],[114.61273913500008,38.475909485000045],[114.62056909300009,38.46938248200007],[114.6284066930001,38.46285913300005],[114.71058378800001,38.47654453500007],[114.75060304800002,38.48155158700007],[114.82474733900006,38.49821062700005],[114.85597266800005,38.43580805300007],[114.86335418100009,38.407973525000045],[114.88094706900006,38.368203083000026],[114.88152728000011,38.32695180400003],[114.8830848240001,38.272894465000036],[114.934740325,38.25613912600005],[114.98565471000006,38.251838253000074],[115.02363320200004,38.24586241800006],[115.07579013400004,38.250623404000066],[115.12793157300007,38.25536000000005],[115.15762647300005,38.27128798000007],[115.215164404,38.29313253400005],[115.25883246400008,38.26984639800003],[115.27850147000004,38.24502280000007],[115.32884561300011,38.24886039800003]]]}},{"type":"Feature","properties":{"code":"CN013090","name":"Tangshan","label":"Tangshan · 唐山市","type":"Prefecture-level city","parentCode":"CN-HE"},"geometry":{"type":"MultiPolygon","coordinates":[[[[118.3696651460001,40.39315907200006],[118.40415129400003,40.38052123400007],[118.46420951300001,40.38071710300005],[118.50260937900009,40.37052816900007],[118.52993069200011,40.34366757200007],[118.52072779800005,40.30755576900003],[118.52762090300007,40.25599080200004],[118.54496644500011,40.23123541700005],[118.58256815300001,40.21050103700003],[118.65243511800008,40.18916905200007],[118.7151962160001,40.18351716700005],[118.75876628700007,40.177454899000054],[118.81260912900007,40.16737914000004],[118.85566431600012,40.14798291100004],[118.96919608400003,40.09789611900004],[118.91177640600006,40.07667117500006],[118.87298681800007,40.069853814000055],[118.83838817500009,40.06274719500004],[118.82090742700007,40.05763876300006],[118.81942445900006,40.04519427400004],[118.81535406500007,40.01096442800008],[118.8154600580001,39.97646748600005],[118.81705507900006,39.954414394000025],[118.8099138020001,39.92980081400003],[118.80388545900007,39.91452305000007],[118.77785689900008,39.86296156000003],[118.78596389900008,39.85322933600003],[118.76769915500006,39.82914929000003],[118.77031428200007,39.79909045900007],[118.74326101400004,39.75260934000005],[118.72873830000003,39.70759273200008],[118.72713533400008,39.69391218100003],[118.73136987800001,39.677541649000034],[118.74395336400005,39.65372648500005],[118.78503750200002,39.62195709700006],[118.80650180600003,39.61049591700004],[118.80693866600006,39.562206755000034],[118.81947616700006,39.538386614000046],[118.83918332500002,39.52327442300003],[118.87214042300002,39.51646734800005],[118.90311069100005,39.544265686000074],[118.91474943200001,39.53887909600007],[118.92251492300011,39.52685966200005],[118.93060520100005,39.491836817000035],[118.95776841600002,39.462413576000074],[118.98432752500003,39.45370982000003],[119.02970409500006,39.47359858500005],[119.05736041900002,39.47400417600005],[119.09000676000005,39.46486065900007],[119.10218266800007,39.46402568900004],[119.1613657690001,39.44613127700006],[119.22872803400003,39.39545461700004],[119.21984450200011,39.385840819000066],[119.20222065000007,39.379882777000034],[119.19988157000012,39.38091514400003],[119.1926816460001,39.38846867900003],[119.18890324100005,39.38765995700004],[119.19035674700001,39.38120440600005],[119.17750803600006,39.38413550700005],[119.15284905900012,39.38937729100007],[119.1411144860001,39.39195512400005],[119.12704851500007,39.384765267000034],[119.1268826160001,39.37304531800004],[119.12371896200011,39.35611386000005],[119.11598362600012,39.34128914300004],[119.09897389600008,39.31895028100007],[119.08196390300009,39.29661471500003],[119.06879922700011,39.28665367100007],[119.05734504500003,39.28108646800007],[119.03406535400006,39.277196641000046],[119.02885001700008,39.263102384000035],[119.02011602300001,39.239323297000055],[119.0148027250001,39.224329899000054],[118.99318996700003,39.20319552500007],[118.96642138000004,39.189595747000055],[118.95222287000001,39.183920003000026],[118.92884814000001,39.18151752000006],[118.92422244300008,39.18037829900004],[118.91399371200009,39.18215649900003],[118.88549073200011,39.17406809900007],[118.85639598900002,39.156659114000036],[118.85053300400011,39.15748175700003],[118.84451178500001,39.15938405600008],[118.83600651900008,39.16206921200006],[118.83455466600003,39.16921085900003],[118.81113774900007,39.17431243900006],[118.80081298700009,39.15693267900008],[118.79047900800003,39.15036915500008],[118.77675197300005,39.14642816500003],[118.74073661800003,39.14304261900003],[118.72818013400001,39.14280360400005],[118.71681872600004,39.14582894700004],[118.700248095,39.15232819600004],[118.69608333700012,39.15783209400007],[118.69129321000003,39.16414799000006],[118.6877603690001,39.19311466900007],[118.68554047400005,39.19578312700003],[118.68286874300009,39.19614328700004],[118.68103847500004,39.192410720000055],[118.6829375000001,39.18537777900008],[118.68096316900005,39.174307773000066],[118.67115044900004,39.18082011900003],[118.65590586200005,39.18461489500004],[118.62516785100001,39.18691991900005],[118.61592156300003,39.19368110200003],[118.61084658300001,39.19005331000005],[118.60379072300009,39.185210796000035],[118.58158195300007,39.17796830800006],[118.56014261600001,39.16799842700004],[118.5518720340001,39.16583091900003],[118.54276981100008,39.163450589000036],[118.53417836000006,39.155104702000074],[118.5285565910001,39.15558273200003],[118.526264448,39.15197360500008],[118.510754012,39.14708458600006],[118.4680571780001,39.12896241000004],[118.42757160100007,39.10888851500005],[118.4055281300001,39.09310183300005],[118.38972940600001,39.07963407700004],[118.37870809000003,39.06587787500007],[118.36842802600006,39.05928590000008],[118.31617809300008,39.038547949000076],[118.31115097200006,39.039693095000075],[118.29258636500003,39.04841878700006],[118.29621088400006,39.05239364300007],[118.2954414510001,39.05511448800007],[118.29004560100009,39.05673193300004],[118.28534715100011,39.06112915800003],[118.28079931400009,39.05888634400003],[118.27501711000002,39.06186257500008],[118.27172001000008,39.053939057000036],[118.26531243800002,39.06193460700007],[118.26448734400003,39.06557222200007],[118.262093918,39.066161574000034],[118.25726450100001,39.072611711000036],[118.24317242600011,39.08557091900008],[118.23132316400006,39.09563902600007],[118.19644004000008,39.13342307500005],[118.18579240300005,39.15178140800003],[118.16252934700003,39.18246375800004],[118.15348933300004,39.189365732000056],[118.13831350400005,39.20095305800004],[118.096846002,39.21735670500004],[118.07286917400006,39.22346960100003],[118.06545315400001,39.22782753600006],[118.03349387300011,39.226740508000034],[118.01724744600006,39.22467116400003],[118.02628962500012,39.23980083200007],[118.02011695100009,39.26044267900005],[118.01822157600009,39.266797145000055],[118.0143568960001,39.28826117600005],[118.01088934400002,39.32651937600008],[118.00164095500008,39.35359141600003],[117.97808728100006,39.36725356800008],[117.92041480600005,39.38274325500004],[117.87243627100008,39.375552957000025],[117.84202853900001,39.36653419500004],[117.84662179700001,39.37780622100007],[117.85321840600011,39.39782003100004],[117.86029133200009,39.42312592600007],[117.87828424100007,39.46379106200004],[117.88548676800008,39.51564470900007],[117.88306587300008,39.54063595100007],[117.88096011700009,39.56307027400004],[117.85122820400011,39.57555704500004],[117.79500763600004,39.586028930000055],[117.75064224000005,39.59578616400006],[117.70736148100002,39.592960395000034],[117.70021432100009,39.54692827700006],[117.69163924000009,39.533140348000074],[117.67101966500002,39.51826413300006],[117.65988189600012,39.526053915000034],[117.68269413000007,39.56223553600006],[117.6658054940001,39.56810142300003],[117.60711562100005,39.57018341100007],[117.59815846100003,39.57605390300006],[117.59449246700001,39.58698405000007],[117.59539913700007,39.59585901100007],[117.61765879600011,39.626733640000054],[117.62586049400011,39.66020100000003],[117.6178098800001,39.67495258900004],[117.58251498900006,39.680555678000076],[117.56220015500003,39.69243348100008],[117.55394597000009,39.705408533000025],[117.55264965300012,39.71619820900003],[117.55628920900006,39.72849462100004],[117.55647052100005,39.73027248000005],[117.54692650900006,39.74565030400004],[117.54937599700008,39.75969673700007],[117.54818771400005,39.78632199800006],[117.51169804100005,39.81737082600006],[117.49388982100004,39.858106544000066],[117.49190126500002,39.875915605000046],[117.49472024600004,39.89437203700004],[117.48568432200011,39.91341788900007],[117.48755649600002,39.934577741000055],[117.50238589000003,39.967490551000026],[117.64071651500001,39.95520755900003],[117.70900835100008,39.93311666300008],[117.76560691300006,39.92665381300003],[117.77534223300006,39.94632911400004],[117.7725298360001,39.96612655300004],[117.75856865000003,39.970520374000046],[117.73820831600005,39.98242750500003],[117.7327163430001,39.99882898900006],[117.74945193700012,40.021083014000055],[117.73698754300005,40.03968031800008],[117.7018875770001,40.04886915000003],[117.65686194800003,40.055038040000056],[117.62303176600005,40.07664049600004],[117.59890247100009,40.12269266200008],[117.57477190300006,40.169988104000026],[117.64661288100001,40.19425397500004],[117.70560946100011,40.20817770700006],[117.74659531800012,40.22147343900008],[117.78351667600009,40.23043967700005],[117.81940499300003,40.23533209300007],[117.86123644700001,40.239798224000026],[117.9132422670001,40.24952718600008],[117.95419865600002,40.26184153400004],[117.99459782300005,40.274644022000075],[118.03026991500008,40.29282726300005],[118.06379966500003,40.30288002300006],[118.10211823800012,40.30753111300004],[118.10111500400001,40.34023690600003],[118.13920573000007,40.36329045200006],[118.17226689000006,40.40462007700006],[118.21205100800012,40.40592023500005],[118.24880286500002,40.417080457000054],[118.30852191300005,40.41415676400004],[118.3696651460001,40.39315907200006]]],[[[118.9158969,39.12853119300007],[118.88374302200009,39.122680487000025],[118.88102872600007,39.123728225000036],[118.88435202000005,39.127280711000026],[118.89980942800003,39.12942530000004],[118.92833736800003,39.13934934300005],[118.94127101400011,39.15089215000006],[118.94560932800005,39.14818699500006],[118.93149138400008,39.140079541000034],[118.91967417700005,39.13092655100007],[118.9158969,39.12853119300007]]],[[[118.84564549700008,39.10664342100006],[118.84137252700009,39.10620309500007],[118.84319545800008,39.11072035500007],[118.85192125700007,39.11881367900003],[118.85458316600011,39.11867943800007],[118.84958021700004,39.10865062100004],[118.84702308200008,39.10718378800004],[118.84564549700008,39.10664342100006]]]]}},{"type":"Feature","properties":{"code":"CN013100","name":"Xingtai","label":"Xingtai · 邢台市","type":"Prefecture-level city","parentCode":"CN-HE"},"geometry":{"type":"Polygon","coordinates":[[[115.2587518140001,37.67790867100007],[115.21999638000011,37.64330738500007],[115.18630168400011,37.617075267000075],[115.17866923700001,37.58402932800004],[115.20490014200004,37.55658600900006],[115.24086627100007,37.55154166700004],[115.28797581200001,37.54133770300007],[115.34549998600005,37.53194342900008],[115.38948003500002,37.519113263000065],[115.41856174100008,37.49971962600006],[115.41632658600008,37.46318751900003],[115.3889728040001,37.44446658500004],[115.37890548900009,37.407127252000066],[115.40096198900005,37.36779019200003],[115.44935995100002,37.34645549900006],[115.50708057400004,37.31910604800004],[115.56892190300005,37.33427142000005],[115.57958480000002,37.30895354300003],[115.61304479500006,37.263001521000035],[115.64363368300008,37.23568118900005],[115.68066691500007,37.210285431000045],[115.73389349000001,37.21163733800006],[115.75208120900004,37.170151254000075],[115.78159944800007,37.13780556800003],[115.81268313600003,37.11086930700003],[115.84184168500008,37.08062492100004],[115.82965985900012,37.048523755000076],[115.80167899300011,37.022160873000075],[115.75032185900011,36.98680174300006],[115.74336473900007,36.93687408400007],[115.72589126700007,36.92007346300005],[115.69116329100007,36.88897119500007],[115.66597680900009,36.85492240900004],[115.66110981200006,36.83253283700003],[115.66701252000007,36.82473477100007],[115.65226481800005,36.80026863000006],[115.63162151000006,36.78359981300008],[115.55880589200001,36.76168076600004],[115.52348003500003,36.76572483100006],[115.49084983400007,36.76211200900008],[115.46736812600011,36.750561395000034],[115.45950450200007,36.73080542800005],[115.42578269900002,36.70892592800004],[115.41613650300008,36.71983117000008],[115.38736494800003,36.75232878200006],[115.3276791400001,36.77891412500003],[115.27634060100002,36.84060069800006],[115.2154391040001,36.86267514100007],[115.16924508800003,36.86077468700006],[115.1078544400001,36.90524844500004],[115.06705826600012,36.95022884500003],[115.01073183300002,36.94663269700004],[114.95444232800003,36.95506243300008],[114.85269247200006,36.94813418800004],[114.77860745200007,36.93187328400006],[114.7299157870001,36.91739610800005],[114.68979540400005,36.90359101200005],[114.64539325400006,36.91040344700008],[114.60928569000009,36.87898125800007],[114.57417786000008,36.86642053500003],[114.52269163100004,36.839037596000026],[114.48815572400008,36.82596726600008],[114.4498388510001,36.82496963700004],[114.4014319900001,36.82715896000008],[114.35428893100004,36.83110752700003],[114.30616062900003,36.83782621100005],[114.2694537750001,36.84448527400008],[114.22558795000009,36.84641120500004],[114.170190821,36.842833005000045],[114.11587989500003,36.833382447000076],[114.0797003780001,36.858250525000074],[114.04551270200011,36.88970270100003],[113.99885853900003,36.91230310000003],[113.95994990100007,36.93928621200007],[113.92872195100006,36.96549844000003],[113.89543297900002,36.98710474600006],[113.82993493800006,37.02160896500004],[113.73799097200003,37.013875367000026],[113.72425372700002,37.03429078200003],[113.72624798600009,37.058088499000064],[113.72912382200002,37.07392030900007],[113.73054296200007,37.08183453200007],[113.74749975100008,37.138852917000065],[113.76273928900002,37.148223588000064],[113.79476444300008,37.17751949500007],[113.82288289900009,37.22455508500008],[113.85815897100008,37.27760316400003],[113.85939995600006,37.31024558800004],[113.88778507200004,37.31599717100005],[113.89064944500001,37.316580498000064],[113.94148701800009,37.32420757500006],[113.93256081800007,37.36062389400007],[113.93500638300009,37.38155309000007],[113.93773214500004,37.404652415000044],[113.96835555400003,37.42334712300004],[113.99823212000001,37.451764351000065],[114.00138356600007,37.45599062800005],[114.03838390100009,37.505532052000035],[114.04442017800011,37.51312194900004],[114.13167714400004,37.501196753000045],[114.17425324500005,37.521973907000074],[114.19566032000012,37.54618620000008],[114.23648389000004,37.53618342300007],[114.27651235500002,37.509365468000055],[114.31198307900002,37.50551762200007],[114.3753619470001,37.53293152100008],[114.41417293300003,37.544935354000074],[114.45297246400003,37.561864238000055],[114.49029603100007,37.545627065000076],[114.53861719300005,37.53518610300006],[114.62670977300002,37.51607199000006],[114.66696085900003,37.558102836000046],[114.72041256800003,37.59466568200003],[114.77416392600003,37.60800111300006],[114.78649314400002,37.63626524700004],[114.81199876800008,37.67122907700008],[114.86418167000011,37.682466239000064],[114.91146246800008,37.69758522800004],[114.94337909700005,37.70793526600005],[114.99119256000006,37.713839731000064],[115.03811170200004,37.723437673000035],[115.06013683300012,37.75623918400004],[115.07659031200001,37.79160952700005],[115.15447930300002,37.79382067000006],[115.18246669400003,37.760646300000076],[115.20259864800005,37.728021013000046],[115.22769431200004,37.70017305500005],[115.2587518140001,37.67790867100007]]]}},{"type":"Feature","properties":{"code":"CN013110","name":"Zhangjiakou","label":"Zhangjiakou · 张家口市","type":"Prefecture-level city","parentCode":"CN-HE"},"geometry":{"type":"Polygon","coordinates":[[[114.81449781300012,42.13576776900004],[114.83463161000009,42.112453103000064],[114.85111620400005,42.10626166800006],[114.85210050900002,42.05989548500003],[114.85606546700001,42.01988466200004],[114.88706781700012,41.98263050400004],[114.90254041700007,41.929871208000066],[114.90627225500009,41.886326075000056],[114.91390151300004,41.847105586000055],[114.89869830400005,41.814759379000066],[114.87118535800005,41.780120425000064],[114.86838346900004,41.750957251000045],[114.87744518300008,41.69309848300003],[114.86722760700002,41.63934609800003],[114.86176226100008,41.605841386000066],[114.83978701600006,41.58167752500003],[114.84886729200002,41.58337253800005],[114.94671649300005,41.60154717700004],[114.99088852600005,41.58603818300003],[115.06276396600003,41.58738097400004],[115.09324364500003,41.60947458000004],[115.13889695000012,41.59918808400005],[115.20030921600005,41.56711490600003],[115.23280440700012,41.60240621400004],[115.2744851650001,41.586881324000046],[115.30559270600008,41.577893320000044],[115.34123648800005,41.58381461100004],[115.35413291700002,41.59579971800008],[115.30900212800009,41.65487766800004],[115.28177474600011,41.68855862600003],[115.31813106800007,41.72548329400007],[115.36303915200006,41.722233774000074],[115.41345668700001,41.709037616000046],[115.4619892280001,41.74463397900007],[115.49794817600002,41.77355320800007],[115.54755921600008,41.786043033000055],[115.59404714000004,41.80659978800003],[115.6657208800001,41.83867585300004],[115.70717472500007,41.874446445000046],[115.78733818800004,41.90350261200007],[115.83926315000008,41.91805360300003],[115.89147693300004,41.924539691000064],[115.92093690600007,41.90006652400007],[115.9238648170001,41.89762853600007],[115.94794468700002,41.85682821300003],[115.97851045400012,41.82198241000003],[115.98310755800003,41.782798021000076],[116.03141743300012,41.75717779300004],[116.00740726200002,41.698521166000035],[115.96891067400009,41.670261614000026],[115.90782259500008,41.63446474500006],[115.886504263,41.59975781900005],[115.906480826,41.563754276000054],[115.93700391400012,41.516153504000044],[115.9467849670001,41.482076120000045],[115.95949390300007,41.45381630700007],[115.9844216030001,41.419376689000046],[116.01569288000007,41.38826549300006],[116.03757989500002,41.35444961800005],[116.0862106190001,41.354995288000055],[116.1295782520001,41.34433262300007],[116.16552265100006,41.31890161700005],[116.17298498900004,41.287696537000045],[116.17574333900006,41.25123720400006],[116.18562077100012,41.21989652700006],[116.19871163000005,41.19067265000007],[116.20409990600001,41.14350753400004],[116.22126075500012,41.112679824000054],[116.23588714800007,41.08750792200004],[116.2449004340001,41.06035337600008],[116.25443004500005,41.02581507700006],[116.25891242000012,40.99569774400004],[116.28675590300008,40.96335082100006],[116.32389957700002,40.90645104600003],[116.31165789200008,40.91303158800008],[116.29697143500005,40.910080728000025],[116.29952735200004,40.87898128900008],[116.36483386300006,40.800156575000074],[116.39379821200009,40.78480031700008],[116.429886968,40.76825314600006],[116.45433743600006,40.73937257400007],[116.39440099600006,40.737853716000075],[116.31536102100006,40.74874682600006],[116.3007261780001,40.747646529000065],[116.28501971500009,40.73408994000005],[116.27506412800005,40.73098386200007],[116.24881322300007,40.73578139600005],[116.23493306400007,40.743575848000035],[116.20808593900006,40.74124436000005],[116.19059089000007,40.734913273000075],[116.15864240300004,40.70065666000005],[116.1291476880001,40.66628296400006],[116.1029661870001,40.64247307100004],[116.07710168800008,40.62222523300005],[116.06029465100005,40.59440836400006],[116.03714672900003,40.57759432800003],[116.00512335600001,40.57010502600008],[115.94971625700009,40.57257462700005],[115.89756174600006,40.585603441000046],[115.83790735600007,40.56500240500003],[115.81100831300012,40.56081496300004],[115.79598937300011,40.554325352000035],[115.76525435500002,40.53600954900003],[115.73343659800003,40.51904245500003],[115.70813544000009,40.49871747800006],[115.71131016100003,40.47381834500004],[115.73618976000012,40.450792603000025],[115.74681979000002,40.43004757400007],[115.77444461400012,40.39451979300003],[115.84574831500004,40.350291809000055],[115.89590357500003,40.29532003600008],[115.92746920400009,40.266689573000065],[115.92389822900009,40.235706443000026],[115.9216894760001,40.21647169500005],[115.85832976100005,40.17991249600004],[115.85359678500004,40.14469528400008],[115.84847725500003,40.14380298900005],[115.79081016800001,40.13375030200007],[115.7370588550001,40.114492072000075],[115.67432582800006,40.122075531000064],[115.6039416210001,40.103358600000035],[115.56214524000006,40.06414134200003],[115.541624737,40.04901885400005],[115.52092078300007,40.033737389000066],[115.44931149900003,40.03179423900008],[115.40782419600009,40.015525353000044],[115.40417710800011,39.97495786700006],[115.4223634440001,39.93729999300007],[115.37192837900011,39.867803894000076],[115.34659752300001,39.81772672300008],[115.32394080000006,39.78630999600006],[115.28470938300006,39.74013881900004],[115.2558196760001,39.71957416300006],[115.21246941700008,39.68825930000003],[115.1798723490001,39.67290797900006],[115.13192938300006,39.65875688400007],[115.07901564200006,39.648966554000026],[115.01109230800012,39.676992892000044],[114.98347357700004,39.64806447600006],[114.9417668420001,39.62896983700006],[114.89904020300003,39.62825190900003],[114.85666613500007,39.62427835600005],[114.82641546700006,39.59911199900006],[114.78963993000002,39.606783301000064],[114.74699883000005,39.63259265100004],[114.71047028600003,39.63563956000007],[114.67220279500009,39.62226659400005],[114.6353711270001,39.59506387500005],[114.60123992700005,39.56361769000006],[114.56909556800008,39.54351660100008],[114.49763989500002,39.53883545600007],[114.50190356400003,39.55264375100006],[114.48269609800002,39.57173656400005],[114.4485249380001,39.600059427000076],[114.39405451400012,39.641130100000055],[114.3901663370001,39.64405357700008],[114.36199130000011,39.70137338600006],[114.36777920800012,39.72420222400007],[114.3949828320001,39.748235358000045],[114.39863625800001,39.80117618200006],[114.36926410000001,39.85941950200004],[114.343161097,39.860104438000064],[114.26185927900008,39.848942513000054],[114.18171825800005,39.86333747300006],[114.12997474600002,39.87611101500005],[114.08955091700011,39.89157120700003],[114.06331832100011,39.90159367100006],[114.00534715900005,39.937453307000055],[113.98252449400002,39.96097477700005],[113.957989526,39.991682688000026],[113.90441871200005,39.99326905800007],[113.92194226700008,40.02249204300006],[113.93966642500004,40.04860762700008],[113.94989231500006,40.09522609600003],[114.0251797620001,40.07136604300007],[114.03767875200003,40.05691960100006],[114.06300656700012,40.06427529500007],[114.06921891000002,40.09860776700003],[114.04915443200002,40.131799159000025],[114.06205516800003,40.167790826000044],[114.06266334000009,40.169499848000044],[114.0987194600001,40.17570333000003],[114.17073412700006,40.18543573800008],[114.20058638800003,40.21299141900005],[114.24239910200004,40.21371262300005],[114.25539943000001,40.21072827100005],[114.32233132400006,40.21255102900005],[114.36776458400004,40.23966775100007],[114.4221536450001,40.253270247000046],[114.47731407600008,40.282746031000045],[114.4900176640001,40.29831928200008],[114.47475846900011,40.30565612700008],[114.47248724000008,40.306751477000034],[114.45014196700004,40.31442927000006],[114.38586357000008,40.32055997500004],[114.32912097200006,40.334426215000065],[114.2893787480001,40.354900454000074],[114.27687237400005,40.36937023100006],[114.26845677400001,40.42176690200006],[114.25805929300009,40.45652973400007],[114.24950100300009,40.50627475600004],[114.2350292530001,40.55795052000008],[114.22018228400009,40.60166566800007],[114.19725985200012,40.62612416800005],[114.16433292300007,40.64197319300007],[114.15032959100006,40.65116572300008],[114.1304266510001,40.66314937400006],[114.07972819500003,40.759349057000065],[113.91883605400005,41.01496287500004],[113.82452813700002,41.071935360000055],[113.8689405660001,41.12582744600007],[113.88308709600005,41.14675714800006],[113.94307180100009,41.16487577200007],[113.97891897400007,41.18352874300007],[114.00732540500007,41.22624484100004],[113.9483929050001,41.235566884000036],[113.91369389600004,41.27530352900004],[113.91405011600011,41.27808279000004],[113.91897901700008,41.31591301100008],[113.94757972600007,41.36307503900008],[113.89534447500012,41.390814609000074],[113.86036144700006,41.39601924900006],[113.90941554000005,41.43831021400007],[113.9595245810001,41.47613820500004],[114.02649003900001,41.53747539600005],[114.08701976400005,41.531628298000044],[114.17401503300005,41.519793666000055],[114.19344159100001,41.50315378400006],[114.22675988800006,41.511439245000076],[114.18825391300004,41.59384077100003],[114.17312536000009,41.664186775000076],[114.16707822700005,41.716501538000045],[114.16697084200007,41.717490112000064],[114.17863756400004,41.760613775000024],[114.19473207600004,41.82047068600008],[114.21404990300005,41.843035738000026],[114.28328366000005,41.91487303700006],[114.31950479200009,41.93168247700004],[114.38548497200009,41.930881611000075],[114.44855696200011,41.94607995500007],[114.48544557700006,41.975241897000046],[114.465664962,41.996154595000064],[114.45454636200009,42.044315288000064],[114.46487013100011,42.080390298000054],[114.518655394,42.10289064600005],[114.57710059700003,42.11994312100006],[114.6260308950001,42.11771939600004],[114.6956930660001,42.11401082700007],[114.72694786600005,42.10249696500006],[114.76121037500002,42.10152278700008],[114.76789434500006,42.13502761900003],[114.80744613900004,42.14098746900004],[114.81449781300012,42.13576776900004]]]}}]}
