{"type":"FeatureCollection","name":"admin2_chn_cn-ha","adm0A3":"CHN","parentCode":"CN-HA","parentName":"Henan","bbox":[110.33163819200007,31.377352770000073,116.6186449270001,36.34328676600006],"features":[{"type":"Feature","properties":{"code":"CN041010","name":"Anyang","label":"Anyang · 安阳市","type":"Prefecture-level city","parentCode":"CN-HA"},"geometry":{"type":"Polygon","coordinates":[[[114.98015042600002,36.060132993000025],[114.97247597800003,35.99958386600008],[114.9872648170001,35.96860771400003],[114.98355239800003,35.93947753400005],[114.9706131580001,35.899351043000024],[114.96894470600012,35.86736111600004],[114.96983372400007,35.83937399200005],[114.97067676900008,35.81092563400006],[114.95708732000003,35.78548604500003],[114.9320999680001,35.75833426600008],[114.90643632700005,35.72891528800005],[114.89835695400006,35.70137058300003],[114.90326757000003,35.67454959500003],[114.90752556900009,35.623151120000045],[114.90991452100002,35.60686774000004],[114.92761790300005,35.56978596600004],[114.93285848800008,35.53974029400007],[114.92429808800011,35.51313272600004],[114.92084076700007,35.47894473000008],[114.94176969400007,35.44856959500004],[114.95228658300005,35.413669095000046],[114.93505795300007,35.38337369900006],[114.86543312100002,35.381807657000024],[114.8294090060001,35.37121882800005],[114.78845181800011,35.35398972400003],[114.7418496250001,35.335649114000034],[114.70244275300001,35.32427437500007],[114.66884583000001,35.307109205000074],[114.63612780400001,35.28622540500004],[114.58401515600008,35.25938507400008],[114.54032194700005,35.23212724500007],[114.50910893700006,35.21618929300007],[114.46393222200004,35.21830046100007],[114.4270488730001,35.23695970800003],[114.37885545900008,35.25954202200006],[114.37837665300003,35.301048294000054],[114.383687828,35.33287175500004],[114.3916445110001,35.36228399100003],[114.40091003900011,35.39438095300005],[114.41521939000006,35.42625035300006],[114.37375356900009,35.48174655300005],[114.38446917500005,35.51011566600005],[114.41088885600004,35.537761544000034],[114.44173497400004,35.55512560100004],[114.47583577600005,35.57049150600005],[114.5090721150001,35.580399073000024],[114.55032198700007,35.59312648300005],[114.58531257900006,35.62125663200004],[114.61550768900008,35.65372202200007],[114.64211573900002,35.67352805400003],[114.68781645100012,35.684166392000066],[114.72318934200007,35.699874530000045],[114.72698397500005,35.73175519900008],[114.71814816500012,35.76012792300003],[114.68966131100001,35.78944175100003],[114.6511970570001,35.81326728600004],[114.62792997200006,35.862928976000035],[114.55362195200007,35.84765194600004],[114.50491900300005,35.82656453300007],[114.46474277200002,35.81514479200007],[114.42075567800009,35.805721178000056],[114.37793371500004,35.79668465800006],[114.32371478300001,35.78539724700005],[114.28051640400008,35.78052398300008],[114.2335928980001,35.78575988400007],[114.22445457700007,35.82143019200004],[114.24362761700002,35.849889319000056],[114.27124322000009,35.87751288100003],[114.29600288000006,35.91395815300007],[114.28907500000003,35.94861350700006],[114.25933618300007,35.970546840000054],[114.21948586300005,35.99337551900004],[114.20026550800003,36.03131287600007],[114.13460279300011,36.051544222000075],[114.09659499600002,36.02319715500005],[114.08106336500009,35.995939028000066],[114.06312937000007,35.97178563600005],[114.02364207700009,35.976887083000065],[113.97713322700008,35.97747404000006],[113.99829070800001,35.93713277100005],[114.03705215900004,35.92387942900007],[114.05267409600003,35.89916649300005],[114.03899332600008,35.872825919000036],[114.01983238900004,35.849148393000064],[114.05044532500006,35.79798096500008],[114.02991342500002,35.77293041300004],[113.99710911800003,35.74525387400007],[113.97472771200012,35.71763803500005],[113.9375359710001,35.70904248700003],[113.89966254500007,35.694615690000035],[113.85444346200006,35.69205593800007],[113.77617222000003,35.677576775000034],[113.75208897200002,35.69679247600004],[113.75501483700009,35.728770277000024],[113.75260945200012,35.757809363000035],[113.74328984100009,35.791875203000075],[113.70708005600011,35.80603984000004],[113.66791415800003,35.81996796100003],[113.62246071200002,35.82533910800004],[113.63085393300003,35.83004389400003],[113.6222054430001,35.87351195900004],[113.60508106500004,35.90038358600003],[113.60452620000001,35.93094458500008],[113.60428841700002,35.94367637400006],[113.62418302600008,35.964442647000055],[113.63100887300004,35.966057887000034],[113.65849894400003,35.97781707900003],[113.64695308900002,36.00280083800004],[113.62074673200004,36.028990382000075],[113.65368854000008,36.067127440000036],[113.63291161900008,36.08701776500004],[113.65226134800002,36.12368532700003],[113.64062544100011,36.146899338000026],[113.6482054810001,36.16969761000007],[113.6503113340001,36.197909597000034],[113.65082552100012,36.24559140900004],[113.66359650900006,36.28681289700006],[113.6962644460001,36.31346891700008],[113.70676590100004,36.33207692900004],[113.76363712900002,36.31031947100007],[113.7962262100001,36.31938465500008],[113.81623176400001,36.33384323700005],[113.83599719100005,36.34328676600006],[113.86726482300003,36.32476425700003],[113.89245450900012,36.31395096500006],[113.90826122200008,36.30844431700007],[113.93086637700003,36.31025514000004],[113.94138400100007,36.32749774300004],[113.95447798400005,36.33210901100006],[114.00497753100001,36.31295370600003],[114.05519131400001,36.288762320000046],[114.06842093300008,36.295866423000064],[114.08460283400007,36.29785626700004],[114.13169829600008,36.27624522800005],[114.16273165000007,36.25514310400007],[114.2072504460001,36.24613881800008],[114.25148301900003,36.23210781500006],[114.36821440800009,36.21677650600003],[114.43493551000006,36.17649128200003],[114.48488047100011,36.154762160000075],[114.54708996500005,36.10526322100003],[114.607938923,36.12468795500007],[114.66182706400002,36.13987107300005],[114.72384532900003,36.11237750200007],[114.73423596000009,36.11497627600005],[114.77423024200004,36.12496867100003],[114.88088805600012,36.13135327200007],[114.90327967500002,36.05995700400007],[114.93609611800002,36.03858433600004],[114.98015042600002,36.060132993000025]]]}},{"type":"Feature","properties":{"code":"CN041020","name":"Hebi","label":"Hebi · 鹤壁市","type":"Prefecture-level city","parentCode":"CN-HA"},"geometry":{"type":"Polygon","coordinates":[[[114.37375356900009,35.48174655300005],[114.31905940900003,35.463819354000066],[114.25354710400006,35.47546242800007],[114.25573032200009,35.50239307800007],[114.22067306100007,35.50284009000006],[114.18871798800001,35.512956150000036],[114.1449291020001,35.534747492000065],[114.11411204400008,35.55195001200008],[114.05530279900006,35.56652777000005],[114.02642637100007,35.58660571400003],[114.00478234100001,35.626085483000054],[114.0024945770001,35.66105614700007],[114.0059118690001,35.68815891600008],[113.97472771200012,35.71763803500005],[113.99710911800003,35.74525387400007],[114.02991342500002,35.77293041300004],[114.05044532500006,35.79798096500008],[114.01983238900004,35.849148393000064],[114.03899332600008,35.872825919000036],[114.05267409600003,35.89916649300005],[114.03705215900004,35.92387942900007],[113.99829070800001,35.93713277100005],[113.97713322700008,35.97747404000006],[114.02364207700009,35.976887083000065],[114.06312937000007,35.97178563600005],[114.08106336500009,35.995939028000066],[114.09659499600002,36.02319715500005],[114.13460279300011,36.051544222000075],[114.20026550800003,36.03131287600007],[114.21948586300005,35.99337551900004],[114.25933618300007,35.970546840000054],[114.28907500000003,35.94861350700006],[114.29600288000006,35.91395815300007],[114.27124322000009,35.87751288100003],[114.24362761700002,35.849889319000056],[114.22445457700007,35.82143019200004],[114.2335928980001,35.78575988400007],[114.28051640400008,35.78052398300008],[114.32371478300001,35.78539724700005],[114.37793371500004,35.79668465800006],[114.42075567800009,35.805721178000056],[114.46474277200002,35.81514479200007],[114.50491900300005,35.82656453300007],[114.55362195200007,35.84765194600004],[114.62792997200006,35.862928976000035],[114.6511970570001,35.81326728600004],[114.68966131100001,35.78944175100003],[114.71814816500012,35.76012792300003],[114.72698397500005,35.73175519900008],[114.72318934200007,35.699874530000045],[114.68781645100012,35.684166392000066],[114.64211573900002,35.67352805400003],[114.61550768900008,35.65372202200007],[114.58531257900006,35.62125663200004],[114.55032198700007,35.59312648300005],[114.5090721150001,35.580399073000024],[114.47583577600005,35.57049150600005],[114.44173497400004,35.55512560100004],[114.41088885600004,35.537761544000034],[114.38446917500005,35.51011566600005],[114.37375356900009,35.48174655300005]]]}},{"type":"Feature","properties":{"code":"CN041030","name":"Jiaozuo","label":"Jiaozuo · 焦作市","type":"Prefecture-level city","parentCode":"CN-HA"},"geometry":{"type":"Polygon","coordinates":[[[113.55321790100004,34.92807990600005],[113.46877316100006,34.948043736000045],[113.36808991700002,34.95835082700006],[113.32369418700011,34.95452252300004],[113.24620155800005,34.91388302300004],[113.16878538000003,34.87318777200005],[113.10750971200002,34.839582509000024],[113.0882982600001,34.83253076500006],[113.04359644400006,34.81856849700006],[112.90160841000011,34.81695093400003],[112.86693158100002,34.81775831300007],[112.80617460200006,34.794039240000075],[112.77116928600003,34.78478436700004],[112.6899303450001,34.80666247900007],[112.62770670200007,34.83310999100007],[112.58729546600011,34.85153408100007],[112.54976961700004,34.86235680500005],[112.52800889900004,34.872847179000075],[112.50316801300005,34.885905208000054],[112.53314209000007,34.933017731000064],[112.58580780000011,34.97713089000007],[112.67386627200005,35.006877899000074],[112.72708129900002,35.04475021400003],[112.75596618700001,35.11438369800004],[112.76003265400004,35.17253112800006],[112.72885203800001,35.21256449900005],[112.74179330300001,35.222843031000025],[112.75443157200004,35.22626115700007],[112.77891599200007,35.232881218000045],[112.80175247000011,35.253728943000056],[112.84148015200003,35.231905436000034],[112.8807687420001,35.23923367700007],[112.89700472800007,35.26281898800005],[112.93825262600001,35.25772692700008],[112.97008743900005,35.27839880300007],[112.98585869700003,35.30205032200007],[112.96933849700008,35.336709677000044],[113.01288664300012,35.332439857000054],[113.08037667500002,35.30388041600003],[113.08208293400003,35.30668938600007],[113.08237082100004,35.30716331700006],[113.09208984000009,35.323110059000044],[113.10457557200004,35.370588937000036],[113.12316518800003,35.39499181700006],[113.13103596300004,35.406100640000034],[113.15349132900008,35.43772532700007],[113.20923705900009,35.43506511600003],[113.2139077700001,35.43484332300005],[113.23307991200011,35.40003214700005],[113.26482113800012,35.41267474600005],[113.27341328200009,35.43812908900003],[113.25392960200008,35.46147108200006],[113.29647751400012,35.459770296000045],[113.33221559700007,35.45554180500005],[113.33160950400008,35.47233586400006],[113.35638759900007,35.483504002000075],[113.38590766700008,35.45859997800005],[113.40745794500003,35.433011727000064],[113.42717272800007,35.40664182100005],[113.44036704200005,35.37746055900004],[113.44615973400005,35.34183654800006],[113.44641905800006,35.308397899000056],[113.49415658500004,35.284224625000036],[113.501499824,35.232352658000025],[113.4978393770001,35.203637453000056],[113.47446340900001,35.15909405900004],[113.54031087500005,35.12598374100003],[113.56501845700006,35.107141573000035],[113.58060293000005,35.070509611000034],[113.59091420900006,35.02309712700003],[113.58969900000011,34.99559978000008],[113.55321790100004,34.92807990600005]]]}},{"type":"Feature","properties":{"code":"CN041040","name":"Jiyuan","label":"Jiyuan · 济源市〔1〕","type":"Sub-prefecture-level city","parentCode":"CN-HA"},"geometry":{"type":"Polygon","coordinates":[[[112.72885203800001,35.21256449900005],[112.76003265400004,35.17253112800006],[112.75596618700001,35.11438369800004],[112.72708129900002,35.04475021400003],[112.67386627200005,35.006877899000074],[112.58580780000011,34.97713089000007],[112.53314209000007,34.933017731000064],[112.50316801300005,34.885905208000054],[112.43106082000008,34.90240833100006],[112.3964280990001,34.90559468200007],[112.34945217900008,34.91904520000003],[112.26135485200007,34.930728299000066],[112.22663995000005,34.931357338000055],[112.18929786800004,34.95210683200003],[112.17083117700008,34.97000836500007],[112.10554188900005,35.011298432000046],[112.07717232100003,35.01428619200004],[112.0233203680001,35.01015753400003],[112.0020088980001,35.04313625000003],[112.02554044300007,35.061932558000024],[112.03715216900002,35.09627852600005],[112.02259860900006,35.17502825100007],[112.0175795340001,35.21658952100006],[112.01923570200006,35.25720718900004],[112.03954050300001,35.27026288600007],[112.04619219300002,35.27033937600004],[112.0820417970001,35.27073953400003],[112.09997641200005,35.273216244000025],[112.143086831,35.24098702200007],[112.19777598000007,35.23511459700006],[112.22352007600011,35.23836886700008],[112.26596218500003,35.236138236000045],[112.31933229600008,35.22051163300006],[112.34746402100006,35.230779562000066],[112.38541070300005,35.22856216400004],[112.44793105100007,35.22513316000004],[112.51919000900011,35.21184598000008],[112.55828002800001,35.20894442200006],[112.57720773000005,35.207531705000065],[112.59909201800008,35.23903233500005],[112.61470516200006,35.23793327900006],[112.65788265000003,35.218768752000074],[112.71449232900011,35.20115937600008],[112.72885203800001,35.21256449900005]]]}},{"type":"Feature","properties":{"code":"CN041050","name":"Kaifeng","label":"Kaifeng · 开封市","type":"Prefecture-level city","parentCode":"CN-HA"},"geometry":{"type":"Polygon","coordinates":[[[115.23062183700006,34.85439186600007],[115.23732224800005,34.81726454500006],[115.21287811400009,34.78692391000004],[115.16162074200008,34.77815994700006],[115.12326456100004,34.778783333000035],[115.07965522400002,34.783805630000074],[115.02675408000005,34.78332337000006],[114.9841424010001,34.778624714000046],[114.94714533500007,34.77454742800006],[114.90186564700002,34.771336106000035],[114.86693504900006,34.76483232600003],[114.82585817100005,34.73336266000007],[114.88135965300012,34.69809907700005],[114.88097740500007,34.66740093800007],[114.88021188300002,34.63947071300004],[114.88083624700005,34.60734695100007],[114.89326802800008,34.55729665800004],[114.8987539960001,34.50236682000008],[114.87816174200009,34.47634907300005],[114.8538176290001,34.44364256800003],[114.85110439800007,34.41122433100003],[114.86022992100004,34.38187586300006],[114.86508521300004,34.34677811100005],[114.8609656110001,34.30984378900007],[114.85746483000003,34.282039920000045],[114.80636003600011,34.26167645800007],[114.74855135000007,34.23978068400004],[114.70227094600011,34.25054086600005],[114.6281882940001,34.248752860000025],[114.55281850300003,34.29057518800005],[114.50072246400009,34.31552024000007],[114.47069127100008,34.33069376800006],[114.40395886900001,34.321681624000064],[114.37398299400002,34.26782583900007],[114.33212005200005,34.270217599000034],[114.30011905800006,34.28039479600005],[114.26508078000006,34.28612280700003],[114.20205611100005,34.24772052700007],[114.15386992300012,34.22650048300005],[114.11826690300006,34.22212520900007],[114.08043457000008,34.24687476500003],[114.04260901500004,34.25091336300005],[113.9781688170001,34.26517914300007],[113.95647224200002,34.293392520000054],[113.9268229270001,34.31834616800006],[113.89249256900007,34.33639638400007],[113.84555395400002,34.35148151800007],[113.84626575000004,34.38037686300004],[113.84180397300008,34.40904292100004],[113.84827717000007,34.45846350800008],[113.96036100200001,34.45599563800005],[114.00257098800012,34.480935964000025],[114.00499349200004,34.514980147000074],[114.02028315400003,34.55175694600007],[114.06462765000003,34.564210142000036],[114.10156299500011,34.56937088700005],[114.13583871500009,34.58665042700005],[114.1696946830001,34.61539306000003],[114.15960336800003,34.64242419300007],[114.1543611840001,34.68618722400004],[114.16110010700004,34.725764629000025],[114.17853398900002,34.75797916800008],[114.17900273600003,34.78498879800003],[114.16032639000002,34.80827258200003],[114.1694850350001,34.84131759300004],[114.21054865300005,34.848651166000025],[114.22709603200008,34.884368273000064],[114.26191567800004,34.885689408000076],[114.2971343700001,34.89452645700004],[114.41638792900005,34.88029168000003],[114.45407605500009,34.87643505500006],[114.556653116,34.90286501800006],[114.62602184500008,34.90030453900005],[114.70995805500002,34.87704747200007],[114.72226745700004,34.871557376000055],[114.73606776800011,34.89113466400005],[114.73710653600006,34.90868156400006],[114.70419180600004,34.940087351000045],[114.77628703300002,34.98256999700004],[114.77449579600011,35.005253604000075],[114.89548635500012,34.99081135000006],[114.95474024700002,34.972086051000076],[115.08392115000004,34.99078024900007],[115.11718854300011,34.97826692900003],[115.14076912600001,34.96939420700005],[115.16651252400004,34.929602283000065],[115.17210435200002,34.90907510300008],[115.17941036900004,34.89997909900006],[115.20344043400007,34.89118704200007],[115.20457456700001,34.87080846200007],[115.20608505300004,34.85749148200006],[115.23062183700006,34.85439186600007]]]}},{"type":"Feature","properties":{"code":"CN041060","name":"Luohe","label":"Luohe · 漯河市","type":"Prefecture-level city","parentCode":"CN-HA"},"geometry":{"type":"Polygon","coordinates":[[[114.09340620800003,33.80471415900007],[114.10051027600002,33.744672700000024],[114.08345972900008,33.71877869400004],[114.09630104500002,33.67010114300007],[114.13587466800004,33.661912581000024],[114.16463674700003,33.675750624000045],[114.19339110200008,33.689134609000064],[114.20102683800008,33.71025894200005],[114.24865473300008,33.667811536000045],[114.26165029000003,33.62730675800003],[114.28772286100002,33.59537319700007],[114.30746704700005,33.558220016000064],[114.30939973400007,33.516839151000056],[114.28579148900008,33.48764844200008],[114.24615358800008,33.45552055700006],[114.2108316450001,33.44061938500005],[114.15994477800007,33.46907797400007],[114.13084302100003,33.496080981000034],[114.0945111100001,33.521560684000065],[114.05838795200009,33.531422306000024],[113.96091767200005,33.52242432200006],[113.9353427640001,33.49355362400007],[113.90238513000008,33.47563403700008],[113.86313801100005,33.47425347500007],[113.81978641400008,33.46904128600005],[113.77071516800004,33.45959329500005],[113.73375573300007,33.44379685900003],[113.69966312100007,33.43648740700007],[113.65807534600003,33.413959617000046],[113.6727122530001,33.42189143500008],[113.66452988500009,33.42313776700007],[113.6500870650001,33.42469998400003],[113.62943421500006,33.42616087500005],[113.62703568400002,33.42238149600007],[113.61792203900006,33.415845244000025],[113.61383385800002,33.41487722000005],[113.59861800300007,33.41541100300003],[113.57169477200011,33.42861099900006],[113.56190677100005,33.42193873100007],[113.5543086020001,33.42749654700003],[113.55277046700007,33.42760425400007],[113.53788520500007,33.42918399700005],[113.5278600370001,33.43275587000005],[113.52415758200004,33.437501102000056],[113.51985207100006,33.44282663300004],[113.51853338000001,33.44291858200006],[113.51209609400007,33.44067518000003],[113.49580004400002,33.43104132900004],[113.4808249990001,33.43387652000007],[113.47519921300011,33.433010670000044],[113.46942320400001,33.430719260000046],[113.46876551000003,33.424483544000054],[113.46453406900002,33.42423843600005],[113.45835772400005,33.437049270000045],[113.46806380200007,33.44301705700008],[113.4668958740001,33.46553055000004],[113.47333266200008,33.47405738500004],[113.483534039,33.48465564800006],[113.48524880700006,33.49458619100005],[113.48752973400008,33.49729916100006],[113.48932066100008,33.50166120400007],[113.5047247660001,33.50902521900008],[113.51606339000011,33.51146635900005],[113.52384523400008,33.51379553100003],[113.5306981660001,33.51780415300004],[113.53819295700009,33.542405072000065],[113.53849674700007,33.56607151500003],[113.5387853090001,33.575023818000034],[113.54739096500009,33.58501060200007],[113.56940060400007,33.59585382100005],[113.59943891600005,33.61115440400005],[113.61582227000008,33.62112877000004],[113.62180790800005,33.62519381100003],[113.62247913200008,33.631427332000044],[113.62084178700002,33.63477267700006],[113.61851483600003,33.63996097900008],[113.60486498300008,33.647201134000056],[113.5913475110001,33.65155920300003],[113.58272186700003,33.66221232800007],[113.57705616900012,33.692215684000075],[113.5795177120001,33.69652921900007],[113.58133401200007,33.702616782000064],[113.58133458600003,33.70261870600007],[113.61632947300006,33.70815461900003],[113.66154309000001,33.70924129000008],[113.73462180600006,33.70970235200008],[113.73218226000006,33.76816906700003],[113.7266491800001,33.80435380900008],[113.71038014200008,33.84026885700007],[113.71645725400003,33.87901576200005],[113.75833431300009,33.88991295300008],[113.80546358900006,33.89727202000006],[113.82844446900003,33.91938613200006],[113.8628367010001,33.94542407400007],[113.90189886900009,33.94954911900004],[113.9282652820001,33.979262805000076],[113.97425981200001,33.985722243000055],[114.0126853920001,33.98479512700004],[114.004558169,33.94698432800004],[114.03422926700011,33.91224787700003],[114.07575349500007,33.88107948900006],[114.06915088100004,33.83104513500007],[114.08868859100005,33.80635882300004],[114.09340620800003,33.80471415900007]]]}},{"type":"Feature","properties":{"code":"CN041070","name":"Luoyang","label":"Luoyang · 洛阳市","type":"Prefecture-level city","parentCode":"CN-HA"},"geometry":{"type":"Polygon","coordinates":[[[112.0020088980001,35.04313625000003],[112.0233203680001,35.01015753400003],[112.07717232100003,35.01428619200004],[112.10554188900005,35.011298432000046],[112.17083117700008,34.97000836500007],[112.18929786800004,34.95210683200003],[112.22663995000005,34.931357338000055],[112.26135485200007,34.930728299000066],[112.34945217900008,34.91904520000003],[112.3964280990001,34.90559468200007],[112.43106082000008,34.90240833100006],[112.50316801300005,34.885905208000054],[112.52800889900004,34.872847179000075],[112.54976961700004,34.86235680500005],[112.58729546600011,34.85153408100007],[112.62770670200007,34.83310999100007],[112.6899303450001,34.80666247900007],[112.77116928600003,34.78478436700004],[112.80617460200006,34.794039240000075],[112.87717050200001,34.76430844400005],[112.88031295000008,34.72601167900007],[112.85647026700008,34.70562188500003],[112.82412327800012,34.69759547700005],[112.80789642400009,34.65981099100003],[112.81502309500002,34.62270442400006],[112.84114094900008,34.58052993900003],[112.87097141800007,34.557931963000044],[112.90421967800012,34.551230532000034],[112.9429658570001,34.550197799000046],[112.91261652800006,34.49520737200004],[112.87999309100007,34.467431333000036],[112.82191842500004,34.47678799000005],[112.77433859200005,34.49342563300007],[112.73828535300004,34.501213378000045],[112.7068096700001,34.48899623300008],[112.707393163,34.46001536000006],[112.68855949600004,34.423250523000036],[112.68126491500004,34.39331104200005],[112.72360135400004,34.35597033300007],[112.65938517500001,34.331467958000076],[112.59699676600007,34.31937385200007],[112.56043125400004,34.31834745500004],[112.51823885500005,34.30008885500007],[112.518274141,34.27020689300008],[112.52735181800006,34.243116222000026],[112.54535635500008,34.209617802000025],[112.55800270200007,34.17866944800005],[112.575986908,34.15298730500007],[112.5858442760001,34.12219003600006],[112.58840279500009,34.09038716200007],[112.58818499800009,34.05139410000004],[112.55054433200007,34.02848461200006],[112.53192974500007,33.99407466700006],[112.50734702700004,33.97409630300007],[112.48562632100004,33.94702124500003],[112.48436098500008,33.91346647300003],[112.49930732300004,33.883761556000024],[112.48965611500012,33.856626101000074],[112.44102209100004,33.853893448000065],[112.41151693100005,33.83417888100007],[112.37751165200007,33.821133979000024],[112.34748275100003,33.83270054400003],[112.2995025460001,33.83226730900003],[112.24584085000004,33.82736439100006],[112.24398664700004,33.785173747000044],[112.2430958870001,33.74940453500005],[112.24095162100002,33.71930749300003],[112.20799958200007,33.72666697400007],[112.17485669300004,33.723063651000075],[112.11990037700002,33.72864398400003],[112.081377212,33.72616112900005],[112.06333424700006,33.70259380600004],[112.04597325400005,33.67303816500004],[112.05089407500009,33.64020168400003],[112.05740784500006,33.60682071300005],[112.02380423300008,33.596854059000066],[111.99586697100005,33.61421530500007],[111.96017177800007,33.59840451800005],[111.91413597600007,33.58350653400004],[111.86844486300004,33.58915792800008],[111.80833838200004,33.593412930000056],[111.78593409700005,33.64410494600003],[111.74864322800005,33.66807685500004],[111.71063323000004,33.67278876100005],[111.67486533100003,33.686571858000036],[111.64634964200008,33.70281517800004],[111.60876932800005,33.71484213300005],[111.56686007300004,33.72843029400008],[111.53432767700008,33.734774462000075],[111.49998921300005,33.72971365400008],[111.45806616900006,33.71761019300004],[111.42122671900006,33.726923818000046],[111.38846968500008,33.75033947600008],[111.34658744800004,33.76908838000003],[111.31283513400007,33.77645864400006],[111.23434520300009,33.79978237000006],[111.21628286100008,33.82888019200004],[111.19741816400006,33.86161589400007],[111.21227019400004,33.90636777200007],[111.23654922800006,33.92560926500005],[111.26981697800005,33.94819493800003],[111.31504388800005,33.98829931400007],[111.31502431700005,34.01823463100004],[111.31152522900004,34.055691738000064],[111.33568208900004,34.07505910400005],[111.34690017500009,34.10678758500006],[111.32072746300008,34.128821997000045],[111.27721445500003,34.13631028100008],[111.24383308400007,34.147538369000074],[111.20935576600004,34.16844159100003],[111.17100061000008,34.20005673400004],[111.14852394000008,34.221507287000065],[111.13215819700008,34.25422698600005],[111.12207053200007,34.322610627000074],[111.09838248900007,34.34367092100007],[111.11151424800005,34.373587041000064],[111.14836555000005,34.40410772100006],[111.19578772300008,34.453911273000074],[111.24014451700003,34.47243914100005],[111.27879737800004,34.48601169700004],[111.33156406300009,34.48480478500005],[111.36538077000006,34.48344300500003],[111.41669009900005,34.496549981000044],[111.45553161800007,34.524403574000075],[111.49843076100007,34.54614500300005],[111.54428849500005,34.55308281600003],[111.58319262500004,34.55523616200003],[111.63021960900005,34.54558739300006],[111.67270036800005,34.542997925000066],[111.68792611700007,34.574575080000045],[111.71317090700006,34.60714800900007],[111.74885824100005,34.61126193100006],[111.78560021200008,34.62215956800003],[111.83245574600005,34.64078094000007],[111.86213368400007,34.618385431000036],[111.95369053100006,34.65219970900006],[111.99994909200007,34.68592870100008],[111.97978338000007,34.72637126300003],[111.99188581200008,34.75656504900007],[111.99842840400004,34.79432185600007],[111.98804997000008,34.82914464900006],[111.94257370200006,34.855851072000064],[111.90265725000006,34.87498044500006],[111.87303933700008,34.89871099000004],[111.85507193500007,34.92196084700004],[111.87861871200005,34.94117441900005],[111.92270838600007,34.95906143900004],[111.95323929900007,34.982572564000066],[111.93562594000008,35.011811557000044],[111.93734150100005,35.066302878000045],[111.95556296200004,35.08404664900007],[111.97429118800005,35.07370601300005],[112.0020088980001,35.04313625000003]]]}},{"type":"Feature","properties":{"code":"CN041080","name":"Nanyang","label":"Nanyang · 南阳市","type":"Prefecture-level city","parentCode":"CN-HA"},"geometry":{"type":"Polygon","coordinates":[[[112.24095162100002,33.71930749300003],[112.27336590000004,33.69563315100004],[112.32304685300005,33.68220944900003],[112.36773973300001,33.676349421000054],[112.40700664700012,33.67167902400007],[112.4351673220001,33.65052899700004],[112.46422633000009,33.619222929000045],[112.49786256000004,33.590927297000064],[112.5322359160001,33.588816991000044],[112.55781225400005,33.61609694100002],[112.60261657100011,33.614414500000066],[112.66109240000003,33.59832514400006],[112.72895365200009,33.58504139200005],[112.76493753000011,33.59018756200004],[112.81596953400003,33.59626142900004],[112.8450280080001,33.62319695000008],[112.89822078300006,33.62229614600005],[112.94292099000006,33.60535025300004],[112.97325507900007,33.581349215000046],[113.01596438900003,33.567213296000034],[113.03826213000002,33.528695070000026],[113.066205577,33.51335847000007],[113.09353376400009,33.483794818000035],[113.09548965700003,33.45285059500003],[113.0933887540001,33.42626136800004],[113.11922894200006,33.40005038500004],[113.14481048900006,33.41893896500005],[113.18303219100005,33.40449849400005],[113.20084669300002,33.38148842100003],[113.23325342500004,33.357245343000045],[113.27852597800006,33.35073520200007],[113.32367238800009,33.34972408800007],[113.36107472100002,33.35321523700003],[113.36123267500011,33.321442416000025],[113.36672939000005,33.29394294400004],[113.3655066550001,33.26499046600003],[113.34852150000006,33.23189287800005],[113.34772450900005,33.20392198900004],[113.3574002690001,33.17124437900003],[113.35990596800002,33.11493793200003],[113.31689798900004,33.07301590000003],[113.27573053000003,33.08309189300007],[113.22267146200011,33.08878797500006],[113.17515909800011,33.08363777500006],[113.15243294800007,33.11341940700004],[113.10685596000008,33.07342628300006],[113.08554082,33.04315769700003],[113.08278296500009,33.00735106500008],[113.09851451800012,32.96555568200006],[113.13336507400004,32.932940829000074],[113.16185798100003,32.916289826000025],[113.16566169900011,32.878497045000074],[113.13860702000011,32.86292992400007],[113.15818546800006,32.81068241600008],[113.1669407060001,32.77508573700004],[113.18573668400006,32.730730668000035],[113.21737759200005,32.71243969300008],[113.16271125700007,32.66998414100004],[113.15561552800011,32.63781160900004],[113.20255219800003,32.60265818400006],[113.24105109400011,32.60733544900006],[113.28345228800003,32.59883791000004],[113.31708766100007,32.58350526400005],[113.35626696400004,32.59644492000007],[113.38058812600002,32.62084783900008],[113.41926980400001,32.602534081000044],[113.45252229700009,32.578081621000024],[113.49015388300006,32.58057252900005],[113.51474317300006,32.60270797700008],[113.5396828370001,32.63685092000003],[113.5723637430001,32.683104883000055],[113.59355433600001,32.705935891000024],[113.6308641390001,32.72244840400003],[113.69424732200002,32.693880085000046],[113.73508047300004,32.67124235400007],[113.74701425100011,32.64533154500003],[113.77425977200005,32.61389590500005],[113.7578241760001,32.590378722000025],[113.73147201400002,32.56086470500003],[113.72627400700003,32.52785698500003],[113.72610137700008,32.489177194000035],[113.70360643700008,32.45668512700007],[113.68371895400003,32.398200228000064],[113.66195641000002,32.39948306200006],[113.57454266500008,32.331477445000075],[113.53630243200007,32.315493536000076],[113.4879077920001,32.31921518200005],[113.45947940300005,32.30653714400006],[113.43308155000011,32.28849601300004],[113.39993090700011,32.26083867400007],[113.36545204800007,32.26067372000006],[113.29521039500003,32.29046924900007],[113.2655342170001,32.34600384500004],[113.25389218900011,32.39230999000006],[113.1615615610001,32.409165259000076],[113.10555077600009,32.37212275600007],[113.08328429500011,32.386713248000035],[113.05236257700005,32.40056775800008],[113.05046514500009,32.40046513900006],[113.0037505900001,32.39789414000006],[112.98030988800008,32.36641414400003],[112.92242901100008,32.38158835000007],[112.85121655500006,32.38012809700007],[112.75658089300009,32.343555243000026],[112.67669886600004,32.33946935600005],[112.61458545900007,32.35987993200007],[112.55782167300003,32.37928892700006],[112.52420959300002,32.37001768500005],[112.49059658500005,32.36212832000007],[112.46355065500006,32.355776493000064],[112.44803597700002,32.357448275000024],[112.39791016200002,32.36283177400003],[112.36006687300005,32.35710542800007],[112.31774977200007,32.34079301300005],[112.24202839300006,32.32396078600004],[112.20378513300011,32.359827050000035],[112.193998093,32.364998902000025],[112.160978494,32.38244794600007],[112.13933422700006,32.37735948300008],[112.08774817100004,32.39029999700006],[112.07206661300006,32.426775140000075],[112.04756902600002,32.45093292000007],[112.0130141080001,32.45037907300008],[111.98576410700008,32.42937925800004],[111.97387833400006,32.427714868000066],[111.96928274700008,32.42919926600007],[111.95130422400007,32.435010893000026],[111.93527906700007,32.44843667400005],[111.85135523300005,32.47306958200005],[111.81571114500008,32.47158660700006],[111.76947030600007,32.49053916300005],[111.75239620100007,32.51192376000006],[111.72790560100009,32.549294735000046],[111.69799618200005,32.588474259000066],[111.66582225000008,32.61790915000006],[111.64898794800007,32.621681601000034],[111.61291875600006,32.62976400500003],[111.58256726500008,32.621095084000046],[111.55319956200009,32.59912671200004],[111.54359165700004,32.59819779000003],[111.52723317200008,32.59661830500005],[111.49919390300005,32.606509059000075],[111.47443311300009,32.62523172400006],[111.42294289000006,32.70339831000007],[111.38971898500006,32.766408891000026],[111.34438831000006,32.80377828400003],[111.28706610700004,32.838520294000034],[111.25025433400003,32.85192130900003],[111.21786711500005,32.905128766000075],[111.22170528100008,32.93257336100004],[111.22231968900007,32.93698026800007],[111.22028751400006,32.98124228000006],[111.19867391800005,33.02378664400004],[111.18353401700006,33.046838001000026],[111.16076349500008,33.075217674000044],[111.12818203100005,33.09829965600005],[111.10645764400005,33.12312491000006],[111.08583134700007,33.15855869000006],[111.04558708200005,33.18959775800005],[111.02598714900006,33.20466637200008],[111.00641987800009,33.26397186500003],[110.96719302900004,33.26488442800007],[110.98680087000008,33.285229800000025],[110.99880778100004,33.31175667000008],[111.00764019400009,33.33375337200005],[111.01301870100008,33.34713139400003],[111.01960112900008,33.408159330000046],[111.01527183000007,33.45770364900005],[111.01091937000007,33.495744770000044],[111.00108834900004,33.53378997600004],[110.97960417900003,33.55228221300007],[111.04577819600007,33.55696341000004],[111.09614447300004,33.56852917400005],[111.12090841400004,33.59204484700007],[111.13801458300009,33.61584236700003],[111.13220057300003,33.651527961000056],[111.13278900300008,33.68422646800008],[111.17518161700008,33.68918532500004],[111.18281159600008,33.720259198000065],[111.17871148600005,33.756781217000025],[111.18958173800007,33.78490015500006],[111.23434520300009,33.79978237000006],[111.31283513400007,33.77645864400006],[111.34658744800004,33.76908838000003],[111.38846968500008,33.75033947600008],[111.42122671900006,33.726923818000046],[111.45806616900006,33.71761019300004],[111.49998921300005,33.72971365400008],[111.53432767700008,33.734774462000075],[111.56686007300004,33.72843029400008],[111.60876932800005,33.71484213300005],[111.64634964200008,33.70281517800004],[111.67486533100003,33.686571858000036],[111.71063323000004,33.67278876100005],[111.74864322800005,33.66807685500004],[111.78593409700005,33.64410494600003],[111.80833838200004,33.593412930000056],[111.86844486300004,33.58915792800008],[111.91413597600007,33.58350653400004],[111.96017177800007,33.59840451800005],[111.99586697100005,33.61421530500007],[112.02380423300008,33.596854059000066],[112.05740784500006,33.60682071300005],[112.05089407500009,33.64020168400003],[112.04597325400005,33.67303816500004],[112.06333424700006,33.70259380600004],[112.081377212,33.72616112900005],[112.11990037700002,33.72864398400003],[112.17485669300004,33.723063651000075],[112.20799958200007,33.72666697400007],[112.24095162100002,33.71930749300003]]]}},{"type":"Feature","properties":{"code":"CN041090","name":"Pingdingshan","label":"Pingdingshan · 平顶山市","type":"Prefecture-level city","parentCode":"CN-HA"},"geometry":{"type":"Polygon","coordinates":[[[113.02463769100007,34.28232200000008],[113.04384822600002,34.245945723000034],[113.04618695800002,34.212727769000026],[113.05742845600003,34.17458839000005],[113.1008020700001,34.13587619100008],[113.12840701300001,34.11417030900003],[113.17234086200006,34.10355081900008],[113.22362867700008,34.10219712600008],[113.26426238600004,34.09267412300005],[113.28622831700011,34.07172715000007],[113.30682483500004,34.04810361700004],[113.3379694360001,34.01977915100008],[113.37677173100008,34.01456391000005],[113.3673635020001,33.95516771700005],[113.34774853500005,33.924497608000024],[113.3285088350001,33.87958489600004],[113.35216586900003,33.847516865000046],[113.34705257500002,33.814277065000056],[113.36960114200008,33.78821735300005],[113.37176023000006,33.761431454000046],[113.43102485000009,33.73878895900003],[113.47610956100004,33.75051014700006],[113.51464450900005,33.75708356900003],[113.55133072700005,33.73710739000006],[113.569413499,33.70073042700005],[113.58133458600003,33.70261870600007],[113.58133401200007,33.702616782000064],[113.5795177120001,33.69652921900007],[113.57705616900012,33.692215684000075],[113.58272186700003,33.66221232800007],[113.5913475110001,33.65155920300003],[113.60486498300008,33.647201134000056],[113.61851483600003,33.63996097900008],[113.62084178700002,33.63477267700006],[113.62247913200008,33.631427332000044],[113.62180790800005,33.62519381100003],[113.61582227000008,33.62112877000004],[113.59943891600005,33.61115440400005],[113.56940060400007,33.59585382100005],[113.54739096500009,33.58501060200007],[113.5387853090001,33.575023818000034],[113.53849674700007,33.56607151500003],[113.53819295700009,33.542405072000065],[113.5306981660001,33.51780415300004],[113.52384523400008,33.51379553100003],[113.51606339000011,33.51146635900005],[113.5047247660001,33.50902521900008],[113.48932066100008,33.50166120400007],[113.48752973400008,33.49729916100006],[113.48524880700006,33.49458619100005],[113.483534039,33.48465564800006],[113.47333266200008,33.47405738500004],[113.4668958740001,33.46553055000004],[113.46806380200007,33.44301705700008],[113.45835772400005,33.437049270000045],[113.46453406900002,33.42423843600005],[113.46876551000003,33.424483544000054],[113.46942320400001,33.430719260000046],[113.47519921300011,33.433010670000044],[113.4808249990001,33.43387652000007],[113.49580004400002,33.43104132900004],[113.51209609400007,33.44067518000003],[113.51853338000001,33.44291858200006],[113.51985207100006,33.44282663300004],[113.52415758200004,33.437501102000056],[113.5278600370001,33.43275587000005],[113.53788520500007,33.42918399700005],[113.55277046700007,33.42760425400007],[113.5543086020001,33.42749654700003],[113.56190677100005,33.42193873100007],[113.57169477200011,33.42861099900006],[113.59861800300007,33.41541100300003],[113.61383385800002,33.41487722000005],[113.61792203900006,33.415845244000025],[113.62703568400002,33.42238149600007],[113.62943421500006,33.42616087500005],[113.6500870650001,33.42469998400003],[113.66452988500009,33.42313776700007],[113.6727122530001,33.42189143500008],[113.65807534600003,33.413959617000046],[113.63747784600002,33.37094140200003],[113.61676537900007,33.32889932300003],[113.59786345300006,33.30241463300007],[113.58088331300007,33.273537720000036],[113.57706163800003,33.24529516800004],[113.61851258500008,33.22134635200007],[113.59492274200011,33.197900584000024],[113.58816378200004,33.16377628500004],[113.54710822700008,33.166072549000035],[113.49897006900005,33.16229376200005],[113.45769697100002,33.15910536000007],[113.3997108750001,33.16106201600007],[113.3574002690001,33.17124437900003],[113.34772450900005,33.20392198900004],[113.34852150000006,33.23189287800005],[113.3655066550001,33.26499046600003],[113.36672939000005,33.29394294400004],[113.36123267500011,33.321442416000025],[113.36107472100002,33.35321523700003],[113.32367238800009,33.34972408800007],[113.27852597800006,33.35073520200007],[113.23325342500004,33.357245343000045],[113.20084669300002,33.38148842100003],[113.18303219100005,33.40449849400005],[113.14481048900006,33.41893896500005],[113.11922894200006,33.40005038500004],[113.0933887540001,33.42626136800004],[113.09548965700003,33.45285059500003],[113.09353376400009,33.483794818000035],[113.066205577,33.51335847000007],[113.03826213000002,33.528695070000026],[113.01596438900003,33.567213296000034],[112.97325507900007,33.581349215000046],[112.94292099000006,33.60535025300004],[112.89822078300006,33.62229614600005],[112.8450280080001,33.62319695000008],[112.81596953400003,33.59626142900004],[112.76493753000011,33.59018756200004],[112.72895365200009,33.58504139200005],[112.66109240000003,33.59832514400006],[112.60261657100011,33.614414500000066],[112.55781225400005,33.61609694100002],[112.5322359160001,33.588816991000044],[112.49786256000004,33.590927297000064],[112.46422633000009,33.619222929000045],[112.4351673220001,33.65052899700004],[112.40700664700012,33.67167902400007],[112.36773973300001,33.676349421000054],[112.32304685300005,33.68220944900003],[112.27336590000004,33.69563315100004],[112.24095162100002,33.71930749300003],[112.2430958870001,33.74940453500005],[112.24398664700004,33.785173747000044],[112.24584085000004,33.82736439100006],[112.2995025460001,33.83226730900003],[112.34748275100003,33.83270054400003],[112.37751165200007,33.821133979000024],[112.41151693100005,33.83417888100007],[112.44102209100004,33.853893448000065],[112.48965611500012,33.856626101000074],[112.49930732300004,33.883761556000024],[112.48436098500008,33.91346647300003],[112.48562632100004,33.94702124500003],[112.50734702700004,33.97409630300007],[112.53192974500007,33.99407466700006],[112.55054433200007,34.02848461200006],[112.58818499800009,34.05139410000004],[112.58840279500009,34.09038716200007],[112.5858442760001,34.12219003600006],[112.575986908,34.15298730500007],[112.55800270200007,34.17866944800005],[112.54535635500008,34.209617802000025],[112.52735181800006,34.243116222000026],[112.518274141,34.27020689300008],[112.51823885500005,34.30008885500007],[112.56043125400004,34.31834745500004],[112.59699676600007,34.31937385200007],[112.65938517500001,34.331467958000076],[112.72360135400004,34.35597033300007],[112.78886488300009,34.33009758000003],[112.81470390400011,34.305803584000046],[112.85771032500008,34.30316920300004],[112.90322805000005,34.30500617200005],[112.94134154300002,34.304455207000046],[112.98522485000001,34.30040704900006],[113.02463769100007,34.28232200000008]]]}},{"type":"Feature","properties":{"code":"CN041100","name":"Puyang","label":"Puyang · 濮阳市","type":"Prefecture-level city","parentCode":"CN-HA"},"geometry":{"type":"Polygon","coordinates":[[[115.44233389200008,36.11613533700006],[115.41413847800004,36.07966702300007],[115.41318444600006,36.01941375300004],[115.39339341800007,35.99296444500004],[115.38045554900009,35.982865255000036],[115.33162621100007,35.95808092800007],[115.3209879200001,35.929294534000064],[115.31929539500004,35.899306237000076],[115.31464113400011,35.876492152000026],[115.304445998,35.83531093800008],[115.32063916200002,35.78988016400007],[115.32199073400011,35.786083302000065],[115.3391011650001,35.778888461000065],[115.39956001300004,35.82152894600006],[115.45051708800008,35.86455413300007],[115.49339275300008,35.88279674900008],[115.55326390700009,35.89522015400007],[115.62336582300009,35.90972415500005],[115.64750888100002,35.93376928300006],[115.65443733500001,35.94099655400004],[115.67468652500008,35.95516034000008],[115.70077776900007,35.96152144400003],[115.74511961400003,35.95448438600005],[115.79039708800008,35.95995394400006],[115.81876826100006,35.953620871000055],[115.83848188500008,35.960246031000054],[115.91665798400004,36.01942481000003],[115.98740849600006,36.06383832700004],[115.9720408930001,36.11482407800003],[115.99354389400003,36.14395686100005],[116.00974129100007,36.14570379700007],[116.02721414300004,36.12225289700007],[116.04281460100003,36.11648042300004],[116.06105765300003,36.10304442700004],[116.02135711200003,36.00441985200007],[116.01565948700011,35.97202268800004],[115.87643833800007,35.95345789700008],[115.83550149100006,35.92018153600003],[115.84098212700007,35.86464439900004],[115.8076004940001,35.846083133000036],[115.73670807700012,35.83927856200006],[115.71045832100003,35.83042210000008],[115.6760359320001,35.796800561000055],[115.62286071500012,35.72380924500004],[115.58499563900011,35.73051979600007],[115.5634175240001,35.74152815600007],[115.53085144900001,35.73291348300006],[115.5013194070001,35.721646779000025],[115.4677278480001,35.69798558200006],[115.44972938300009,35.66861822300007],[115.40595735700003,35.63533185600005],[115.36572525200006,35.60690893700007],[115.35864258900006,35.54942403600006],[115.28252895600008,35.55516435100003],[115.29973462100008,35.479059515000074],[115.1901795230001,35.41078177400004],[115.14023974800011,35.42540463600005],[114.97667252500003,35.354133673000035],[114.97605520400009,35.34410772600006],[114.96060854300003,35.34726119700008],[114.93505795300007,35.38337369900006],[114.95228658300005,35.413669095000046],[114.94176969400007,35.44856959500004],[114.92084076700007,35.47894473000008],[114.92429808800011,35.51313272600004],[114.93285848800008,35.53974029400007],[114.92761790300005,35.56978596600004],[114.90991452100002,35.60686774000004],[114.90752556900009,35.623151120000045],[114.90326757000003,35.67454959500003],[114.89835695400006,35.70137058300003],[114.90643632700005,35.72891528800005],[114.9320999680001,35.75833426600008],[114.95708732000003,35.78548604500003],[114.97067676900008,35.81092563400006],[114.96983372400007,35.83937399200005],[114.96894470600012,35.86736111600004],[114.9706131580001,35.899351043000024],[114.98355239800003,35.93947753400005],[114.9872648170001,35.96860771400003],[114.97247597800003,35.99958386600008],[114.98015042600002,36.060132993000025],[115.01255204400002,36.09619040800004],[115.02690307500006,36.13282680200007],[115.05215556100006,36.18236269300007],[115.10279768100008,36.20761311700005],[115.11031537000008,36.21135816300006],[115.19051089000004,36.186558897000054],[115.23785172500004,36.14163451300004],[115.26751743700004,36.10526017600006],[115.31158753300008,36.08428283400008],[115.34020098500002,36.09034664200004],[115.37556655000003,36.11559949700006],[115.41840466600001,36.132628201000045],[115.44233389200008,36.11613533700006]]]}},{"type":"Feature","properties":{"code":"CN041110","name":"Sanmenxia","label":"Sanmenxia · 三门峡市","type":"Prefecture-level city","parentCode":"CN-HA"},"geometry":{"type":"Polygon","coordinates":[[[111.23434520300009,33.79978237000006],[111.18958173800007,33.78490015500006],[111.17871148600005,33.756781217000025],[111.18281159600008,33.720259198000065],[111.17518161700008,33.68918532500004],[111.13278900300008,33.68422646800008],[111.13220057300003,33.651527961000056],[111.13801458300009,33.61584236700003],[111.12090841400004,33.59204484700007],[111.09614447300004,33.56852917400005],[111.04577819600007,33.55696341000004],[110.97960417900003,33.55228221300007],[110.96609453100007,33.56390012000003],[110.91682707700005,33.60903644800004],[110.88942873300005,33.629385410000054],[110.86203217400003,33.64707676300003],[110.80502087700006,33.67182926500004],[110.80057505300005,33.70100919400005],[110.79058263400009,33.76467432000004],[110.78546694000005,33.76911671900007],[110.76309827500006,33.78853025600006],[110.71910390700003,33.82120370200005],[110.66740946700008,33.84854508500007],[110.64439020000009,33.837011579000034],[110.60708933500007,33.82898145400003],[110.58493496300008,33.87049460900005],[110.59069786000003,33.87852547800003],[110.61987788600004,33.91919329500007],[110.62314037800007,33.92892451100005],[110.63844286000005,33.949289649000036],[110.61752987100004,33.956320247000065],[110.56567086100006,33.990686510000046],[110.54560553400006,34.041911758000026],[110.58611180700007,34.08886436900008],[110.63888595900005,34.11195453700003],[110.62038821400006,34.14272500900006],[110.61447656900003,34.15257020400003],[110.56802277900005,34.18252443700004],[110.49728682000006,34.209737620000055],[110.44421141300006,34.22813070400008],[110.39329710300007,34.25093107600003],[110.39312919400004,34.27479497000007],[110.41844236800006,34.28549302400006],[110.45150541000004,34.29532884900004],[110.48676056900007,34.30869900600004],[110.47002458500003,34.33692859700005],[110.44328819500004,34.370426821000024],[110.40554007900005,34.39415512200003],[110.39214314400004,34.40820192000007],[110.35426272100005,34.447864856000024],[110.33849739800007,34.48314679900005],[110.33163819200007,34.508746452000025],[110.35362986100006,34.53004433500007],[110.36331604200006,34.56257057300007],[110.34018462500006,34.59458385800008],[110.38730964500007,34.58690448400006],[110.42507543400006,34.59430695900005],[110.59785710100005,34.57348444400003],[110.65457400200006,34.59076737600003],[110.70513948400009,34.62311733800004],[110.83440847500009,34.65493318500006],[110.86608532500009,34.674795379000045],[110.88512454600004,34.68972374800006],[110.93863738300007,34.689321207000035],[111.00461444600006,34.71408982200006],[111.05876509600006,34.72850759600004],[111.10964686800008,34.76571345800005],[111.12546949300008,34.77058918700004],[111.17585230800006,34.76760503000003],[111.21384321500005,34.77979070600003],[111.27387932100004,34.78922028900007],[111.34660637500008,34.80350940000005],[111.36870161500008,34.805772123000054],[111.46976184900007,34.814648721000026],[111.53310139200005,34.82893902100005],[111.55225644700005,34.84125056900007],[111.59146550800006,34.911043875000075],[111.60116903000005,34.91667714000005],[111.64577914000006,34.94295949600007],[111.65275205100005,34.97550256000005],[111.72594428000008,34.99960054500008],[111.75808224900004,35.02425277200007],[111.77438058400008,35.04660719800006],[111.79374534900006,35.063902023000026],[111.82247805800006,35.076030126000035],[111.89224568500003,35.08251658700004],[111.95556296200004,35.08404664900007],[111.93734150100005,35.066302878000045],[111.93562594000008,35.011811557000044],[111.95323929900007,34.982572564000066],[111.92270838600007,34.95906143900004],[111.87861871200005,34.94117441900005],[111.85507193500007,34.92196084700004],[111.87303933700008,34.89871099000004],[111.90265725000006,34.87498044500006],[111.94257370200006,34.855851072000064],[111.98804997000008,34.82914464900006],[111.99842840400004,34.79432185600007],[111.99188581200008,34.75656504900007],[111.97978338000007,34.72637126300003],[111.99994909200007,34.68592870100008],[111.95369053100006,34.65219970900006],[111.86213368400007,34.618385431000036],[111.83245574600005,34.64078094000007],[111.78560021200008,34.62215956800003],[111.74885824100005,34.61126193100006],[111.71317090700006,34.60714800900007],[111.68792611700007,34.574575080000045],[111.67270036800005,34.542997925000066],[111.63021960900005,34.54558739300006],[111.58319262500004,34.55523616200003],[111.54428849500005,34.55308281600003],[111.49843076100007,34.54614500300005],[111.45553161800007,34.524403574000075],[111.41669009900005,34.496549981000044],[111.36538077000006,34.48344300500003],[111.33156406300009,34.48480478500005],[111.27879737800004,34.48601169700004],[111.24014451700003,34.47243914100005],[111.19578772300008,34.453911273000074],[111.14836555000005,34.40410772100006],[111.11151424800005,34.373587041000064],[111.09838248900007,34.34367092100007],[111.12207053200007,34.322610627000074],[111.13215819700008,34.25422698600005],[111.14852394000008,34.221507287000065],[111.17100061000008,34.20005673400004],[111.20935576600004,34.16844159100003],[111.24383308400007,34.147538369000074],[111.27721445500003,34.13631028100008],[111.32072746300008,34.128821997000045],[111.34690017500009,34.10678758500006],[111.33568208900004,34.07505910400005],[111.31152522900004,34.055691738000064],[111.31502431700005,34.01823463100004],[111.31504388800005,33.98829931400007],[111.26981697800005,33.94819493800003],[111.23654922800006,33.92560926500005],[111.21227019400004,33.90636777200007],[111.19741816400006,33.86161589400007],[111.21628286100008,33.82888019200004],[111.23434520300009,33.79978237000006]]]}},{"type":"Feature","properties":{"code":"CN041120","name":"Shangqiu","label":"Shangqiu · 商丘市","type":"Prefecture-level city","parentCode":"CN-HA"},"geometry":{"type":"Polygon","coordinates":[[[116.16101892600011,34.544391751000035],[116.16611656900011,34.523053934000075],[116.15867714500007,34.494163711000056],[116.1446774740001,34.46644581600003],[116.15834333700002,34.43842813800006],[116.15888492600004,34.43745662300006],[116.17916256000001,34.40125202100006],[116.20135832300002,34.36843810900007],[116.23888167100006,34.34999651800007],[116.28707115400005,34.34258621400005],[116.31038925100006,34.32739642300004],[116.32080832500003,34.301273587000026],[116.33621187100005,34.283770541000024],[116.35235809100004,34.26092614700008],[116.36352350400011,34.24626704900004],[116.41095091200009,34.26096710200005],[116.45000784900003,34.282227015000046],[116.49000743600004,34.28484157400004],[116.51320055700012,34.25279712400004],[116.51507798900002,34.24858562000003],[116.53135563800004,34.21212541700004],[116.52014132300008,34.17811130900003],[116.51591394500008,34.16502570700004],[116.51442701600001,34.15570124200008],[116.51199219600005,34.14041309800007],[116.51381673000003,34.10314187100005],[116.51855920600008,34.076363068000035],[116.53283014500005,34.043830480000054],[116.5387399330001,34.037586128000044],[116.55643760600003,34.01883479900005],[116.59888033700008,33.948680430000024],[116.6186449270001,33.91675845900005],[116.59987004900006,33.884867464000024],[116.5491110910001,33.88279745600005],[116.51993561400002,33.90628031000006],[116.46751722700003,33.88034176600007],[116.44857694200005,33.84489327500006],[116.40587622800001,33.84770876700003],[116.37815904100012,33.81176118700006],[116.40087995500005,33.790371564000054],[116.37407599900007,33.789042176000066],[116.3633787980001,33.78851330200007],[116.32829427500008,33.77325269000005],[116.29656179000006,33.75871991300005],[116.27367904200003,33.76150080100007],[116.25032103100011,33.75721054300004],[116.2266914270001,33.748503424000035],[116.20356344100003,33.73091826600006],[116.16173098500008,33.71235963600003],[116.13089942300007,33.72785462500008],[116.1028774240001,33.73613707800007],[116.0632389110001,33.750754534000066],[116.05674515600003,33.753152441000054],[116.04280881700004,33.77587672300007],[116.02718321000009,33.80663875400006],[116.0302505620001,33.85520759800005],[116.00237719900008,33.901529968000034],[115.97809057500001,33.91759204500005],[115.95579929300004,33.91320423500002],[115.95554116000005,33.94419927800004],[115.92654450300006,33.973724882000056],[115.92365509600006,33.975702854000076],[115.88958046800008,33.999139816000024],[115.83387432900008,33.989004341000054],[115.80189626000003,33.988520970000025],[115.78610567700002,34.03695186200002],[115.76884975400003,34.04475245800006],[115.70240307000006,34.07478248500007],[115.66426027300008,34.06388040400003],[115.64248847100009,34.057471468000074],[115.61280499500003,34.076978103000044],[115.56970499900001,34.083540593000066],[115.53656617100012,34.07561886800005],[115.53452024400008,34.048345115000075],[115.52402591900011,34.01864161700007],[115.49512781400006,33.99317605500005],[115.45728862700003,33.97325446600007],[115.40725559600003,33.98977951400008],[115.37142403400003,33.997253682000064],[115.3141785250001,33.998078855000074],[115.27987730900009,33.99626156800008],[115.24439578800002,33.993121820000056],[115.17988573800005,33.976839046000066],[115.13140100100009,33.968852679000065],[115.07580062500006,33.94886765000007],[115.06157586900008,34.00279412900005],[115.08998444200006,34.031130725000025],[115.11595217400009,34.063718616000074],[115.11479746600003,34.10277380000008],[115.11068107900007,34.13877215800005],[115.0965329820001,34.18125531800007],[115.0879591150001,34.21702415000004],[115.05526371400003,34.23982758100004],[115.01314861600008,34.254388481000035],[114.95994772300003,34.26859194300005],[114.90185203100009,34.276132422000046],[114.85746483000003,34.282039920000045],[114.8609656110001,34.30984378900007],[114.86508521300004,34.34677811100005],[114.86022992100004,34.38187586300006],[114.85110439800007,34.41122433100003],[114.8538176290001,34.44364256800003],[114.87816174200009,34.47634907300005],[114.8987539960001,34.50236682000008],[114.89326802800008,34.55729665800004],[114.88083624700005,34.60734695100007],[114.88021188300002,34.63947071300004],[114.88097740500007,34.66740093800007],[114.88135965300012,34.69809907700005],[114.82585817100005,34.73336266000007],[114.86693504900006,34.76483232600003],[114.90186564700002,34.771336106000035],[114.94714533500007,34.77454742800006],[114.9841424010001,34.778624714000046],[115.02675408000005,34.78332337000006],[115.07965522400002,34.783805630000074],[115.12326456100004,34.778783333000035],[115.16162074200008,34.77815994700006],[115.21287811400009,34.78692391000004],[115.23732224800005,34.81726454500006],[115.23062183700006,34.85439186600007],[115.28348174300004,34.847697922000066],[115.34279367900001,34.833200170000055],[115.39342136200003,34.78361500700004],[115.4052928540001,34.71773462500005],[115.41843433700001,34.65533872900005],[115.42485171300007,34.63122193600003],[115.42519734000007,34.61658632100006],[115.45717268600004,34.57746109800007],[115.48405339900012,34.55616011200004],[115.52552757500007,34.56436989300005],[115.55342666800004,34.55809497600006],[115.57783167800005,34.546938074000025],[115.62436219900007,34.537289878000024],[115.6438844170001,34.54645855700005],[115.64494819900005,34.561498570000026],[115.65174692400001,34.568730318000064],[115.66465893500003,34.57316886000007],[115.74456779000002,34.55570031800005],[115.75515389800012,34.551538082000036],[115.78452763000007,34.550168599000074],[115.82489474500005,34.55075326000008],[115.87035489400012,34.557283160000054],[115.89927622000005,34.57077927000006],[115.92528425000012,34.58688437500007],[115.97269959700009,34.59824090700005],[115.98661266600004,34.59756688700003],[116.00035234400002,34.594423660000075],[116.01778961100001,34.57870547500005],[116.06211853000002,34.590176144000054],[116.09420754400003,34.58364417800004],[116.10593925900002,34.55455489700006],[116.12734407900007,34.529948535000074],[116.14209565100009,34.54037080000006],[116.16101892600011,34.544391751000035]]]}},{"type":"Feature","properties":{"code":"CN041130","name":"Xinxiang","label":"Xinxiang · 新乡市","type":"Prefecture-level city","parentCode":"CN-HA"},"geometry":{"type":"Polygon","coordinates":[[[113.97472771200012,35.71763803500005],[114.0059118690001,35.68815891600008],[114.0024945770001,35.66105614700007],[114.00478234100001,35.626085483000054],[114.02642637100007,35.58660571400003],[114.05530279900006,35.56652777000005],[114.11411204400008,35.55195001200008],[114.1449291020001,35.534747492000065],[114.18871798800001,35.512956150000036],[114.22067306100007,35.50284009000006],[114.25573032200009,35.50239307800007],[114.25354710400006,35.47546242800007],[114.31905940900003,35.463819354000066],[114.37375356900009,35.48174655300005],[114.41521939000006,35.42625035300006],[114.40091003900011,35.39438095300005],[114.3916445110001,35.36228399100003],[114.383687828,35.33287175500004],[114.37837665300003,35.301048294000054],[114.37885545900008,35.25954202200006],[114.4270488730001,35.23695970800003],[114.46393222200004,35.21830046100007],[114.50910893700006,35.21618929300007],[114.54032194700005,35.23212724500007],[114.58401515600008,35.25938507400008],[114.63612780400001,35.28622540500004],[114.66884583000001,35.307109205000074],[114.70244275300001,35.32427437500007],[114.7418496250001,35.335649114000034],[114.78845181800011,35.35398972400003],[114.8294090060001,35.37121882800005],[114.86543312100002,35.381807657000024],[114.93505795300007,35.38337369900006],[114.96060854300003,35.34726119700008],[114.97605520400009,35.34410772600006],[114.9689450620001,35.28157973900005],[114.95091148400002,35.24711862600003],[114.9078898360001,35.21866862600007],[114.868995143,35.20511665300006],[114.8059690340001,35.15982380000003],[114.81436243900009,35.08914901700007],[114.81345852900006,35.074107971000046],[114.77209433600001,35.017910821000044],[114.77449579600011,35.005253604000075],[114.77628703300002,34.98256999700004],[114.70419180600004,34.940087351000045],[114.73710653600006,34.90868156400006],[114.73606776800011,34.89113466400005],[114.72226745700004,34.871557376000055],[114.70995805500002,34.87704747200007],[114.62602184500008,34.90030453900005],[114.556653116,34.90286501800006],[114.45407605500009,34.87643505500006],[114.41638792900005,34.88029168000003],[114.2971343700001,34.89452645700004],[114.26191567800004,34.885689408000076],[114.22709603200008,34.884368273000064],[114.20502945800001,34.88511722100003],[114.09344489000011,34.92652662800003],[114.02757583900006,34.93621047900007],[114.00221186300007,34.934519323000075],[113.92377596500012,34.881758810000065],[113.89817922800012,34.875031197000055],[113.82274947300004,34.88239731500005],[113.6689298010001,34.90211055200007],[113.55321790100004,34.92807990600005],[113.58969900000011,34.99559978000008],[113.59091420900006,35.02309712700003],[113.58060293000005,35.070509611000034],[113.56501845700006,35.107141573000035],[113.54031087500005,35.12598374100003],[113.47446340900001,35.15909405900004],[113.4978393770001,35.203637453000056],[113.501499824,35.232352658000025],[113.49415658500004,35.284224625000036],[113.44641905800006,35.308397899000056],[113.44615973400005,35.34183654800006],[113.44036704200005,35.37746055900004],[113.42717272800007,35.40664182100005],[113.40745794500003,35.433011727000064],[113.38590766700008,35.45859997800005],[113.35638759900007,35.483504002000075],[113.37481335300004,35.49179882400006],[113.38827702100002,35.49153006900008],[113.45114151700011,35.529121006000025],[113.48132294700008,35.56029705800006],[113.49483731200007,35.596228764000045],[113.50591790400006,35.62602954600004],[113.5639480100001,35.61420215600003],[113.56931554800008,35.67415314500005],[113.53503024800011,35.725229392000074],[113.53438666900001,35.77382739700005],[113.51919356600001,35.80600778000007],[113.51753759100006,35.80950758700004],[113.58836974600001,35.80623734400007],[113.62246071200002,35.82533910800004],[113.66791415800003,35.81996796100003],[113.70708005600011,35.80603984000004],[113.74328984100009,35.791875203000075],[113.75260945200012,35.757809363000035],[113.75501483700009,35.728770277000024],[113.75208897200002,35.69679247600004],[113.77617222000003,35.677576775000034],[113.85444346200006,35.69205593800007],[113.89966254500007,35.694615690000035],[113.9375359710001,35.70904248700003],[113.97472771200012,35.71763803500005]]]}},{"type":"Feature","properties":{"code":"CN041140","name":"Xinyang","label":"Xinyang · 信阳市","type":"Prefecture-level city","parentCode":"CN-HA"},"geometry":{"type":"Polygon","coordinates":[[[115.16670342400005,32.63685856500007],[115.15478745100006,32.62372056300006],[115.15308351600004,32.596498858000075],[115.16271469600008,32.57334508300005],[115.17377118500008,32.57286852300007],[115.25856421500009,32.56817554300005],[115.26164795500006,32.55996679500004],[115.25961179000001,32.528209307000054],[115.28170897200005,32.527244179000036],[115.30439467800011,32.535343029000046],[115.33871724500011,32.55202522600007],[115.36141787700001,32.56011300800003],[115.37217236300012,32.55508574900006],[115.38233865200004,32.54098289500007],[115.39279131,32.53141647800004],[115.42443589700008,32.50724826000004],[115.4668120340001,32.47802979900007],[115.47634451800002,32.45484282000007],[115.48648014800006,32.44072708200002],[115.50794324000003,32.43064761200003],[115.51776217100007,32.41199132400004],[115.53921773100001,32.401903497000035],[115.56630536700004,32.390013483000075],[115.62683548600012,32.388729854000076],[115.64889478200007,32.387697253000056],[115.65075860400009,32.41491720200003],[115.64004989600005,32.41996969200005],[115.65325658200004,32.45120757400008],[115.65450191900004,32.46935560500003],[115.67720988000008,32.477387270000065],[115.69897502200001,32.47180451300005],[115.71032566200006,32.47581806100004],[115.74376587300003,32.478780449000055],[115.7538635410001,32.46464253900007],[115.75354639300008,32.460105816000066],[115.78665383100008,32.45851787300006],[115.80807920200004,32.44838340200005],[115.81815403900009,32.43424213800006],[115.83828852800002,32.40595649000005],[115.84803077800007,32.38727495000006],[115.85711627,32.35952058200007],[115.8655527310001,32.32269198400007],[115.85877384900004,32.227417857000034],[115.8354848780001,32.21034314700006],[115.85749827400002,32.20926970000005],[115.8617219890001,32.11344020200005],[115.86948640900005,32.06752267400003],[115.88789073300006,32.01652259600007],[115.8859504300001,31.98928890800005],[115.88240976300006,31.939363911000044],[115.8599485200001,31.855793788000028],[115.82095251300007,31.819865530000072],[115.7785306510001,31.791439834000073],[115.7353808470001,31.76835132100007],[115.68842560700011,31.76238978500004],[115.67708088600011,31.76094728100003],[115.64354331700008,31.755193426000062],[115.6072699240001,31.738885553000046],[115.56780359600009,31.72269403000007],[115.53923861200008,31.709612224000068],[115.48328132400002,31.685162459000026],[115.42874022800004,31.626898710000034],[115.41804528500006,31.587360557000068],[115.40660181600003,31.57359027800004],[115.39693104800006,31.552652410000064],[115.37877870900002,31.53292282500007],[115.36056384300002,31.491882926000073],[115.36798145000012,31.450760184000046],[115.35951830700003,31.412010036000027],[115.33333683600006,31.377352770000073],[115.23651916800009,31.40593866000006],[115.22383896300005,31.40817965800005],[115.21291561700002,31.403252948000045],[115.18602864700006,31.398906775000057],[115.1777599180001,31.424952396000037],[115.17507292800008,31.45612410800004],[115.17267201100003,31.49261262300007],[115.17577048300006,31.532448656000042],[115.16829124300011,31.574441637000064],[115.16393566700003,31.581880262000027],[115.14861863100009,31.60799197800003],[115.10894348600004,31.58455937000008],[115.0558353130001,31.548266273000024],[115.0457533550001,31.53885957700004],[115.0235505170001,31.478381931000058],[114.96164866700008,31.47875569100006],[114.90964071400003,31.484968250000065],[114.86703029500006,31.464216992000047],[114.82617032100006,31.45759608700007],[114.81525025600001,31.459262911000053],[114.78907437800001,31.463260036000065],[114.75541222700008,31.49720980400008],[114.73001307400011,31.52555323000007],[114.71782039000004,31.539260700000057],[114.66234872400003,31.517075067000064],[114.64374755900008,31.55494174000006],[114.6165071900001,31.591302253000038],[114.59235428000011,31.600934538000047],[114.56724041900009,31.564442085000053],[114.53747521100001,31.581288568000048],[114.53073694000011,31.58509361600005],[114.52942130300005,31.628617143000042],[114.54594063100001,31.664489177000064],[114.559710343,31.710204459000067],[114.56267683200008,31.753585160000057],[114.55072935900012,31.764992044000053],[114.5482822130001,31.767336777000025],[114.52554874700002,31.761826765000023],[114.49315423200005,31.75571734500005],[114.43181310200009,31.748693409000055],[114.39751759700005,31.747936005000042],[114.35256915700006,31.748367604000066],[114.29746286700004,31.762382312000057],[114.23143832400001,31.79885667800005],[114.20754579700008,31.818153434000067],[114.17459221400009,31.85188792300005],[114.15752721700005,31.859202624000034],[114.12818349200006,31.871785773000056],[114.08065055600002,31.86242958400004],[114.06060106300004,31.842568794000044],[114.05364859600002,31.80017994800005],[114.03208289100007,31.76793585200005],[113.97473262400001,31.75170072800006],[113.96504486300012,31.720905988000027],[113.92830142100001,31.711210622000067],[113.91678015700006,31.747873983000034],[113.91752495300011,31.798411848000057],[113.90778094200004,31.855421412000055],[113.89187581500005,31.86025804700006],[113.87537171500003,31.848262490000025],[113.85374725700001,31.812440234000064],[113.81362949900006,31.860437022000042],[113.80218144500009,31.901512027000024],[113.79344743600006,31.92832848200004],[113.77188113000011,31.956342207000034],[113.72749121800007,31.97691462000006],[113.72197953400007,32.00453393400005],[113.74293084800001,32.02087693800007],[113.74982576900004,32.034009541000046],[113.72871971000006,32.04515401500004],[113.70047425300004,32.067989483000076],[113.68733709900005,32.09312316000006],[113.69508487200005,32.09541750500006],[113.71230959800005,32.10050837800003],[113.74341675800008,32.12990761000003],[113.74136022300002,32.16452936100006],[113.72217998700012,32.20221160800003],[113.70432129100004,32.24695136500003],[113.72781079900005,32.27298455000005],[113.72026974000005,32.305067388000055],[113.70186639700012,32.366647958000044],[113.68672903200002,32.39802126500007],[113.68371895400003,32.398200228000064],[113.70360643700008,32.45668512700007],[113.72610137700008,32.489177194000035],[113.72627400700003,32.52785698500003],[113.73147201400002,32.56086470500003],[113.7578241760001,32.590378722000025],[113.77425977200005,32.61389590500005],[113.81250314400006,32.624385017000066],[113.83771745100012,32.64607298800007],[113.87616620200004,32.63439754700005],[113.89909144500007,32.61428132200007],[113.92193663900002,32.576447047000045],[113.96078883300004,32.553433039000026],[114.02662214700001,32.52957834400007],[114.06823310100003,32.52909067200005],[114.08661561000008,32.499787248000075],[114.09102243600012,32.472027894000064],[114.10862274400006,32.43861824000004],[114.15275711200002,32.43569160000004],[114.19160505800005,32.45411916300003],[114.20339345400009,32.511040405000074],[114.2387660500001,32.49571978700004],[114.26887230200009,32.435534405000055],[114.27896490700005,32.41698740000004],[114.29821760800007,32.361719367000035],[114.29726956000002,32.343560997000054],[114.3176808280001,32.31098721600006],[114.31719137900006,32.30191022500003],[114.36033859200006,32.282150913000066],[114.38165249100007,32.26772679800007],[114.41447376100007,32.261975266000036],[114.44825093100008,32.27437489300007],[114.47077648800007,32.28263512600006],[114.47054338800001,32.278093811000076],[114.48156160100007,32.27768484200004],[114.50310862900005,32.26777978000007],[114.54893576000006,32.29789468900003],[114.59850426500009,32.29307156400006],[114.6458069360001,32.37435563100007],[114.6431528490001,32.401136844000064],[114.62475768600007,32.42686505900008],[114.60246217500003,32.45094899500003],[114.59057349000011,32.47726381000007],[114.58681466000007,32.50409685100004],[114.60560428400004,32.52797680300006],[114.64291714900003,32.52797070500003],[114.67688068100006,32.53454137500006],[114.6929653420001,32.558084638000025],[114.74563353400004,32.54395003800005],[114.78955891600003,32.54539427900005],[114.82547621100002,32.582157007000035],[114.81639104300007,32.60926709800003],[114.86053301900006,32.652082336000035],[114.8762729870001,32.678082919000076],[114.95635407500004,32.67830207500003],[115.01259729600008,32.68454047500006],[115.0566851960001,32.67118311300004],[115.084415293,32.64435735200004],[115.16670342400005,32.63685856500007]]]}},{"type":"Feature","properties":{"code":"CN041150","name":"Xuchang","label":"Xuchang · 许昌市","type":"Prefecture-level city","parentCode":"CN-HA"},"geometry":{"type":"Polygon","coordinates":[[[113.84555395400002,34.35148151800007],[113.89249256900007,34.33639638400007],[113.9268229270001,34.31834616800006],[113.95647224200002,34.293392520000054],[113.9781688170001,34.26517914300007],[114.04260901500004,34.25091336300005],[114.08043457000008,34.24687476500003],[114.11826690300006,34.22212520900007],[114.15386992300012,34.22650048300005],[114.20205611100005,34.24772052700007],[114.26508078000006,34.28612280700003],[114.2526895950001,34.244511619000036],[114.24963280200006,34.20201345800007],[114.24806514600004,34.16586503000008],[114.25237524200008,34.13586872900004],[114.25863785700005,34.092024723000065],[114.26228522800011,34.05105209000004],[114.27501924600006,34.014705064000054],[114.28342308100002,33.970296304000044],[114.29149792400005,33.93919674700004],[114.30333525000003,33.888209181000036],[114.28889919200003,33.88428735900004],[114.2823351080001,33.85598406500003],[114.27563366200002,33.81684715500006],[114.20986002000006,33.81984633500008],[114.16864715400004,33.82950916100003],[114.12780265200001,33.835925400000065],[114.09340620800003,33.80471415900007],[114.08868859100005,33.80635882300004],[114.06915088100004,33.83104513500007],[114.07575349500007,33.88107948900006],[114.03422926700011,33.91224787700003],[114.004558169,33.94698432800004],[114.0126853920001,33.98479512700004],[113.97425981200001,33.985722243000055],[113.9282652820001,33.979262805000076],[113.90189886900009,33.94954911900004],[113.8628367010001,33.94542407400007],[113.82844446900003,33.91938613200006],[113.80546358900006,33.89727202000006],[113.75833431300009,33.88991295300008],[113.71645725400003,33.87901576200005],[113.71038014200008,33.84026885700007],[113.7266491800001,33.80435380900008],[113.73218226000006,33.76816906700003],[113.73462180600006,33.70970235200008],[113.66154309000001,33.70924129000008],[113.61632947300006,33.70815461900003],[113.58133458600003,33.70261870600007],[113.569413499,33.70073042700005],[113.55133072700005,33.73710739000006],[113.51464450900005,33.75708356900003],[113.47610956100004,33.75051014700006],[113.43102485000009,33.73878895900003],[113.37176023000006,33.761431454000046],[113.36960114200008,33.78821735300005],[113.34705257500002,33.814277065000056],[113.35216586900003,33.847516865000046],[113.3285088350001,33.87958489600004],[113.34774853500005,33.924497608000024],[113.3673635020001,33.95516771700005],[113.37677173100008,34.01456391000005],[113.3379694360001,34.01977915100008],[113.30682483500004,34.04810361700004],[113.28622831700011,34.07172715000007],[113.26426238600004,34.09267412300005],[113.22362867700008,34.10219712600008],[113.17234086200006,34.10355081900008],[113.12840701300001,34.11417030900003],[113.1008020700001,34.13587619100008],[113.05742845600003,34.17458839000005],[113.04618695800002,34.212727769000026],[113.04384822600002,34.245945723000034],[113.02463769100007,34.28232200000008],[113.08498584800009,34.26906791400006],[113.11983681600009,34.28146832400006],[113.1733432200001,34.31171171700004],[113.20233130500003,34.34050847100008],[113.23632016300007,34.343304628000055],[113.27545623800006,34.362355937000075],[113.29035540300004,34.40289577400006],[113.36530540500007,34.362140314000044],[113.48730379900007,34.358635614000036],[113.52686945700009,34.328006068000036],[113.60588617600001,34.290811947000066],[113.63395974000002,34.27460791800007],[113.66730685800007,34.27974744000005],[113.71022916100003,34.31067512200008],[113.77668382900004,34.33673668700004],[113.81202446200007,34.34585426900003],[113.84555395400002,34.35148151800007]]]}},{"type":"Feature","properties":{"code":"CN041160","name":"Zhengzhou","label":"Zhengzhou · 郑州市","type":"Prefecture-level city","parentCode":"CN-HA"},"geometry":{"type":"Polygon","coordinates":[[[113.55321790100004,34.92807990600005],[113.6689298010001,34.90211055200007],[113.82274947300004,34.88239731500005],[113.89817922800012,34.875031197000055],[113.92377596500012,34.881758810000065],[114.00221186300007,34.934519323000075],[114.02757583900006,34.93621047900007],[114.09344489000011,34.92652662800003],[114.20502945800001,34.88511722100003],[114.22709603200008,34.884368273000064],[114.21054865300005,34.848651166000025],[114.1694850350001,34.84131759300004],[114.16032639000002,34.80827258200003],[114.17900273600003,34.78498879800003],[114.17853398900002,34.75797916800008],[114.16110010700004,34.725764629000025],[114.1543611840001,34.68618722400004],[114.15960336800003,34.64242419300007],[114.1696946830001,34.61539306000003],[114.13583871500009,34.58665042700005],[114.10156299500011,34.56937088700005],[114.06462765000003,34.564210142000036],[114.02028315400003,34.55175694600007],[114.00499349200004,34.514980147000074],[114.00257098800012,34.480935964000025],[113.96036100200001,34.45599563800005],[113.84827717000007,34.45846350800008],[113.84180397300008,34.40904292100004],[113.84626575000004,34.38037686300004],[113.84555395400002,34.35148151800007],[113.81202446200007,34.34585426900003],[113.77668382900004,34.33673668700004],[113.71022916100003,34.31067512200008],[113.66730685800007,34.27974744000005],[113.63395974000002,34.27460791800007],[113.60588617600001,34.290811947000066],[113.52686945700009,34.328006068000036],[113.48730379900007,34.358635614000036],[113.36530540500007,34.362140314000044],[113.29035540300004,34.40289577400006],[113.27545623800006,34.362355937000075],[113.23632016300007,34.343304628000055],[113.20233130500003,34.34050847100008],[113.1733432200001,34.31171171700004],[113.11983681600009,34.28146832400006],[113.08498584800009,34.26906791400006],[113.02463769100007,34.28232200000008],[112.98522485000001,34.30040704900006],[112.94134154300002,34.304455207000046],[112.90322805000005,34.30500617200005],[112.85771032500008,34.30316920300004],[112.81470390400011,34.305803584000046],[112.78886488300009,34.33009758000003],[112.72360135400004,34.35597033300007],[112.68126491500004,34.39331104200005],[112.68855949600004,34.423250523000036],[112.707393163,34.46001536000006],[112.7068096700001,34.48899623300008],[112.73828535300004,34.501213378000045],[112.77433859200005,34.49342563300007],[112.82191842500004,34.47678799000005],[112.87999309100007,34.467431333000036],[112.91261652800006,34.49520737200004],[112.9429658570001,34.550197799000046],[112.90421967800012,34.551230532000034],[112.87097141800007,34.557931963000044],[112.84114094900008,34.58052993900003],[112.81502309500002,34.62270442400006],[112.80789642400009,34.65981099100003],[112.82412327800012,34.69759547700005],[112.85647026700008,34.70562188500003],[112.88031295000008,34.72601167900007],[112.87717050200001,34.76430844400005],[112.80617460200006,34.794039240000075],[112.86693158100002,34.81775831300007],[112.90160841000011,34.81695093400003],[113.04359644400006,34.81856849700006],[113.0882982600001,34.83253076500006],[113.10750971200002,34.839582509000024],[113.16878538000003,34.87318777200005],[113.24620155800005,34.91388302300004],[113.32369418700011,34.95452252300004],[113.36808991700002,34.95835082700006],[113.46877316100006,34.948043736000045],[113.55321790100004,34.92807990600005]]]}},{"type":"Feature","properties":{"code":"CN041170","name":"Zhoukou","label":"Zhoukou · 周口市","type":"Prefecture-level city","parentCode":"CN-HA"},"geometry":{"type":"Polygon","coordinates":[[[114.85746483000003,34.282039920000045],[114.90185203100009,34.276132422000046],[114.95994772300003,34.26859194300005],[115.01314861600008,34.254388481000035],[115.05526371400003,34.23982758100004],[115.0879591150001,34.21702415000004],[115.0965329820001,34.18125531800007],[115.11068107900007,34.13877215800005],[115.11479746600003,34.10277380000008],[115.11595217400009,34.063718616000074],[115.08998444200006,34.031130725000025],[115.06157586900008,34.00279412900005],[115.07580062500006,33.94886765000007],[115.13140100100009,33.968852679000065],[115.17988573800005,33.976839046000066],[115.24439578800002,33.993121820000056],[115.27987730900009,33.99626156800008],[115.3141785250001,33.998078855000074],[115.37142403400003,33.997253682000064],[115.40725559600003,33.98977951400008],[115.45728862700003,33.97325446600007],[115.49512781400006,33.99317605500005],[115.52402591900011,34.01864161700007],[115.53452024400008,34.048345115000075],[115.53656617100012,34.07561886800005],[115.56970499900001,34.083540593000066],[115.61280499500003,34.076978103000044],[115.64248847100009,34.057471468000074],[115.61379183800011,34.04901612000003],[115.5608282710001,34.028923475000056],[115.54212782200011,34.01015925300004],[115.52875377200007,33.96907290300004],[115.5347085840001,33.91927749000007],[115.52746087700007,33.88857547300006],[115.51711680100004,33.86152650900004],[115.53225768200002,33.83793449900003],[115.5689008170001,33.82503152100003],[115.56762081300008,33.802950414000065],[115.5685349790001,33.78078461000007],[115.53559430700011,33.761681632000034],[115.53269186500006,33.72744562300005],[115.53222319000008,33.72197096300005],[115.5782261810001,33.68214390400004],[115.55044036900006,33.65664773100008],[115.55653207000012,33.62896891300005],[115.5436952450001,33.61529382700007],[115.56216434600003,33.593337521000024],[115.56669851000004,33.58159180600006],[115.56934038200006,33.57346571700003],[115.55591582600005,33.56081420800007],[115.52490860500006,33.55491641800006],[115.46141564300001,33.55554365100005],[115.40378476500007,33.56300538100004],[115.38169635400004,33.53991696600008],[115.3917331340001,33.50324479500006],[115.34164559900012,33.48825939900007],[115.31885330000011,33.491748554000026],[115.30185294500006,33.46049159800003],[115.30753663900009,33.43858102400003],[115.31090561700012,33.42562591400008],[115.27617021200001,33.389696306000076],[115.28542460000006,33.337998483000035],[115.31587816900003,33.295269234000045],[115.27343296700008,33.256956968000054],[115.27102534200003,33.211874539000064],[115.26668372200004,33.130542681000065],[115.2562443590001,33.12041050400006],[115.22534464600005,33.090401057000065],[115.17761380000002,33.09387204500007],[115.14967586300008,33.10106115200006],[115.12744077000002,33.09209750100007],[115.0195791750001,33.06925648300006],[114.94998986400003,33.092866711000056],[114.90211236300001,33.12145458300006],[114.89815627900009,33.12382183300008],[114.87352424000005,33.13260730500008],[114.84595385700004,33.12554039100007],[114.86042257500003,33.09241271900004],[114.84367530600002,33.080496252000046],[114.80942523400006,33.08132677800006],[114.77145720700003,33.092426137000075],[114.74563514300007,33.114390521000075],[114.71132033200001,33.16614649300004],[114.70804587400005,33.20900761000007],[114.72517807700001,33.23799248500006],[114.72789233700007,33.280542438000055],[114.71647596500009,33.30682275600003],[114.6865208050001,33.334011463000024],[114.6371198710001,33.33920619400004],[114.59825548600008,33.34661546500007],[114.58644401900006,33.394006105000074],[114.5711957850001,33.43008391800004],[114.54250669200007,33.44386267700003],[114.50906883800008,33.46061261400007],[114.4545506830001,33.47285875400007],[114.41399886300007,33.46284871800003],[114.38265990500008,33.451020080000035],[114.34332757000004,33.45194496900007],[114.28579148900008,33.48764844200008],[114.30939973400007,33.516839151000056],[114.30746704700005,33.558220016000064],[114.28772286100002,33.59537319700007],[114.26165029000003,33.62730675800003],[114.24865473300008,33.667811536000045],[114.20102683800008,33.71025894200005],[114.19339110200008,33.689134609000064],[114.16463674700003,33.675750624000045],[114.13587466800004,33.661912581000024],[114.09630104500002,33.67010114300007],[114.08345972900008,33.71877869400004],[114.10051027600002,33.744672700000024],[114.09340620800003,33.80471415900007],[114.12780265200001,33.835925400000065],[114.16864715400004,33.82950916100003],[114.20986002000006,33.81984633500008],[114.27563366200002,33.81684715500006],[114.2823351080001,33.85598406500003],[114.28889919200003,33.88428735900004],[114.30333525000003,33.888209181000036],[114.29149792400005,33.93919674700004],[114.28342308100002,33.970296304000044],[114.27501924600006,34.014705064000054],[114.26228522800011,34.05105209000004],[114.25863785700005,34.092024723000065],[114.25237524200008,34.13586872900004],[114.24806514600004,34.16586503000008],[114.24963280200006,34.20201345800007],[114.2526895950001,34.244511619000036],[114.26508078000006,34.28612280700003],[114.30011905800006,34.28039479600005],[114.33212005200005,34.270217599000034],[114.37398299400002,34.26782583900007],[114.40395886900001,34.321681624000064],[114.47069127100008,34.33069376800006],[114.50072246400009,34.31552024000007],[114.55281850300003,34.29057518800005],[114.6281882940001,34.248752860000025],[114.70227094600011,34.25054086600005],[114.74855135000007,34.23978068400004],[114.80636003600011,34.26167645800007],[114.85746483000003,34.282039920000045]]]}},{"type":"Feature","properties":{"code":"CN041180","name":"Zhumadian","label":"Zhumadian · 驻马店市","type":"Prefecture-level city","parentCode":"CN-HA"},"geometry":{"type":"Polygon","coordinates":[[[114.28579148900008,33.48764844200008],[114.34332757000004,33.45194496900007],[114.38265990500008,33.451020080000035],[114.41399886300007,33.46284871800003],[114.4545506830001,33.47285875400007],[114.50906883800008,33.46061261400007],[114.54250669200007,33.44386267700003],[114.5711957850001,33.43008391800004],[114.58644401900006,33.394006105000074],[114.59825548600008,33.34661546500007],[114.6371198710001,33.33920619400004],[114.6865208050001,33.334011463000024],[114.71647596500009,33.30682275600003],[114.72789233700007,33.280542438000055],[114.72517807700001,33.23799248500006],[114.70804587400005,33.20900761000007],[114.71132033200001,33.16614649300004],[114.74563514300007,33.114390521000075],[114.77145720700003,33.092426137000075],[114.80942523400006,33.08132677800006],[114.84367530600002,33.080496252000046],[114.86042257500003,33.09241271900004],[114.8655736610001,33.080613698000036],[114.87140477700007,33.06625091700005],[114.87178777000008,33.029042203000074],[114.85755556000004,33.00470915900007],[114.85739738500001,32.967586201000074],[114.85734481000009,32.95510868300005],[114.87402605300008,32.94038729300007],[114.91200205500002,32.91698039800008],[114.95807146400011,32.926066896000066],[114.979862507,32.92710302800003],[114.98693298400008,32.916232765000075],[114.98401697200006,32.90127287300004],[114.99809020500004,32.878645333000065],[115.0856748110001,32.89246405000006],[115.11543733200006,32.87990766100006],[115.12297277400012,32.857490907000056],[115.13835953500006,32.81885089700006],[115.15841126800001,32.76586454300008],[115.15713257000004,32.74109822600008],[115.12252753300004,32.67939891700007],[115.14115965300005,32.64152279800004],[115.16670342400005,32.63685856500007],[115.084415293,32.64435735200004],[115.0566851960001,32.67118311300004],[115.01259729600008,32.68454047500006],[114.95635407500004,32.67830207500003],[114.8762729870001,32.678082919000076],[114.86053301900006,32.652082336000035],[114.81639104300007,32.60926709800003],[114.82547621100002,32.582157007000035],[114.78955891600003,32.54539427900005],[114.74563353400004,32.54395003800005],[114.6929653420001,32.558084638000025],[114.67688068100006,32.53454137500006],[114.64291714900003,32.52797070500003],[114.60560428400004,32.52797680300006],[114.58681466000007,32.50409685100004],[114.59057349000011,32.47726381000007],[114.60246217500003,32.45094899500003],[114.62475768600007,32.42686505900008],[114.6431528490001,32.401136844000064],[114.6458069360001,32.37435563100007],[114.59850426500009,32.29307156400006],[114.54893576000006,32.29789468900003],[114.50310862900005,32.26777978000007],[114.48156160100007,32.27768484200004],[114.47054338800001,32.278093811000076],[114.47077648800007,32.28263512600006],[114.44825093100008,32.27437489300007],[114.41447376100007,32.261975266000036],[114.38165249100007,32.26772679800007],[114.36033859200006,32.282150913000066],[114.31719137900006,32.30191022500003],[114.3176808280001,32.31098721600006],[114.29726956000002,32.343560997000054],[114.29821760800007,32.361719367000035],[114.27896490700005,32.41698740000004],[114.26887230200009,32.435534405000055],[114.2387660500001,32.49571978700004],[114.20339345400009,32.511040405000074],[114.19160505800005,32.45411916300003],[114.15275711200002,32.43569160000004],[114.10862274400006,32.43861824000004],[114.09102243600012,32.472027894000064],[114.08661561000008,32.499787248000075],[114.06823310100003,32.52909067200005],[114.02662214700001,32.52957834400007],[113.96078883300004,32.553433039000026],[113.92193663900002,32.576447047000045],[113.89909144500007,32.61428132200007],[113.87616620200004,32.63439754700005],[113.83771745100012,32.64607298800007],[113.81250314400006,32.624385017000066],[113.77425977200005,32.61389590500005],[113.74701425100011,32.64533154500003],[113.73508047300004,32.67124235400007],[113.69424732200002,32.693880085000046],[113.6308641390001,32.72244840400003],[113.59355433600001,32.705935891000024],[113.5723637430001,32.683104883000055],[113.5396828370001,32.63685092000003],[113.51474317300006,32.60270797700008],[113.49015388300006,32.58057252900005],[113.45252229700009,32.578081621000024],[113.41926980400001,32.602534081000044],[113.38058812600002,32.62084783900008],[113.35626696400004,32.59644492000007],[113.31708766100007,32.58350526400005],[113.28345228800003,32.59883791000004],[113.24105109400011,32.60733544900006],[113.20255219800003,32.60265818400006],[113.15561552800011,32.63781160900004],[113.16271125700007,32.66998414100004],[113.21737759200005,32.71243969300008],[113.18573668400006,32.730730668000035],[113.1669407060001,32.77508573700004],[113.15818546800006,32.81068241600008],[113.13860702000011,32.86292992400007],[113.16566169900011,32.878497045000074],[113.16185798100003,32.916289826000025],[113.13336507400004,32.932940829000074],[113.09851451800012,32.96555568200006],[113.08278296500009,33.00735106500008],[113.08554082,33.04315769700003],[113.10685596000008,33.07342628300006],[113.15243294800007,33.11341940700004],[113.17515909800011,33.08363777500006],[113.22267146200011,33.08878797500006],[113.27573053000003,33.08309189300007],[113.31689798900004,33.07301590000003],[113.35990596800002,33.11493793200003],[113.3574002690001,33.17124437900003],[113.3997108750001,33.16106201600007],[113.45769697100002,33.15910536000007],[113.49897006900005,33.16229376200005],[113.54710822700008,33.166072549000035],[113.58816378200004,33.16377628500004],[113.59492274200011,33.197900584000024],[113.61851258500008,33.22134635200007],[113.57706163800003,33.24529516800004],[113.58088331300007,33.273537720000036],[113.59786345300006,33.30241463300007],[113.61676537900007,33.32889932300003],[113.63747784600002,33.37094140200003],[113.65807534600003,33.413959617000046],[113.69966312100007,33.43648740700007],[113.73375573300007,33.44379685900003],[113.77071516800004,33.45959329500005],[113.81978641400008,33.46904128600005],[113.86313801100005,33.47425347500007],[113.90238513000008,33.47563403700008],[113.9353427640001,33.49355362400007],[113.96091767200005,33.52242432200006],[114.05838795200009,33.531422306000024],[114.0945111100001,33.521560684000065],[114.13084302100003,33.496080981000034],[114.15994477800007,33.46907797400007],[114.2108316450001,33.44061938500005],[114.24615358800008,33.45552055700006],[114.28579148900008,33.48764844200008]]]}}]}
