{"type":"FeatureCollection","name":"admin2_chn_cn-hb","adm0A3":"CHN","parentCode":"CN-HB","parentName":"Hubei","bbox":[108.34495944400004,29.029452866000042,116.09277547500005,33.26488442800007],"features":[{"type":"Feature","properties":{"code":"CN042010","name":"Enshi Tujia and Miao Autonomous Prefecture","label":"Enshi Tujia and Miao Autonomous Prefecture · 恩施土家族苗族自治州","type":"Autonomous prefecture","parentCode":"CN-HB"},"geometry":{"type":"Polygon","coordinates":[[[110.44459357100004,31.33095872800004],[110.41776007000004,31.28686255200006],[110.44369890300004,31.260235944000044],[110.47059143200005,31.231729827000038],[110.48273748300005,31.206461484000044],[110.49813450900007,31.16035025900004],[110.50340434800006,31.10212619600003],[110.46291153500005,31.06520850100003],[110.44282236500004,31.03222444100004],[110.43763719000009,31.000138797000034],[110.42182254300008,30.967466628000068],[110.40748024700008,30.931984123000063],[110.42012073900008,30.89516875100003],[110.39907154200006,30.87464423600005],[110.37897546100004,30.84025786500007],[110.34048334900007,30.782753292000052],[110.39630259800003,30.789919026000064],[110.42784296100007,30.761707012000045],[110.41968075100004,30.686824837000074],[110.41927263500008,30.642574410000066],[110.42889224000004,30.598458367000035],[110.44466421500005,30.561977557000034],[110.44849305200006,30.53002975800007],[110.40859846700005,30.511491634000038],[110.36410811100006,30.507384755000032],[110.34059577600004,30.47676938400008],[110.33028819800006,30.434202635000076],[110.32935519200004,30.401023648000034],[110.33544491300006,30.35977450200005],[110.33971641100004,30.31350198000007],[110.34100682300004,30.283010709000052],[110.33000107100008,30.248292423000066],[110.28645932200004,30.250588965000077],[110.24560635600005,30.25463282100003],[110.25201962800008,30.22028984900004],[110.26714590200004,30.193053528000064],[110.28454692500009,30.14590048900004],[110.29858322800004,30.106228557000065],[110.29064987500004,30.06863181700004],[110.30080252300007,30.024458915000025],[110.32104207700007,29.983657395000023],[110.34635239000005,29.962998060000075],[110.38368115200007,29.96548967500007],[110.42306847000003,29.97898566600003],[110.48584883100006,30.01909706200007],[110.51638970800008,29.992840912000077],[110.51326811200005,29.98838555900005],[110.48298922600009,29.970502818000057],[110.46759035000008,29.916196976000037],[110.47297747700009,29.89041882400005],[110.50130912200007,29.87627579800005],[110.51702403600007,29.87187417100006],[110.53182226700005,29.84523188000003],[110.57999678700008,29.830235342000037],[110.59699443900007,29.76888633200008],[110.58611845400009,29.759801752000044],[110.54308153800008,29.71915117900005],[110.50015113300009,29.691958380000074],[110.45731185500006,29.67844628200004],[110.41448008900005,29.664918060000048],[110.39297203000007,29.633038964000036],[110.37154484200005,29.61941577600004],[110.35015812000006,29.614921469000024],[110.34399490400006,29.63900142800003],[110.27804441200004,29.664500787000065],[110.25820100200008,29.66617893700004],[110.24226391500008,29.69902225800007],[110.18866634500006,29.73610135800004],[110.13935228100007,29.758047934000047],[110.09218362100006,29.772874538000053],[110.03041813000004,29.782234863000042],[109.99176303300004,29.780175394000025],[109.90205368200009,29.765233567000053],[109.84248018100004,29.765617316000032],[109.81341400000008,29.75838951700007],[109.78312110300004,29.75084703500005],[109.73968169900007,29.720179706000067],[109.73385499200003,29.688978216000066],[109.68653088800005,29.642228836000072],[109.65435777500005,29.631216307000045],[109.64354476100004,29.631566597000074],[109.63347087000005,29.631891344000053],[109.57171134600009,29.64368065800005],[109.52886972700009,29.646758162000026],[109.45336163600007,29.608486451000033],[109.50160483300004,29.593927231000066],[109.50011581000007,29.55919270000004],[109.46827170200004,29.53210760500008],[109.45923644600003,29.528442876000042],[109.42683944200007,29.49546350600008],[109.38438089200008,29.467850093000038],[109.38470127800008,29.42674401000005],[109.34228838500007,29.39911339400004],[109.34312237400007,29.298610421000035],[109.30079318900005,29.270954853000035],[109.32242679200004,29.22995473800006],[109.27988403400008,29.22970486300005],[109.25834951800005,29.256989729000054],[109.23721919500008,29.243147432000058],[109.23747843200005,29.21573091600004],[109.23773766500005,29.188312774000053],[109.23786730100005,29.17460309200004],[109.23800451300008,29.160893049000038],[109.20470153800005,29.139390872000035],[109.20468001800003,29.123380698000062],[109.18315478700003,29.161384229000078],[109.15616415000005,29.161879705000047],[109.09342358100008,29.18321067100004],[109.08550508700006,29.212490702000025],[109.09171078700007,29.261584158000062],[109.08566136600007,29.300686877000032],[109.08981064100004,29.347957775000054],[109.04811575500008,29.398081629000046],[109.03560741100006,29.391257430000053],[109.02961985700006,29.387988564000068],[108.99812201500004,29.35453542500005],[108.95583881200008,29.339595650000035],[108.93596177100005,29.332774551000057],[108.91766942700008,29.326490789000047],[108.88838930000009,29.33312068200007],[108.89790153700005,29.369803003000072],[108.90811432200007,29.42074070900003],[108.88339979500006,29.452377988000023],[108.83425325300004,29.46043308700007],[108.82910293800006,29.499524845000053],[108.85915211600008,29.54812921200005],[108.88354441700005,29.574364296000056],[108.85731235000009,29.58103696200004],[108.83633961800007,29.585123140000064],[108.84524395100004,29.604865154000038],[108.81003711800008,29.63540742600003],[108.76151663400009,29.655014189000042],[108.72364620200005,29.665894836000064],[108.66239676100008,29.691456420000065],[108.65977959900005,29.710990666000043],[108.65101699100006,29.764223705000063],[108.64717716600006,29.78995950500007],[108.62263547300006,29.825685342000043],[108.60794717500005,29.847048164000057],[108.55621071500008,29.826461231000053],[108.53512792100008,29.79578467300007],[108.52373578300006,29.75550633900008],[108.52481494700004,29.746878464000076],[108.52780810700006,29.72265993600007],[108.51613505200004,29.72086686800003],[108.44773523600009,29.71034363900003],[108.39710172500008,29.760908378000067],[108.37472287900005,29.79891636800005],[108.37173308000007,29.80397755000007],[108.34495944400004,29.82476052800007],[108.34528177800007,29.84790711000005],[108.37808908400007,29.869963959000074],[108.41470330800007,29.87073966300005],[108.44733635000006,29.86411989800007],[108.45050659300006,29.863475356000038],[108.49216177000005,29.870559573000037],[108.50243759500006,29.87699701400004],[108.49954157500008,29.904521205000037],[108.49881450100008,29.910239164000075],[108.49410717100005,29.94711823700004],[108.52954708400006,29.989642652000043],[108.49462778800006,30.03697827600007],[108.48905104900007,30.048427625000045],[108.51183959700006,30.094249106000063],[108.53665300200004,30.143662582000047],[108.53790320200005,30.209490880000033],[108.53614404600006,30.234356156000047],[108.52060590500008,30.262497690000032],[108.46944944500007,30.32103549900006],[108.42949321200007,30.354886828000076],[108.38800153800008,30.369130029000075],[108.38549800000004,30.41619091800004],[108.38942327100006,30.49448963900005],[108.40835046300003,30.49634169600006],[108.43568206000003,30.499008908000064],[108.48576355700004,30.48136759600004],[108.56556964800006,30.492727906000027],[108.58711477300005,30.513586488000044],[108.59223368800008,30.55634258500004],[108.61361601000004,30.621615056000053],[108.64969298000005,30.61519191700006],[108.68501380700008,30.558981550000055],[108.78056736700006,30.495839928000066],[108.82671629800006,30.505535047000023],[108.85504306700005,30.553116035000073],[108.88035921400007,30.57532847300007],[108.89945290400004,30.592071843000042],[108.94696904000006,30.63550158700008],[108.99529888600006,30.642223581000053],[108.99749330000009,30.642528834000075],[109.04512105400005,30.637942616000032],[109.07222035400008,30.607264156000042],[109.10863365100005,30.55955097100008],[109.12113232600007,30.54313564200004],[109.16122905900005,30.542831852000063],[109.17682089000004,30.553717900000038],[109.21410141800004,30.58712166600003],[109.25971396200003,30.62772951900007],[109.27969901100005,30.631551285000057],[109.29376808300009,30.613972601000057],[109.32411876800006,30.574391862000027],[109.33409250300008,30.54964263100004],[109.32503007400004,30.527314356000034],[109.34473408100007,30.49025001600006],[109.38415524400006,30.524516179000045],[109.39276120900007,30.57171547200005],[109.42243475000004,30.621829827000056],[109.47665108900009,30.66067825600004],[109.52008979600004,30.665439751000065],[109.52198704900007,30.665647312000033],[109.56526721300008,30.66790489500005],[109.60736169700004,30.742971770000054],[109.63685466400005,30.775603924000052],[109.64788108200008,30.787799009000025],[109.70115630100008,30.83273503500004],[109.74620162000008,30.865136705000054],[109.83377171500007,30.88812856800007],[109.91000778600005,30.89054384800005],[109.95748661800008,30.905120055000054],[109.97765857500008,30.901722936000056],[109.99221445500007,30.834348787000067],[110.04229564200006,30.803628412000023],[110.08224781000007,30.827872762000027],[110.09235733400004,30.844326068000044],[110.11348224400007,30.878683894000062],[110.14452764800006,30.952571082000077],[110.09904132400004,31.047268606000046],[110.08796655300006,31.090690064000057],[110.09281733800009,31.13420874700006],[110.15310568000007,31.160323240000025],[110.10878197500006,31.234592060000068],[110.11498059500008,31.304802797000036],[110.17009180200006,31.310654930000055],[110.19596487300004,31.33013875900008],[110.22958363900005,31.35583388400005],[110.26523828800003,31.379145607000055],[110.30336485100008,31.397310085000072],[110.33915440800007,31.398957992000078],[110.36964741900005,31.389250383000046],[110.44459357100004,31.33095872800004]]]}},{"type":"Feature","properties":{"code":"CN042020","name":"Ezhou","label":"Ezhou · 鄂州市","type":"Prefecture-level city","parentCode":"CN-HB"},"geometry":{"type":"Polygon","coordinates":[[[115.07461495000007,30.24396282300006],[115.00969739200002,30.25265433900006],[114.98629236800002,30.22440232400004],[114.952301336,30.211479216000043],[114.9200586070001,30.217361735000054],[114.88368298900002,30.240985704000025],[114.86686557700011,30.266325124000048],[114.85330347500008,30.301635222000073],[114.82948760900001,30.333330086000046],[114.79684444300005,30.333663640000054],[114.76678300900005,30.324631621000037],[114.72700529600002,30.329004558000065],[114.70427234600004,30.310355349000076],[114.67785100100002,30.29188945800007],[114.64966424800002,30.269817875000058],[114.6555801940001,30.228471323000065],[114.68328250900004,30.208136859000035],[114.70320180600004,30.18127793700006],[114.70511495900007,30.143815390000043],[114.71602807700003,30.11603192900003],[114.7238623290001,30.089792807000038],[114.71223597400001,30.062716222000063],[114.68026089800003,30.055143460000068],[114.65897728900006,30.033174815000052],[114.62096702300005,30.038356013000055],[114.5869010890001,30.047936675000074],[114.53176502100007,30.034962019000034],[114.51613087500004,30.094415566000066],[114.51028061700003,30.12884084700005],[114.50587579400008,30.17887395100007],[114.50035711100008,30.219269608000047],[114.51251822200004,30.256015692000062],[114.53982464700005,30.272629988000062],[114.57387327000004,30.278751243000045],[114.60215593500004,30.29391802400005],[114.57897587900004,30.319990586000074],[114.57639842700007,30.347325459000047],[114.57815571000003,30.37674572700007],[114.58390249500007,30.41102901000005],[114.58613449500001,30.44825886600006],[114.58594729700008,30.480077367000035],[114.57431295600009,30.515232617000038],[114.56614045000003,30.546064629000057],[114.61711318700009,30.55047366900004],[114.66102590500009,30.562424366000073],[114.70496078600002,30.574353578000057],[114.74889600000006,30.586266627000043],[114.77125942400005,30.599047944000063],[114.808500202,30.618052641000077],[114.81366490000005,30.583626726000034],[114.81211991100008,30.55631386400006],[114.81056757500005,30.528997720000064],[114.82746658600001,30.44616471100005],[114.82590636000009,30.41884336700008],[114.82512225500011,30.40518345600003],[114.84589507600003,30.390633794000053],[114.86744393300012,30.389738520000037],[114.88897787300004,30.388839897000025],[114.93203766500005,30.387028858000065],[114.96644839400005,30.38644314700008],[114.99586286100009,30.37062646100003],[115.03811598300001,30.355115426000054],[115.05882749900002,30.340525049000064],[115.05719882900007,30.31320564500004],[115.05638466100004,30.299544297000068],[115.0555624220001,30.28588072000008],[115.07461495000007,30.24396282300006]]]}},{"type":"Feature","properties":{"code":"CN042030","name":"Huanggang","label":"Huanggang · 黄冈市","type":"Prefecture-level city","parentCode":"CN-HB"},"geometry":{"type":"Polygon","coordinates":[[[115.33333683600006,31.377352770000073],[115.32624915500003,31.367976527000053],[115.32043614300005,31.378849125000045],[115.32514473800006,31.367127399000026],[115.32924403200002,31.34388628000005],[115.3787580070001,31.352672377000033],[115.40878964100011,31.33642991000005],[115.44516664600008,31.29950840500004],[115.47188953000011,31.262057507000065],[115.49782182100012,31.210417884000037],[115.50084227400009,31.205775310000035],[115.52333457700001,31.171216483000023],[115.56908273800002,31.17118858500004],[115.62964538100005,31.22651391000005],[115.66221689000008,31.21898344500005],[115.69164445700005,31.193804801000056],[115.70942551100006,31.15131941100003],[115.7226565850001,31.12234443500006],[115.787213242,31.117012996000028],[115.83148327900005,31.128495599000075],[115.8360483570001,31.126486973000056],[115.87398205800002,31.10982200400008],[115.89551987000004,31.07869456800006],[115.91104903900009,31.054038453000032],[115.9428427250001,31.03490448000008],[115.99019151700008,31.009751933000075],[116.01196136100009,30.99685719300004],[116.02094092400012,30.991526461000035],[116.02347721000001,30.980749669000033],[115.98390410500008,30.94069173500003],[115.95128927300004,30.91009693600006],[115.90078959700008,30.881145513000035],[115.86540871200009,30.874648355000033],[115.82537236500002,30.87900379100006],[115.80316912100011,30.843487680000067],[115.81060519700009,30.80761026700003],[115.82218124400003,30.76978284000006],[115.81102893100001,30.76507761700003],[115.7570665070001,30.74227211300007],[115.74075411800004,30.71627183100003],[115.75272739700006,30.663711351000075],[115.75343808200012,30.660615359000076],[115.7797998210001,30.604375830000038],[115.84972272100003,30.571191681000073],[115.87259688800009,30.547094496000057],[115.87052383700006,30.511598460000073],[115.88797446800004,30.449467269000024],[115.89205273100004,30.435152410000057],[115.90283532000001,30.397224204000054],[115.88780445500004,30.35693653800007],[115.86833034800009,30.330184536000047],[115.8610414530001,30.313586353000062],[115.86235300800001,30.300183450000077],[115.89153544800001,30.300538801000073],[115.91083564400003,30.300772076000044],[115.93961534900006,30.288850272000047],[115.99008335100007,30.235029100000077],[116.03319776100011,30.18239215500006],[116.0490262400001,30.130947900000024],[116.05868777400008,30.08243978200005],[116.06330003400001,30.054628781000076],[116.06515716500007,30.033175157000073],[116.06421824200004,30.000266777000036],[116.06200844800003,29.963854724000043],[116.06568171800006,29.937857439000027],[116.09242358200004,29.89479990600006],[116.09277547500005,29.831534763000036],[116.07760154000005,29.800093994000065],[116.06483430100002,29.782803001000048],[116.05559693200007,29.761814722000054],[116.03922261700006,29.749452028000064],[116.03297825300001,29.743174261000036],[115.99428892500009,29.725355024000066],[115.95919370400009,29.712300688000028],[115.9336632190001,29.707003648000068],[115.89253098500001,29.709103259000074],[115.8646912480001,29.71712321700005],[115.83322253200004,29.728622312000027],[115.79735645200003,29.741983899000047],[115.76472956500004,29.765081703000078],[115.74043170000004,29.787754162000056],[115.72541058000002,29.804508462000058],[115.69401616100004,29.819023238000057],[115.63726721000012,29.815129463000062],[115.54174218900005,29.81010187000004],[115.43529177700009,29.816510836000077],[115.41477024900007,29.831182761000036],[115.37457265,29.874185037000075],[115.35575653600006,29.916181750000078],[115.33690223500003,29.958175023000024],[115.31804028200008,30.00016123300003],[115.29831041300008,30.028474020000033],[115.30000797200012,30.05580746000004],[115.28109268900005,30.097780213000078],[115.26048009500005,30.112416584000073],[115.24070457900007,30.140713408000067],[115.21922391400005,30.141677598000058],[115.1994332270001,30.16996558900007],[115.17879026100002,30.184583216000078],[115.13581381600011,30.186484359000076],[115.09285313300006,30.188368955000044],[115.07217941400006,30.202969833000054],[115.07299390100002,30.216633659000024],[115.07461495000007,30.24396282300006],[115.0555624220001,30.28588072000008],[115.05638466100004,30.299544297000068],[115.05719882900007,30.31320564500004],[115.05882749900002,30.340525049000064],[115.03811598300001,30.355115426000054],[114.99586286100009,30.37062646100003],[114.96644839400005,30.38644314700008],[114.93203766500005,30.387028858000065],[114.88897787300004,30.388839897000025],[114.86744393300012,30.389738520000037],[114.84589507600003,30.390633794000053],[114.82512225500011,30.40518345600003],[114.82590636000009,30.41884336700008],[114.82746658600001,30.44616471100005],[114.81056757500005,30.528997720000064],[114.81211991100008,30.55631386400006],[114.81366490000005,30.583626726000034],[114.808500202,30.618052641000077],[114.81147075400008,30.668041948000052],[114.78835817100003,30.695979175000048],[114.7821082160001,30.72302842000005],[114.79739326300012,30.747118899000043],[114.8377255480001,30.756991218000053],[114.86308601200005,30.789291261000074],[114.87844686900007,30.814286151000033],[114.91221863700002,30.812034159000063],[114.95098130400004,30.821488817000045],[114.96052343500003,30.854153198000063],[114.99329129400007,30.86068793700008],[115.02271077300009,30.848507122000058],[115.05945366100002,30.858959214000038],[115.05579067400004,30.89187086800007],[115.02998626400006,30.910775973000057],[115.00378132500009,30.948121797000056],[114.99085981100006,30.99396413100004],[114.96639568500007,31.026133213000037],[114.94114206200004,31.005372666000028],[114.90761880600007,31.01267716500007],[114.87341848200003,31.01770539300003],[114.86359994800011,30.98874317600007],[114.85434502200008,30.96020978000007],[114.8196621400001,30.95741834300003],[114.79989736300001,30.98055869700005],[114.76770157200008,31.00894450800007],[114.73896934800007,30.982790815000044],[114.69081352700005,30.994012756000075],[114.69437241300011,30.956984756000054],[114.6626766060001,30.942019765000055],[114.62586055400004,30.93882248600005],[114.58209994900005,30.95208311500005],[114.56283775300005,30.976074358000062],[114.535049189,30.99956388000004],[114.51239990200008,31.029241252000077],[114.51270002600006,31.060995511000044],[114.5106628210001,31.089186535000067],[114.49668457000007,31.13131287400006],[114.4831191290001,31.171574271000054],[114.45679600100004,31.203248630000076],[114.41986169100005,31.217941026000062],[114.40654089300006,31.244821159000026],[114.41054377600005,31.276849339000023],[114.43966943500004,31.319153275000076],[114.45182956700012,31.344334993000075],[114.44333866600005,31.37235913300003],[114.45571209200011,31.409953606000045],[114.48938043500004,31.437755654000057],[114.49680284800002,31.47235977100007],[114.51268178300006,31.49688702800006],[114.50848247900001,31.533900781000057],[114.51979487400001,31.561868626000035],[114.53747521100001,31.581288568000048],[114.56724041900009,31.564442085000053],[114.59235428000011,31.600934538000047],[114.6165071900001,31.591302253000038],[114.64374755900008,31.55494174000006],[114.66234872400003,31.517075067000064],[114.71782039000004,31.539260700000057],[114.73001307400011,31.52555323000007],[114.75541222700008,31.49720980400008],[114.78907437800001,31.463260036000065],[114.81525025600001,31.459262911000053],[114.82617032100006,31.45759608700007],[114.86703029500006,31.464216992000047],[114.90964071400003,31.484968250000065],[114.96164866700008,31.47875569100006],[115.0235505170001,31.478381931000058],[115.0457533550001,31.53885957700004],[115.0558353130001,31.548266273000024],[115.10894348600004,31.58455937000008],[115.14861863100009,31.60799197800003],[115.16393566700003,31.581880262000027],[115.16829124300011,31.574441637000064],[115.17577048300006,31.532448656000042],[115.17267201100003,31.49261262300007],[115.17507292800008,31.45612410800004],[115.1777599180001,31.424952396000037],[115.18602864700006,31.398906775000057],[115.21291561700002,31.403252948000045],[115.22383896300005,31.40817965800005],[115.23651916800009,31.40593866000006],[115.33333683600006,31.377352770000073]]]}},{"type":"Feature","properties":{"code":"CN042040","name":"Huangshi","label":"Huangshi · 黄石市","type":"Prefecture-level city","parentCode":"CN-HB"},"geometry":{"type":"Polygon","coordinates":[[[115.07461495000007,30.24396282300006],[115.07299390100002,30.216633659000024],[115.07217941400006,30.202969833000054],[115.09285313300006,30.188368955000044],[115.13581381600011,30.186484359000076],[115.17879026100002,30.184583216000078],[115.1994332270001,30.16996558900007],[115.21922391400005,30.141677598000058],[115.24070457900007,30.140713408000067],[115.26048009500005,30.112416584000073],[115.28109268900005,30.097780213000078],[115.30000797200012,30.05580746000004],[115.29831041300008,30.028474020000033],[115.31804028200008,30.00016123300003],[115.33690223500003,29.958175023000024],[115.35575653600006,29.916181750000078],[115.37457265,29.874185037000075],[115.41477024900007,29.831182761000036],[115.43529177700009,29.816510836000077],[115.4427006190001,29.775197871000046],[115.415115979,29.72818191700003],[115.36817212400001,29.689928789000078],[115.32760437800005,29.653185679000046],[115.27824453300002,29.62745453000008],[115.22804921800002,29.647169960000042],[115.18666180000002,29.65495274400007],[115.14764597200008,29.647491821000074],[115.10346526500007,29.662476054000024],[115.09364334000009,29.675304151000034],[115.11570935100008,29.613923310000075],[115.13505763,29.56153977300005],[115.13087980400007,29.540311608000025],[115.12837820800007,29.531789075000063],[115.12336736100008,29.514748260000033],[115.07457523300002,29.51920346000003],[115.0450494050001,29.55591115900006],[115.00902471800009,29.566113020000046],[114.9590759560001,29.56877794600007],[114.9400695270001,29.56070743600003],[114.92245676800007,29.578883777000044],[114.9046250240001,29.619103687000063],[114.89644986200005,29.655099902000075],[114.88099745400007,29.69194845100003],[114.85533937100001,29.708099866000055],[114.82304064000004,29.71859401200004],[114.7949350560001,29.737622981000072],[114.76172045400006,29.750456488000054],[114.73260830600009,29.770450809000067],[114.72176340600004,29.79871365400004],[114.7178308230001,29.837230489000035],[114.72566582000002,29.870977094000068],[114.69792867100011,29.923186317000045],[114.66196373200012,29.93520011800007],[114.62512605400002,29.94170961800006],[114.58981300100004,29.947208300000057],[114.54809233500009,29.95117016000006],[114.53436797300003,30.003078665000032],[114.53176502100007,30.034962019000034],[114.5869010890001,30.047936675000074],[114.62096702300005,30.038356013000055],[114.65897728900006,30.033174815000052],[114.68026089800003,30.055143460000068],[114.71223597400001,30.062716222000063],[114.7238623290001,30.089792807000038],[114.71602807700003,30.11603192900003],[114.70511495900007,30.143815390000043],[114.70320180600004,30.18127793700006],[114.68328250900004,30.208136859000035],[114.6555801940001,30.228471323000065],[114.64966424800002,30.269817875000058],[114.67785100100002,30.29188945800007],[114.70427234600004,30.310355349000076],[114.72700529600002,30.329004558000065],[114.76678300900005,30.324631621000037],[114.79684444300005,30.333663640000054],[114.82948760900001,30.333330086000046],[114.85330347500008,30.301635222000073],[114.86686557700011,30.266325124000048],[114.88368298900002,30.240985704000025],[114.9200586070001,30.217361735000054],[114.952301336,30.211479216000043],[114.98629236800002,30.22440232400004],[115.00969739200002,30.25265433900006],[115.07461495000007,30.24396282300006]]]}},{"type":"Feature","properties":{"code":"CN042050","name":"Jingmen","label":"Jingmen · 荆门市","type":"Prefecture-level city","parentCode":"CN-HB"},"geometry":{"type":"Polygon","coordinates":[[[113.31394853200004,31.36439908500006],[113.31694767800002,31.333292026000038],[113.34027920400001,31.308883851000076],[113.37810155600005,31.299372969000046],[113.40526851700008,31.270618504000026],[113.43871024400005,31.24844093300004],[113.45692522900003,31.21785485600003],[113.46340095800008,31.182844122000063],[113.5035931220001,31.13714359900007],[113.46841743200002,31.105756798000073],[113.44482466200009,31.08469076700004],[113.43274167000004,31.057135729000038],[113.39389074700011,31.04174183400005],[113.35812243300006,31.00728742700005],[113.33162437200008,30.989913976000025],[113.30127886700006,30.971396860000027],[113.29313426700003,30.945183633000056],[113.30787207700007,30.91856970300006],[113.27202859800002,30.90667128000007],[113.2350595470001,30.879032788000075],[113.18831347300011,30.84081864500007],[113.16282360200012,30.818601025000078],[113.11291186500011,30.81020464100004],[113.07468986300012,30.837210927000058],[113.0452804250001,30.820343539000078],[113.03812938500005,30.789343948000067],[112.99774508700011,30.788792240000078],[112.94856295800002,30.770737602000054],[112.9168235300001,30.75125526200003],[112.87793408300001,30.735381674000052],[112.81114641300007,30.69892939700003],[112.81931107700007,30.754813682000076],[112.7958969870001,30.777425077000032],[112.78197944600004,30.82076440900005],[112.75362340200002,30.837860327000044],[112.70873469800006,30.801716329000044],[112.68049898400011,30.784184848000052],[112.65581154400002,30.758255027000075],[112.6316827280001,30.74065127700004],[112.59736898000006,30.743897693000065],[112.5853262380001,30.74970779000006],[112.55494893900004,30.682773032000057],[112.5700513920001,30.657592647000058],[112.60144112100011,30.63899656500007],[112.59859118600002,30.589117088000023],[112.59932505500001,30.560330097000076],[112.60297898900001,30.528661294000074],[112.56718133100003,30.515704782000057],[112.5537026400001,30.489632071000074],[112.53966721300003,30.464105249000056],[112.51340204200005,30.438350300000025],[112.49282616800008,30.417323917000033],[112.45218903200009,30.430819721000034],[112.41847194800005,30.43006629100006],[112.36891626200008,30.436543829000072],[112.33882303300004,30.42831108000007],[112.31050490000007,30.408025081000062],[112.2837483290001,30.425942647000056],[112.27642951100006,30.45764564500007],[112.25060955300012,30.489333171000055],[112.22800924700005,30.514408898000056],[112.18673505100003,30.497950553000067],[112.16244216500002,30.474211337000042],[112.14637769800004,30.50264846600004],[112.14603370900011,30.52943602700003],[112.1075074690001,30.53035465100004],[112.09482810000009,30.555455825000024],[112.08939901800011,30.58669911900006],[112.07788679800001,30.622402730000033],[112.05796729400004,30.662277800000027],[112.04034301700005,30.711780342000054],[112.03520231400012,30.745124193000038],[112.03594342300005,30.779566763000048],[112.02455327700011,30.81458027900004],[112.00434022700006,30.861061122000024],[111.99581230800004,30.900591443000053],[111.99981301800005,30.937734963000025],[111.99554892500004,30.970201119000023],[111.98021711600006,30.996278423000035],[111.95677156400006,31.020433827000033],[111.92723221100005,31.041177830000038],[111.90449801900007,31.060696162000056],[111.89920337000007,31.096077655000045],[111.90284776900006,31.130143029000067],[111.89879297000004,31.169182964000072],[111.86661413700006,31.219442068000035],[111.84667844800003,31.248158183000044],[111.88060602500008,31.253536198000063],[111.92566480300007,31.27354518100003],[111.91053648900004,31.303230727000027],[111.90228937500007,31.33212182300008],[111.90975405600005,31.373708393000072],[111.91605010500007,31.407161591000033],[111.91886933100005,31.444481558000064],[111.93484327600004,31.47691257300005],[111.98117340800007,31.448974563000036],[112.01933638700007,31.443962206000037],[112.05922937000003,31.450502069000038],[112.08961430500005,31.467154444000073],[112.14830031100007,31.481941307000056],[112.16587126600007,31.519261397000037],[112.198273717,31.538347153000075],[112.24019937300011,31.54776317200003],[112.27811169600011,31.553709897000033],[112.31791212400003,31.525029088000053],[112.3467102410001,31.507933123000043],[112.394552696,31.511097452000058],[112.41839755100011,31.531130590000032],[112.44492460400011,31.551043208000067],[112.48013413400008,31.56548107100008],[112.5129852550001,31.56159625300006],[112.55253792000008,31.539392639000027],[112.5795459850001,31.521014446000038],[112.61476174300003,31.513305767000077],[112.65043234200004,31.496773688000076],[112.68371078300004,31.491886828000077],[112.68357089400001,31.520570617000033],[112.68110682800011,31.56185761300003],[112.70634318400005,31.586493705000066],[112.72677515900011,31.617274406000035],[112.76299353000002,31.614470075000042],[112.791149098,31.588974548000067],[112.82577223400006,31.578308347000075],[112.86106439600007,31.569959397000048],[112.87566910300006,31.536958011000024],[112.86580569000012,31.506158259000074],[112.87494340800004,31.478989307000063],[112.9171978600001,31.474109429000066],[112.96947422200003,31.453826553000056],[113.02853407500004,31.454745849000062],[113.0746529600001,31.447523844000045],[113.11414006200005,31.444842864000066],[113.15043559000003,31.416090075000056],[113.176107806,31.38933008300006],[113.19886674600002,31.366895837000072],[113.24063318100002,31.350375900000074],[113.27340651400004,31.348624267000048],[113.31394853200004,31.36439908500006]]]}},{"type":"Feature","properties":{"code":"CN042060","name":"Jingzhou","label":"Jingzhou · 荆州市","type":"Prefecture-level city","parentCode":"CN-HB"},"geometry":{"type":"Polygon","coordinates":[[[112.49282616800008,30.417323917000033],[112.4961400740001,30.380604937000044],[112.49915592600007,30.34565056200006],[112.48839036400011,30.31838719800004],[112.49211978500011,30.287643840000044],[112.5157047570001,30.247134646000063],[112.53309141900002,30.22452400000003],[112.5488253210001,30.201086287000066],[112.55140092800002,30.16308999200004],[112.56659453300006,30.12539607900004],[112.59846326000002,30.10858231700007],[112.64793809800005,30.09694272200005],[112.6848774340001,30.08685965500007],[112.7085306680001,30.059382296000024],[112.747298709,30.061948279000035],[112.76877149500001,30.061435827000025],[112.79113492500005,30.088283115000024],[112.79202520800004,30.115638672000046],[112.81441110100002,30.142478651000033],[112.83635576300003,30.155633677000026],[112.87889088100007,30.140899363000074],[112.89991475300008,30.12668533200008],[112.92093889000012,30.11247140200004],[112.94243468100001,30.11192906200006],[112.98634701800006,30.13818840700003],[112.98730560600006,30.165541881000024],[113.00880927000003,30.164987542000063],[113.03029723800012,30.16442965500005],[113.05082671000002,30.13651423700003],[113.09381045300006,30.135376197000028],[113.1367869610001,30.13422698900007],[113.17976318900003,30.13305974800005],[113.22273944400001,30.131874465000067],[113.26571587700005,30.130675589000077],[113.28772913700004,30.14374837300005],[113.30974980300005,30.15681444100005],[113.35274131100005,30.15558357200007],[113.37422970800003,30.154962417000036],[113.43760594500009,30.125724596000055],[113.5014994600001,30.110124364000058],[113.54388975400002,30.09514979200003],[113.58684328300001,30.093832899000063],[113.65184769600012,30.105501206000042],[113.69480880800006,30.104146804000038],[113.7383636290001,30.116446756000073],[113.78253456700008,30.142406063000067],[113.83149183600005,30.154500299000063],[113.87448306800002,30.153077575000054],[113.96106736900003,30.163857782000036],[113.9819084070001,30.14945104800006],[114.02359856200007,30.120630909000056],[114.06524294300004,30.091790454000034],[114.06459576300006,30.078116917000045],[114.02036393700007,30.052261169000076],[113.97680946300011,30.040064414000028],[113.93326248300002,30.02784685900008],[113.88910648900003,30.001938598000038],[113.867032386,29.988980153000057],[113.79904420000003,29.90903355300003],[113.73416144800001,29.897440638000035],[113.66930119900007,29.885813463000034],[113.62646225000003,29.887160970000025],[113.5824660510001,29.861125431000062],[113.5604833640001,29.84810522500004],[113.51653289700005,29.82204706500005],[113.4665204050001,29.777884478000033],[113.4722017470001,29.770517907000055],[113.43848171800005,29.77433786000006],[113.40950423000004,29.74827561500007],[113.3536523470001,29.69518744900006],[113.30977585800008,29.660353798000074],[113.31198639800004,29.65909086100004],[113.305846341,29.656586536000077],[113.25536206200002,29.635978799000043],[113.23480490300005,29.608803617000035],[113.18500510800004,29.53947147200006],[113.17429040800005,29.528999372000044],[113.14828420600008,29.490333916000054],[113.12136832400006,29.45613252100003],[113.11706380400005,29.442296835000036],[113.07923984600006,29.47920969100005],[113.04275183200002,29.435375383000064],[113.03830620000008,29.440910840000072],[113.01444605300003,29.47063668900006],[112.98372473800009,29.49257339600007],[112.93527603300004,29.470294977000037],[112.88309310200009,29.512178550000044],[112.86833630800004,29.59701369000004],[112.89818185900003,29.624981468000044],[112.95619848100011,29.651547093000033],[112.95600904800006,29.688045628000054],[112.97157546800008,29.72781559400005],[112.98738024300008,29.77647929400007],[112.99811683000007,29.788741609000056],[112.96708067700001,29.80265418500005],[112.94254199900001,29.78173656000007],[112.89160797600005,29.748819989000026],[112.86300508200009,29.720114736000028],[112.84112772700007,29.734559842000067],[112.85884008500011,29.778753906000077],[112.83930178600008,29.79332593600003],[112.79266308900003,29.76384844300003],[112.75877520300003,29.74304823800003],[112.74387789800005,29.730831401000046],[112.73332716000004,29.713625766000064],[112.72982551400003,29.707919590000074],[112.70722161300012,29.675348365000048],[112.68166393700005,29.65082748900005],[112.64884402100006,29.627305372000023],[112.61398852800005,29.605582982000044],[112.5827452320001,29.60871725100003],[112.56516895400011,29.616988545000027],[112.51723811800002,29.62035241600006],[112.49006713200004,29.61806658100005],[112.46638195300011,29.635304697000038],[112.42670599900009,29.63406896400005],[112.397813799,29.591727192000064],[112.37558273700006,29.57243672900006],[112.34314185100004,29.564843189000044],[112.31894884300004,29.551795063000043],[112.30519310200009,29.542011342000023],[112.29613645900008,29.536390852000068],[112.27052743800004,29.52123550300007],[112.25484000900008,29.517860572000075],[112.2448493070001,29.545578853000052],[112.25974183000005,29.56587504500004],[112.24563357000011,29.598089859000027],[112.20877858300003,29.645698795000044],[112.2016299710001,29.64774596500007],[112.1536927630001,29.661453504000065],[112.14409307200003,29.646430511000062],[112.13776341800008,29.64204987900007],[112.11292128000002,29.65745183100006],[112.09546713000009,29.67810765200005],[112.06663067800002,29.708666376000053],[112.05129994100002,29.720739113000036],[111.99727515100005,29.75919946700003],[111.88307398700005,29.826987649000046],[111.80919909100004,29.86586617200004],[111.79139271200006,29.876408026000036],[111.76655073200004,29.891111668000065],[111.72902745700009,29.909188080000035],[111.67777313100004,29.91400610000005],[111.62426692800005,29.900134258000037],[111.52277496400006,29.904311629000063],[111.46847044300006,29.925956215000042],[111.43083694600006,29.936819092000064],[111.36998470800006,29.91041732700006],[111.33761852200007,29.931013015000076],[111.33037499000005,29.951497956000026],[111.28853388900006,29.964997543000038],[111.27709807600007,29.98816596900008],[111.26402424100007,29.997717959000056],[111.27848596300004,30.037894730000062],[111.30981565100006,30.04351974100007],[111.32893668400004,30.07745453700005],[111.32991331300008,30.11391057000003],[111.36016375000008,30.127863872000034],[111.39426201800006,30.11625013400004],[111.42823256200006,30.10181529500005],[111.45994320900007,30.09441085000003],[111.50706181300006,30.09929212800006],[111.53998622300008,30.114050957000075],[111.56382360400005,30.13568592300004],[111.56398799300007,30.166682079000054],[111.56756265300004,30.203612448000058],[111.58222351100005,30.24149776300004],[111.56687676600006,30.26758528700003],[111.59607144200004,30.28842972600006],[111.60806196900006,30.319151029000068],[111.61482455100008,30.35105076600007],[111.65234380800007,30.377985211000066],[111.69236859200004,30.394697102000066],[111.72984498300008,30.404146608000076],[111.74114100800006,30.37318846100004],[111.74098279800006,30.344580982000025],[111.75456283100004,30.316755542000067],[111.80457454000003,30.299801140000056],[111.84575084700003,30.302163135000058],[111.87199160600005,30.318099661000076],[111.89074856400003,30.348662647000026],[111.91522832700008,30.328212845000053],[111.92844495400004,30.29627322600004],[111.95637048800006,30.27292113900006],[112.01685635800004,30.26095298200005],[112.00743928300005,30.322782837000034],[111.97671890500004,30.343499033000057],[111.95309727100005,30.368986060000054],[111.94642338000006,30.40529937900004],[111.94608599300005,30.433986152000045],[111.91617885900007,30.44553217200007],[111.88160322100003,30.44010340500006],[111.87370083800005,30.466364017000046],[111.88671105900005,30.499121557000024],[111.91893475000006,30.525412850000066],[111.95156711300007,30.531274620000033],[111.96188265800004,30.559346426000047],[111.96147026700004,30.586128522000024],[111.96544487000006,30.61598575200003],[112.00291152800003,30.64113333100005],[112.05796729400004,30.662277800000027],[112.07788679800001,30.622402730000033],[112.08939901800011,30.58669911900006],[112.09482810000009,30.555455825000024],[112.1075074690001,30.53035465100004],[112.14603370900011,30.52943602700003],[112.14637769800004,30.50264846600004],[112.16244216500002,30.474211337000042],[112.18673505100003,30.497950553000067],[112.22800924700005,30.514408898000056],[112.25060955300012,30.489333171000055],[112.27642951100006,30.45764564500007],[112.2837483290001,30.425942647000056],[112.31050490000007,30.408025081000062],[112.33882303300004,30.42831108000007],[112.36891626200008,30.436543829000072],[112.41847194800005,30.43006629100006],[112.45218903200009,30.430819721000034],[112.49282616800008,30.417323917000033]]]}},{"type":"Feature","properties":{"code":"CN042070","name":"Qianjiang","label":"Qianjiang · 潜江市[1]","type":"Sub-prefecture-level city","parentCode":"CN-HB"},"geometry":{"type":"Polygon","coordinates":[[[112.92387360700002,30.536710087000074],[112.92607537000004,30.49995287200005],[112.9496338030001,30.46569839500006],[112.95082610800011,30.422538669000062],[112.93421920900005,30.39059751900004],[112.9211380480001,30.34973422400003],[112.9446858450001,30.319878919000075],[112.96621683100011,30.298916983000026],[112.98730560600006,30.165541881000024],[112.98634701800006,30.13818840700003],[112.94243468100001,30.11192906200006],[112.92093889000012,30.11247140200004],[112.89991475300008,30.12668533200008],[112.87889088100007,30.140899363000074],[112.83635576300003,30.155633677000026],[112.81441110100002,30.142478651000033],[112.79202520800004,30.115638672000046],[112.79113492500005,30.088283115000024],[112.76877149500001,30.061435827000025],[112.747298709,30.061948279000035],[112.7085306680001,30.059382296000024],[112.6848774340001,30.08685965500007],[112.64793809800005,30.09694272200005],[112.59846326000002,30.10858231700007],[112.56659453300006,30.12539607900004],[112.55140092800002,30.16308999200004],[112.5488253210001,30.201086287000066],[112.53309141900002,30.22452400000003],[112.5157047570001,30.247134646000063],[112.49211978500011,30.287643840000044],[112.48839036400011,30.31838719800004],[112.49915592600007,30.34565056200006],[112.4961400740001,30.380604937000044],[112.49282616800008,30.417323917000033],[112.51340204200005,30.438350300000025],[112.53966721300003,30.464105249000056],[112.5537026400001,30.489632071000074],[112.56718133100003,30.515704782000057],[112.60297898900001,30.528661294000074],[112.59932505500001,30.560330097000076],[112.59859118600002,30.589117088000023],[112.60144112100011,30.63899656500007],[112.60875352000005,30.63068335500003],[112.65199640300011,30.62971297300004],[112.69523928700005,30.628722251000056],[112.6719024140001,30.57455301600004],[112.64860370600002,30.520375803000036],[112.69221928700006,30.53305662300005],[112.71381404800002,30.532556930000055],[112.73585014000003,30.54571870600006],[112.75744493800005,30.545211089000077],[112.77904738000007,30.54469932300003],[112.80018563500005,30.53051642400004],[112.79929545200002,30.503180153000073],[112.81997723000006,30.475325676000068],[112.8415568260001,30.474802477000026],[112.86359307600003,30.487944078000055],[112.885636567,30.50108122000006],[112.86450572700005,30.51528059000003],[112.86496244000011,30.52894831900005],[112.86542647500005,30.54261329900004],[112.88747773000011,30.555748935000054],[112.92387360700002,30.536710087000074]]]}},{"type":"Feature","properties":{"code":"CN042080","name":"Shennongjia Forestry District","label":"Shennongjia Forestry District · 神农架林区[3]","type":"Forestry district","parentCode":"CN-HB"},"geometry":{"type":"Polygon","coordinates":[[[110.78301178600009,31.847820352000042],[110.75451134800005,31.81430371700003],[110.77759476300008,31.784571095000047],[110.81706541300008,31.772209076000024],[110.84427351600004,31.751075627000034],[110.85695740000006,31.718974583000033],[110.86307411100006,31.684823143000074],[110.90702026800005,31.668185987000072],[110.94001593300004,31.665181113000074],[110.95576552200004,31.641234128000065],[110.93506839500009,31.606679778000057],[110.92247273200007,31.581874475000063],[110.89969642300008,31.532913691000033],[110.85963104900009,31.508400876000053],[110.81956972400008,31.52723015400005],[110.78841165400007,31.553094256000065],[110.74464501400007,31.55031341700004],[110.71829047200004,31.533642951000047],[110.68896897800005,31.521670132000054],[110.68146875800005,31.48781769800007],[110.63902333700008,31.479964008000024],[110.59867454600004,31.48263440900007],[110.58107136600006,31.459709419000035],[110.58747703200004,31.426338978000047],[110.57793401800006,31.39348063700004],[110.55852024200004,31.365548768000053],[110.55613692400004,31.337526860000025],[110.52450986200006,31.332557202000032],[110.48576979100005,31.34623078100003],[110.44459357100004,31.33095872800004],[110.36964741900005,31.389250383000046],[110.33915440800007,31.398957992000078],[110.30336485100008,31.397310085000072],[110.26523828800003,31.379145607000055],[110.22958363900005,31.35583388400005],[110.19596487300004,31.33013875900008],[110.17009180200006,31.310654930000055],[110.11498059500008,31.304802797000036],[110.11545747300005,31.310054249000075],[110.04938477300004,31.41253350200003],[110.02714985400007,31.39995851900005],[110.00569243800004,31.412228810000045],[109.98295953700006,31.442220141000064],[109.92793260700006,31.460919524000076],[109.92733751500003,31.48748962600007],[109.99942045000006,31.514997297000036],[110.04038689700008,31.524411280000038],[110.05284259500007,31.55443193600007],[110.03946940600008,31.580135201000076],[110.09516143100007,31.595552413000064],[110.14050855400006,31.60619007500003],[110.18867277700008,31.582661492000057],[110.22032416700006,31.597820047000027],[110.18792939400004,31.61490376200004],[110.20241409100004,31.641166227000042],[110.22277436200005,31.666330543000072],[110.21288776200004,31.697463480000067],[110.22976198000003,31.728707739000072],[110.25656874100008,31.75366725300006],[110.29299917700007,31.766356175000055],[110.33580809000006,31.765490705000047],[110.37598751100006,31.765615445000037],[110.39939875300007,31.785584606000043],[110.41997788400005,31.81392581500006],[110.47945171500004,31.82490298400006],[110.53015065500006,31.843043312000077],[110.56601873800008,31.852911151000058],[110.60270534200004,31.857674037000038],[110.64259936000008,31.85081641900007],[110.68196819600007,31.855469190000065],[110.72565607600006,31.849833525000065],[110.78301178600009,31.847820352000042]]]}},{"type":"Feature","properties":{"code":"CN042090","name":"Shiyan","label":"Shiyan · 十堰市","type":"Prefecture-level city","parentCode":"CN-HB"},"geometry":{"type":"Polygon","coordinates":[[[111.54359165700004,32.59819779000003],[111.54569947700008,32.56652428800004],[111.53366945400006,32.527901464000024],[111.51052794100008,32.50454740300006],[111.45306957300005,32.45287284200003],[111.44132211200008,32.42514980800007],[111.40531581800008,32.41776115700003],[111.36449346700005,32.41102706500004],[111.34490162000009,32.38923701900006],[111.31338460100005,32.36751124400007],[111.28257368800007,32.34995065100003],[111.24095731900007,32.333351599000025],[111.20557160500005,32.32057030200008],[111.18700877400005,32.297850281000024],[111.20460868300006,32.26398724400008],[111.22164752500004,32.23788868400004],[111.22586655600008,32.20492647900005],[111.21813043300006,32.17159127700006],[111.19535295600008,32.15043346700003],[111.15904984200006,32.12989229200008],[111.11898578300008,32.104109649000065],[111.06329158200003,32.081517123000026],[111.07432662400004,32.054294850000076],[111.10848848400008,32.03821361700005],[111.08599178300005,32.006211946000064],[111.05197875800008,31.991275508000058],[111.02815713500007,32.01938060900005],[110.98800021400007,32.020296820000056],[110.96694671400007,31.99565082400005],[110.95810013600004,31.958623490000036],[110.96613544300004,31.92747991400006],[110.99180211900006,31.885123812000074],[110.96732582500005,31.838163703000077],[110.93905764900006,31.860789186000034],[110.90237391300008,31.87634014400004],[110.86734657100004,31.862393604000033],[110.82069708400007,31.851588698000057],[110.78301178600009,31.847820352000042],[110.72565607600006,31.849833525000065],[110.68196819600007,31.855469190000065],[110.64259936000008,31.85081641900007],[110.60270534200004,31.857674037000038],[110.56601873800008,31.852911151000058],[110.53015065500006,31.843043312000077],[110.47945171500004,31.82490298400006],[110.41997788400005,31.81392581500006],[110.39939875300007,31.785584606000043],[110.37598751100006,31.765615445000037],[110.33580809000006,31.765490705000047],[110.29299917700007,31.766356175000055],[110.25656874100008,31.75366725300006],[110.22976198000003,31.728707739000072],[110.21288776200004,31.697463480000067],[110.22277436200005,31.666330543000072],[110.20241409100004,31.641166227000042],[110.18792939400004,31.61490376200004],[110.22032416700006,31.597820047000027],[110.18867277700008,31.582661492000057],[110.14050855400006,31.60619007500003],[110.09516143100007,31.595552413000064],[110.03946940600008,31.580135201000076],[110.05284259500007,31.55443193600007],[110.04038689700008,31.524411280000038],[109.99942045000006,31.514997297000036],[109.92733751500003,31.48748962600007],[109.89208698700008,31.501674157000025],[109.88727819600007,31.502681041000073],[109.83334156300003,31.545689504000052],[109.78973999300007,31.53377765500005],[109.76303130600007,31.535308850000035],[109.69131275700005,31.547930953000048],[109.71311154200004,31.588940596000043],[109.70933202200007,31.62703496000006],[109.66310394200008,31.71259840400006],[109.63816709900004,31.73274003000006],[109.59432299100007,31.731396722000056],[109.56351573100005,31.718651728000054],[109.54600341600008,31.72160671300003],[109.53883234800008,31.722817125000063],[109.55440606100007,31.750472109000043],[109.59749845900006,31.797928180000042],[109.58614425100006,31.836814394000044],[109.56444854000006,31.852541417000054],[109.55674495000005,31.864869428000077],[109.58074732200004,31.96618228400007],[109.55673786300008,32.05278047200005],[109.58061116100004,32.10266526600003],[109.56326288700006,32.17425800900003],[109.56612258600006,32.19555358300005],[109.54379801800007,32.20529428800006],[109.50865343400005,32.220620791000044],[109.48114875500005,32.253090763000046],[109.44180638000006,32.34211282000007],[109.48966006300009,32.37810148700004],[109.52589237100005,32.40331114700007],[109.54482545000008,32.43186341400008],[109.51858152500006,32.483536135000065],[109.51798639500004,32.48471812400004],[109.53736960700007,32.54958505900004],[109.59782294400009,32.553769369000065],[109.66588243300004,32.55535117800002],[109.74042586700006,32.545370054000045],[109.80530186100009,32.556646286000046],[109.85703424300004,32.566826036000066],[109.88168967000007,32.58296706300007],[109.93902316200007,32.57987577700004],[109.99766408200009,32.557287952000024],[110.03104741400006,32.56814406500007],[110.05449009100005,32.59841496200005],[110.08032981800005,32.60920808100008],[110.11939761000008,32.59528886800007],[110.13658880700007,32.60615506200003],[110.14626977300009,32.61227307200005],[110.10415679900007,32.70764432200008],[110.12014235800007,32.73342170400008],[110.10707344100007,32.80823940200003],[110.10044432800004,32.80813753100006],[110.10230844300008,32.81251373400005],[110.07313876800004,32.83864341200007],[110.02870007100006,32.838669313000025],[109.98426812000008,32.852302429000076],[109.93982092600004,32.86591905600005],[109.89534327600006,32.87951917500004],[109.85092062300004,32.86585927800007],[109.80652086400005,32.85217848900004],[109.78430150100007,32.852142495000066],[109.75827547900008,32.87139548500005],[109.73106838300004,32.890657773000044],[109.73034521700004,32.93845412200005],[109.74955613000009,32.96075977900006],[109.73573945300006,33.012854692000076],[109.76116998000003,33.05645653700003],[109.69441134100003,33.08326966200008],[109.63640354600005,33.10482753800005],[109.57299604900004,33.121874406000074],[109.50333560600006,33.12200086900003],[109.46193576700006,33.12418749200003],[109.43416585200004,33.153954010000064],[109.43453038800004,33.15591443400007],[109.43712762100006,33.16992106400005],[109.46387223900007,33.19589053800007],[109.49084493600009,33.21035712500003],[109.54088112200009,33.21533322200003],[109.60295180000008,33.252266607000024],[109.66559377800007,33.252895918000036],[109.73019100300007,33.23404662300004],[109.81950752300008,33.23837976200008],[109.85654654700005,33.23957716600006],[109.95732863200004,33.19877472400003],[110.07414675500007,33.17569279800006],[110.10568208900008,33.180315257000075],[110.24628992700008,33.16783204400008],[110.34095966500007,33.17712324900003],[110.40183948200007,33.19240941500004],[110.43801877700008,33.20338861100004],[110.50513588100006,33.22372418400005],[110.52901905000004,33.24325403100005],[110.55631087700004,33.234478582000065],[110.57283990100007,33.19558744900007],[110.57733122800005,33.166399409000064],[110.61777633900005,33.131093339000074],[110.64674469000005,33.12209691500004],[110.66027241700004,33.11789391700006],[110.69295258400007,33.10732545500008],[110.72338893900007,33.114443126000026],[110.75704627200008,33.14898567600005],[110.80382836800004,33.16583177900003],[110.84513556000007,33.21274226500003],[110.88763523800009,33.20565801300006],[110.92359156300006,33.207415069000035],[110.93665041100007,33.245456932000025],[110.96719302900004,33.26488442800007],[111.00641987800009,33.26397186500003],[111.02598714900006,33.20466637200008],[111.04558708200005,33.18959775800005],[111.08583134700007,33.15855869000006],[111.10645764400005,33.12312491000006],[111.12818203100005,33.09829965600005],[111.16076349500008,33.075217674000044],[111.18353401700006,33.046838001000026],[111.19867391800005,33.02378664400004],[111.22028751400006,32.98124228000006],[111.22231968900007,32.93698026800007],[111.22170528100008,32.93257336100004],[111.21786711500005,32.905128766000075],[111.25025433400003,32.85192130900003],[111.28706610700004,32.838520294000034],[111.34438831000006,32.80377828400003],[111.38971898500006,32.766408891000026],[111.42294289000006,32.70339831000007],[111.47443311300009,32.62523172400006],[111.49919390300005,32.606509059000075],[111.52723317200008,32.59661830500005],[111.54359165700004,32.59819779000003]]]}},{"type":"Feature","properties":{"code":"CN042100","name":"Suizhou","label":"Suizhou · 随州市","type":"Prefecture-level city","parentCode":"CN-HB"},"geometry":{"type":"Polygon","coordinates":[[[113.68371895400003,32.398200228000064],[113.68672903200002,32.39802126500007],[113.70186639700012,32.366647958000044],[113.72026974000005,32.305067388000055],[113.72781079900005,32.27298455000005],[113.70432129100004,32.24695136500003],[113.72217998700012,32.20221160800003],[113.74136022300002,32.16452936100006],[113.74341675800008,32.12990761000003],[113.71230959800005,32.10050837800003],[113.69508487200005,32.09541750500006],[113.68733709900005,32.09312316000006],[113.70047425300004,32.067989483000076],[113.72871971000006,32.04515401500004],[113.74982576900004,32.034009541000046],[113.74293084800001,32.02087693800007],[113.72197953400007,32.00453393400005],[113.72749121800007,31.97691462000006],[113.77188113000011,31.956342207000034],[113.79344743600006,31.92832848200004],[113.80218144500009,31.901512027000024],[113.81362949900006,31.860437022000042],[113.85374725700001,31.812440234000064],[113.87537171500003,31.848262490000025],[113.89187581500005,31.86025804700006],[113.90778094200004,31.855421412000055],[113.91752495300011,31.798411848000057],[113.91678015700006,31.747873983000034],[113.92830142100001,31.711210622000067],[113.96504486300012,31.720905988000027],[113.97473262400001,31.75170072800006],[114.03208289100007,31.76793585200005],[114.05364859600002,31.80017994800005],[114.06060106300004,31.842568794000044],[114.08065055600002,31.86242958400004],[114.12818349200006,31.871785773000056],[114.15752721700005,31.859202624000034],[114.10169078900003,31.763838504000034],[114.10013923300005,31.735859358000027],[114.12069780200011,31.710548493000033],[114.12817609800004,31.681231767000043],[114.11905165600001,31.651758285000028],[114.11345710400008,31.61844044700007],[114.08793492400002,31.55291814000003],[114.08338349500002,31.508966732000033],[114.05402442100001,31.46194389200008],[114.01916619500003,31.447478825000076],[113.99117302600007,31.433097201000066],[113.94072903000006,31.42413945000004],[113.88984326800005,31.450621725000076],[113.86196783100002,31.466730520000056],[113.82526988600011,31.469318417000068],[113.77418350500011,31.45204496300005],[113.73867335200009,31.45555543900008],[113.68268452300003,31.467025771000067],[113.65041120100011,31.437100500000042],[113.62046323000004,31.417179359000045],[113.5816630810001,31.43067719800007],[113.54874771800007,31.451982420000036],[113.533739534,31.41185260000003],[113.49646030300005,31.417300055000055],[113.4582692240001,31.431494797000028],[113.42320966800003,31.445912836000048],[113.39166784500003,31.452265169000043],[113.34979451400011,31.444895948000067],[113.32137341500004,31.43218399700004],[113.31154932400011,31.399570494000045],[113.31394853200004,31.36439908500006],[113.27340651400004,31.348624267000048],[113.24063318100002,31.350375900000074],[113.19886674600002,31.366895837000072],[113.176107806,31.38933008300006],[113.15043559000003,31.416090075000056],[113.11414006200005,31.444842864000066],[113.0746529600001,31.447523844000045],[113.02853407500004,31.454745849000062],[112.96947422200003,31.453826553000056],[112.9171978600001,31.474109429000066],[112.87494340800004,31.478989307000063],[112.86580569000012,31.506158259000074],[112.87566910300006,31.536958011000024],[112.86106439600007,31.569959397000048],[112.82577223400006,31.578308347000075],[112.791149098,31.588974548000067],[112.76299353000002,31.614470075000042],[112.72677515900011,31.617274406000035],[112.70823799100003,31.663375685000062],[112.720125198,31.699030982000068],[112.7368132250001,31.733955382000033],[112.76780596300011,31.752990517000057],[112.79561670900011,31.779094720000046],[112.81922043800012,31.806350962000067],[112.84938507600009,31.82131293300006],[112.88862529100004,31.83533659300008],[112.93332161100011,31.836641471000064],[112.95277183700011,31.865518373000043],[112.95555297600004,31.901272334000055],[112.97576334400003,31.932882208000024],[112.99843200300006,31.968509011000037],[112.97211508300006,31.990176534000057],[112.95032882800001,32.028640636000034],[112.959026042,32.07195403700007],[112.99316231900002,32.09549173100004],[113.0118370140001,32.121234937000054],[112.99934638200011,32.14818695900004],[113.00621296400004,32.18196732200005],[113.01291341700005,32.21345715900003],[112.99916207500007,32.24605888100007],[112.995935153,32.27534494200006],[113.02502697500006,32.31125676700003],[113.04435105700009,32.34630598700005],[113.05316934200005,32.377722076000055],[113.05046514500009,32.40046513900006],[113.05236257700005,32.40056775800008],[113.08328429500011,32.386713248000035],[113.10555077600009,32.37212275600007],[113.1615615610001,32.409165259000076],[113.25389218900011,32.39230999000006],[113.2655342170001,32.34600384500004],[113.29521039500003,32.29046924900007],[113.36545204800007,32.26067372000006],[113.39993090700011,32.26083867400007],[113.43308155000011,32.28849601300004],[113.45947940300005,32.30653714400006],[113.4879077920001,32.31921518200005],[113.53630243200007,32.315493536000076],[113.57454266500008,32.331477445000075],[113.66195641000002,32.39948306200006],[113.68371895400003,32.398200228000064]]]}},{"type":"Feature","properties":{"code":"CN042110","name":"Tianmen","label":"Tianmen · 天门市[1]","type":"Sub-prefecture-level city","parentCode":"CN-HB"},"geometry":{"type":"Polygon","coordinates":[[[113.46388583600003,30.375898989000063],[113.44178120600009,30.362869698000054],[113.4202322110001,30.363503223000066],[113.39868313200009,30.364130560000035],[113.37768209400008,30.37842531900003],[113.35666535400003,30.392716181000026],[113.33564910500002,30.407004905000065],[113.3146251930001,30.421285045000047],[113.29306058000009,30.42189515800004],[113.27097919100004,30.40883239300007],[113.24939937800002,30.409435015000042],[113.20577647100004,30.39695766600005],[113.18421971900011,30.39754999400003],[113.14110637700003,30.39871607400005],[113.12005196000007,30.41296604000007],[113.12155081000003,30.453972759000067],[113.09997116400007,30.45454754600007],[113.07841458500002,30.45511775600005],[113.0563480730001,30.442015765000065],[113.03477599900009,30.442578470000058],[113.0578241720001,30.48302085000006],[113.03673137700002,30.497251492000032],[113.01562343400008,30.511475954000048],[112.99403649500005,30.512031027000035],[112.97244927100007,30.512582139000074],[112.9292750400001,30.513674680000065],[112.92387360700002,30.536710087000074],[112.88747773000011,30.555748935000054],[112.86542647500005,30.54261329900004],[112.86496244000011,30.52894831900005],[112.86450572700005,30.51528059000003],[112.885636567,30.50108122000006],[112.86359307600003,30.487944078000055],[112.8415568260001,30.474802477000026],[112.81997723000006,30.475325676000068],[112.79929545200002,30.503180153000073],[112.80018563500005,30.53051642400004],[112.77904738000007,30.54469932300003],[112.75744493800005,30.545211089000077],[112.73585014000003,30.54571870600006],[112.71381404800002,30.532556930000055],[112.69221928700006,30.53305662300005],[112.64860370600002,30.520375803000036],[112.6719024140001,30.57455301600004],[112.69523928700005,30.628722251000056],[112.65199640300011,30.62971297300004],[112.60875352000005,30.63068335500003],[112.60144112100011,30.63899656500007],[112.5700513920001,30.657592647000058],[112.55494893900004,30.682773032000057],[112.5853262380001,30.74970779000006],[112.59736898000006,30.743897693000065],[112.6316827280001,30.74065127700004],[112.65581154400002,30.758255027000075],[112.68049898400011,30.784184848000052],[112.70873469800006,30.801716329000044],[112.75362340200002,30.837860327000044],[112.78197944600004,30.82076440900005],[112.7958969870001,30.777425077000032],[112.81931107700007,30.754813682000076],[112.81114641300007,30.69892939700003],[112.87793408300001,30.735381674000052],[112.9168235300001,30.75125526200003],[112.94856295800002,30.770737602000054],[112.99774508700011,30.788792240000078],[113.03812938500005,30.789343948000067],[113.0452804250001,30.820343539000078],[113.07468986300012,30.837210927000058],[113.11291186500011,30.81020464100004],[113.16282360200012,30.818601025000078],[113.18831347300011,30.84081864500007],[113.2350595470001,30.879032788000075],[113.27202859800002,30.90667128000007],[113.30787207700007,30.91856970300006],[113.33147049200011,30.893632486000058],[113.37287968400005,30.826570434000075],[113.38838568800008,30.789894180000033],[113.4040361750001,30.741638215000023],[113.40376619500012,30.709696363000035],[113.40618943200002,30.67253815400005],[113.42191212400007,30.642961608000064],[113.4315591190001,30.605003600000032],[113.42419491300006,30.573613015000035],[113.408342059,30.542730593000044],[113.4155132620001,30.503656799000055],[113.4260499080001,30.469058181000037],[113.46388583600003,30.375898989000063]]]}},{"type":"Feature","properties":{"code":"CN042120","name":"Wuhan","label":"Wuhan · 武汉市","type":"Prefecture-level city","parentCode":"CN-HB"},"geometry":{"type":"Polygon","coordinates":[[[114.43966943500004,31.319153275000076],[114.41054377600005,31.276849339000023],[114.40654089300006,31.244821159000026],[114.41986169100005,31.217941026000062],[114.45679600100004,31.203248630000076],[114.4831191290001,31.171574271000054],[114.49668457000007,31.13131287400006],[114.5106628210001,31.089186535000067],[114.51270002600006,31.060995511000044],[114.51239990200008,31.029241252000077],[114.535049189,30.99956388000004],[114.56283775300005,30.976074358000062],[114.58209994900005,30.95208311500005],[114.62586055400004,30.93882248600005],[114.6626766060001,30.942019765000055],[114.69437241300011,30.956984756000054],[114.69081352700005,30.994012756000075],[114.73896934800007,30.982790815000044],[114.76770157200008,31.00894450800007],[114.79989736300001,30.98055869700005],[114.8196621400001,30.95741834300003],[114.85434502200008,30.96020978000007],[114.86359994800011,30.98874317600007],[114.87341848200003,31.01770539300003],[114.90761880600007,31.01267716500007],[114.94114206200004,31.005372666000028],[114.96639568500007,31.026133213000037],[114.99085981100006,30.99396413100004],[115.00378132500009,30.948121797000056],[115.02998626400006,30.910775973000057],[115.05579067400004,30.89187086800007],[115.05945366100002,30.858959214000038],[115.02271077300009,30.848507122000058],[114.99329129400007,30.86068793700008],[114.96052343500003,30.854153198000063],[114.95098130400004,30.821488817000045],[114.91221863700002,30.812034159000063],[114.87844686900007,30.814286151000033],[114.86308601200005,30.789291261000074],[114.8377255480001,30.756991218000053],[114.79739326300012,30.747118899000043],[114.7821082160001,30.72302842000005],[114.78835817100003,30.695979175000048],[114.81147075400008,30.668041948000052],[114.808500202,30.618052641000077],[114.77125942400005,30.599047944000063],[114.74889600000006,30.586266627000043],[114.70496078600002,30.574353578000057],[114.66102590500009,30.562424366000073],[114.61711318700009,30.55047366900004],[114.56614045000003,30.546064629000057],[114.57431295600009,30.515232617000038],[114.58594729700008,30.480077367000035],[114.58613449500001,30.44825886600006],[114.58390249500007,30.41102901000005],[114.57815571000003,30.37674572700007],[114.57639842700007,30.347325459000047],[114.57897587900004,30.319990586000074],[114.60215593500004,30.29391802400005],[114.57387327000004,30.278751243000045],[114.53982464700005,30.272629988000062],[114.51251822200004,30.256015692000062],[114.50035711100008,30.219269608000047],[114.50587579400008,30.17887395100007],[114.51028061700003,30.12884084700005],[114.51613087500004,30.094415566000066],[114.53176502100007,30.034962019000034],[114.53436797300003,30.003078665000032],[114.49084397600006,30.00342392300007],[114.45357027200009,30.012203010000064],[114.41942334700002,30.02957999000006],[114.38548712500005,30.05108818900004],[114.35509334900007,30.06134175300008],[114.31607263900003,30.048941608000064],[114.28849809000008,30.03459581000004],[114.23869691900006,30.007470564000073],[114.1826007630001,30.006721008000056],[114.18266642300011,30.07393393500007],[114.16186315200002,30.088374594000072],[114.1202492970001,30.117249772000037],[114.09943096100005,30.131680109000058],[114.07925972800001,30.159777833000078],[114.05906508300006,30.187868665000053],[114.01672071700011,30.203029165000032],[114.0194856390001,30.20464485800005],[113.98036436000007,30.231660993000048],[113.9386211750001,30.260461192000037],[113.91772660900006,30.274853303000043],[113.89558388900002,30.261904668000057],[113.87282497800004,30.23528354900003],[113.85007338500009,30.20865243000003],[113.83149183600005,30.154500299000063],[113.78090869800008,30.22175041400004],[113.74026317900007,30.22481969900008],[113.74582344300006,30.252999612000053],[113.76474271300003,30.278887522000048],[113.74487036100004,30.303330431000063],[113.72632905700004,30.33247194000006],[113.71539947600002,30.361631509000063],[113.68476654100004,30.38927377400006],[113.62971614100002,30.435150639000028],[113.70468083500009,30.457226194000043],[113.74236268200002,30.46572935100005],[113.77791844800004,30.48677783000005],[113.8070074200001,30.51701397100004],[113.83858765900004,30.534679450000056],[113.86286669300011,30.555106522000074],[113.88797543300007,30.589156182000067],[113.8944326410001,30.62063264300008],[113.89558829100008,30.649596684000073],[113.90362820700011,30.672193641000035],[113.8738735610001,30.708543001000066],[113.87783728800002,30.74314715400004],[113.90110985900003,30.764266232000068],[113.89935505100004,30.79215783500007],[113.91343630200004,30.767621568000038],[113.93446038800005,30.753240960000028],[113.95610860600004,30.75251127000007],[113.97774136500004,30.751780346000032],[114.02103753400002,30.75030774100003],[114.10758377700006,30.747311885000045],[114.14048834300002,30.755275056000073],[114.16956801300012,30.82378575200005],[114.16427700600002,30.852587804000052],[114.1657040990001,30.89764811400005],[114.15873183500003,30.934355424000046],[114.16421338600003,30.96633046100004],[114.16178621400002,31.00880160400004],[114.15860613400002,31.037492306000047],[114.16876106300003,31.077071439000065],[114.17470037300006,31.10763881500003],[114.18384010000011,31.138051033000067],[114.20178329700002,31.16390903200005],[114.21601555500001,31.18993832700005],[114.189216654,31.21512477300007],[114.18418897200002,31.248959786000057],[114.2014422740001,31.281289419000075],[114.20672800300008,31.30911145700003],[114.22327643400001,31.347448498000063],[114.24448802000006,31.373603355000057],[114.2860536820001,31.373020410000038],[114.311005926,31.352507468000056],[114.34341760600012,31.33209273700004],[114.38316991500005,31.31913291500007],[114.43966943500004,31.319153275000076]]]}},{"type":"Feature","properties":{"code":"CN042130","name":"Xiangyang","label":"Xiangyang · 襄阳市","type":"Prefecture-level city","parentCode":"CN-HB"},"geometry":{"type":"Polygon","coordinates":[[[113.05046514500009,32.40046513900006],[113.05316934200005,32.377722076000055],[113.04435105700009,32.34630598700005],[113.02502697500006,32.31125676700003],[112.995935153,32.27534494200006],[112.99916207500007,32.24605888100007],[113.01291341700005,32.21345715900003],[113.00621296400004,32.18196732200005],[112.99934638200011,32.14818695900004],[113.0118370140001,32.121234937000054],[112.99316231900002,32.09549173100004],[112.959026042,32.07195403700007],[112.95032882800001,32.028640636000034],[112.97211508300006,31.990176534000057],[112.99843200300006,31.968509011000037],[112.97576334400003,31.932882208000024],[112.95555297600004,31.901272334000055],[112.95277183700011,31.865518373000043],[112.93332161100011,31.836641471000064],[112.88862529100004,31.83533659300008],[112.84938507600009,31.82131293300006],[112.81922043800012,31.806350962000067],[112.79561670900011,31.779094720000046],[112.76780596300011,31.752990517000057],[112.7368132250001,31.733955382000033],[112.720125198,31.699030982000068],[112.70823799100003,31.663375685000062],[112.72677515900011,31.617274406000035],[112.70634318400005,31.586493705000066],[112.68110682800011,31.56185761300003],[112.68357089400001,31.520570617000033],[112.68371078300004,31.491886828000077],[112.65043234200004,31.496773688000076],[112.61476174300003,31.513305767000077],[112.5795459850001,31.521014446000038],[112.55253792000008,31.539392639000027],[112.5129852550001,31.56159625300006],[112.48013413400008,31.56548107100008],[112.44492460400011,31.551043208000067],[112.41839755100011,31.531130590000032],[112.394552696,31.511097452000058],[112.3467102410001,31.507933123000043],[112.31791212400003,31.525029088000053],[112.27811169600011,31.553709897000033],[112.24019937300011,31.54776317200003],[112.198273717,31.538347153000075],[112.16587126600007,31.519261397000037],[112.14830031100007,31.481941307000056],[112.08961430500005,31.467154444000073],[112.05922937000003,31.450502069000038],[112.01933638700007,31.443962206000037],[111.98117340800007,31.448974563000036],[111.93484327600004,31.47691257300005],[111.91886933100005,31.444481558000064],[111.91605010500007,31.407161591000033],[111.90975405600005,31.373708393000072],[111.90228937500007,31.33212182300008],[111.91053648900004,31.303230727000027],[111.92566480300007,31.27354518100003],[111.88060602500008,31.253536198000063],[111.84667844800003,31.248158183000044],[111.81040662400005,31.23818873400006],[111.77933512200008,31.259747778000076],[111.74488491700004,31.286465347000046],[111.71805775400009,31.307798640000044],[111.71666096100006,31.336382064000077],[111.70653630100009,31.370387691000076],[111.66485208700004,31.376721358000054],[111.61226592600008,31.379839911000033],[111.57728426500006,31.366119840000067],[111.55644556900006,31.338905445000023],[111.52290372400006,31.313147150000077],[111.49055324100004,31.307625375000043],[111.45633287300006,31.307263970000065],[111.42934231800007,31.321837997000046],[111.40861835700008,31.34353333300004],[111.38770250100004,31.379911441000047],[111.33457896300007,31.364516344000037],[111.29597347900005,31.370181239000033],[111.27242073100007,31.394956406000063],[111.24694019000009,31.432177225000032],[111.22797799300008,31.46368229600006],[111.19031072300004,31.467897821000065],[111.16706200600004,31.44395969800007],[111.13634457300009,31.459470735000025],[111.10647019300006,31.442297559000053],[111.07381726200003,31.43304560400003],[111.03639649700006,31.432641258000046],[111.01973078000009,31.459463026000037],[111.02244847700007,31.488754266000058],[111.02143163700003,31.51914503200004],[111.00369914600009,31.558537898000054],[110.96610364700007,31.55724645400005],[110.92247273200007,31.581874475000063],[110.93506839500009,31.606679778000057],[110.95576552200004,31.641234128000065],[110.94001593300004,31.665181113000074],[110.90702026800005,31.668185987000072],[110.86307411100006,31.684823143000074],[110.85695740000006,31.718974583000033],[110.84427351600004,31.751075627000034],[110.81706541300008,31.772209076000024],[110.77759476300008,31.784571095000047],[110.75451134800005,31.81430371700003],[110.78301178600009,31.847820352000042],[110.82069708400007,31.851588698000057],[110.86734657100004,31.862393604000033],[110.90237391300008,31.87634014400004],[110.93905764900006,31.860789186000034],[110.96732582500005,31.838163703000077],[110.99180211900006,31.885123812000074],[110.96613544300004,31.92747991400006],[110.95810013600004,31.958623490000036],[110.96694671400007,31.99565082400005],[110.98800021400007,32.020296820000056],[111.02815713500007,32.01938060900005],[111.05197875800008,31.991275508000058],[111.08599178300005,32.006211946000064],[111.10848848400008,32.03821361700005],[111.07432662400004,32.054294850000076],[111.06329158200003,32.081517123000026],[111.11898578300008,32.104109649000065],[111.15904984200006,32.12989229200008],[111.19535295600008,32.15043346700003],[111.21813043300006,32.17159127700006],[111.22586655600008,32.20492647900005],[111.22164752500004,32.23788868400004],[111.20460868300006,32.26398724400008],[111.18700877400005,32.297850281000024],[111.20557160500005,32.32057030200008],[111.24095731900007,32.333351599000025],[111.28257368800007,32.34995065100003],[111.31338460100005,32.36751124400007],[111.34490162000009,32.38923701900006],[111.36449346700005,32.41102706500004],[111.40531581800008,32.41776115700003],[111.44132211200008,32.42514980800007],[111.45306957300005,32.45287284200003],[111.51052794100008,32.50454740300006],[111.53366945400006,32.527901464000024],[111.54569947700008,32.56652428800004],[111.54359165700004,32.59819779000003],[111.55319956200009,32.59912671200004],[111.58256726500008,32.621095084000046],[111.61291875600006,32.62976400500003],[111.64898794800007,32.621681601000034],[111.66582225000008,32.61790915000006],[111.69799618200005,32.588474259000066],[111.72790560100009,32.549294735000046],[111.75239620100007,32.51192376000006],[111.76947030600007,32.49053916300005],[111.81571114500008,32.47158660700006],[111.85135523300005,32.47306958200005],[111.93527906700007,32.44843667400005],[111.95130422400007,32.435010893000026],[111.96928274700008,32.42919926600007],[111.97387833400006,32.427714868000066],[111.98576410700008,32.42937925800004],[112.0130141080001,32.45037907300008],[112.04756902600002,32.45093292000007],[112.07206661300006,32.426775140000075],[112.08774817100004,32.39029999700006],[112.13933422700006,32.37735948300008],[112.160978494,32.38244794600007],[112.193998093,32.364998902000025],[112.20378513300011,32.359827050000035],[112.24202839300006,32.32396078600004],[112.31774977200007,32.34079301300005],[112.36006687300005,32.35710542800007],[112.39791016200002,32.36283177400003],[112.44803597700002,32.357448275000024],[112.46355065500006,32.355776493000064],[112.49059658500005,32.36212832000007],[112.52420959300002,32.37001768500005],[112.55782167300003,32.37928892700006],[112.61458545900007,32.35987993200007],[112.67669886600004,32.33946935600005],[112.75658089300009,32.343555243000026],[112.85121655500006,32.38012809700007],[112.92242901100008,32.38158835000007],[112.98030988800008,32.36641414400003],[113.0037505900001,32.39789414000006],[113.05046514500009,32.40046513900006]]]}},{"type":"Feature","properties":{"code":"CN042140","name":"Xianning","label":"Xianning · 咸宁市","type":"Prefecture-level city","parentCode":"CN-HB"},"geometry":{"type":"Polygon","coordinates":[[[114.53436797300003,30.003078665000032],[114.54809233500009,29.95117016000006],[114.58981300100004,29.947208300000057],[114.62512605400002,29.94170961800006],[114.66196373200012,29.93520011800007],[114.69792867100011,29.923186317000045],[114.72566582000002,29.870977094000068],[114.7178308230001,29.837230489000035],[114.72176340600004,29.79871365400004],[114.73260830600009,29.770450809000067],[114.76172045400006,29.750456488000054],[114.7949350560001,29.737622981000072],[114.82304064000004,29.71859401200004],[114.85533937100001,29.708099866000055],[114.88099745400007,29.69194845100003],[114.89644986200005,29.655099902000075],[114.9046250240001,29.619103687000063],[114.92245676800007,29.578883777000044],[114.9400695270001,29.56070743600003],[114.9377765810001,29.559729735000076],[114.92898152600003,29.550236433000066],[114.9383149140001,29.526747439000076],[114.94085248800002,29.514184847000024],[114.92686080600004,29.504874947000076],[114.87322540000002,29.517433077000078],[114.86199701900011,29.500002162000044],[114.85555913900009,29.47349381500004],[114.86327861900008,29.459863391000056],[114.8983055330001,29.473794776000034],[114.90339741000003,29.470944708000047],[114.90772933200003,29.45208193700006],[114.88115691100006,29.41825429100004],[114.8461452890001,29.404316533000042],[114.73597508400007,29.385774308000066],[114.6895873200001,29.396229171000073],[114.63686856400011,29.405086967000045],[114.60067125100011,29.410717644000044],[114.55378689500003,29.38548816900004],[114.51324127900011,29.361823987000037],[114.49957449200008,29.34426182800007],[114.495653532,29.33921147600006],[114.4555062600001,29.324422192000043],[114.41981993400009,29.316613698000026],[114.38288709000005,29.329329587000075],[114.35074505500006,29.33208860800005],[114.31418253000004,29.336814546000028],[114.2969224530001,29.339040150000073],[114.27105121300008,29.34248008700007],[114.2290343620001,29.33212494000003],[114.23148444000003,29.28749868600005],[114.22311955700002,29.25922537200006],[114.20707216800008,29.247215863000065],[114.1837404050001,29.234518200000025],[114.13173734000009,29.205701615000066],[114.07949443100006,29.208617024000034],[114.06747748700002,29.209284022000077],[114.03408259500009,29.204859688000056],[114.03711101800002,29.17358001300005],[114.00170586900003,29.141567414000065],[113.96575912500009,29.122931710000046],[113.9378311700001,29.12546059600004],[113.925225651,29.09103294500005],[113.92184527000006,29.07361516000003],[113.8904130630001,29.07412283000008],[113.88358888200003,29.05646972900007],[113.85986147400001,29.029452866000042],[113.83303013400007,29.03282309100007],[113.80679013700001,29.054002831000048],[113.78775162200009,29.07410023400007],[113.78650971100001,29.09908880300003],[113.78049410200003,29.105483096000057],[113.75297000400008,29.120436961000053],[113.74926963200005,29.102703099000053],[113.73718183200003,29.081609270000058],[113.72765318300003,29.075607137000077],[113.71646908600007,29.07237746800007],[113.7077687310001,29.06986133600003],[113.70455838400005,29.09935745100006],[113.67353674900005,29.101900042000068],[113.66045026800009,29.081714903000034],[113.63212901700001,29.10468538500004],[113.6482945680001,29.12390407600003],[113.60230295200006,29.146395695000024],[113.61764880600003,29.172768177000023],[113.64822581800001,29.18807625100004],[113.65712969300012,29.206572540000025],[113.6463058280001,29.225550114000043],[113.6198393740001,29.243115597000042],[113.5741997450001,29.276514787000053],[113.56153140900005,29.270933494000076],[113.56994802300005,29.276370135000036],[113.60569532300008,29.322751199000038],[113.63065314200003,29.356010043000026],[113.6544702330001,29.385727915000075],[113.67461020200005,29.396821405000026],[113.68407413300008,29.409014023000054],[113.712611304,29.44577083300004],[113.72291135800003,29.474019954000028],[113.7022187340001,29.48216184900008],[113.66735011700007,29.495862145000046],[113.6414027400001,29.499155875000042],[113.59505575200001,29.51717904700007],[113.60282645900008,29.532135913000047],[113.66903598500005,29.581311266000057],[113.6645866560001,29.605459756000073],[113.63419960800002,29.667620296000052],[113.59625465700003,29.689888023000037],[113.55272410100008,29.700696613000048],[113.5327325940001,29.69581491400004],[113.51581296000006,29.68907716600006],[113.50245306400006,29.731219511000063],[113.4722017470001,29.770517907000055],[113.4665204050001,29.777884478000033],[113.51653289700005,29.82204706500005],[113.5604833640001,29.84810522500004],[113.5824660510001,29.861125431000062],[113.62646225000003,29.887160970000025],[113.66930119900007,29.885813463000034],[113.73416144800001,29.897440638000035],[113.79904420000003,29.90903355300003],[113.867032386,29.988980153000057],[113.88910648900003,30.001938598000038],[113.93326248300002,30.02784685900008],[113.97680946300011,30.040064414000028],[114.02036393700007,30.052261169000076],[114.06459576300006,30.078116917000045],[114.06524294300004,30.091790454000034],[114.02359856200007,30.120630909000056],[113.9819084070001,30.14945104800006],[113.96106736900003,30.163857782000036],[113.87448306800002,30.153077575000054],[113.83149183600005,30.154500299000063],[113.85007338500009,30.20865243000003],[113.87282497800004,30.23528354900003],[113.89558388900002,30.261904668000057],[113.91772660900006,30.274853303000043],[113.9386211750001,30.260461192000037],[113.98036436000007,30.231660993000048],[114.0194856390001,30.20464485800005],[114.01672071700011,30.203029165000032],[114.05906508300006,30.187868665000053],[114.07925972800001,30.159777833000078],[114.09943096100005,30.131680109000058],[114.1202492970001,30.117249772000037],[114.16186315200002,30.088374594000072],[114.18266642300011,30.07393393500007],[114.1826007630001,30.006721008000056],[114.23869691900006,30.007470564000073],[114.28849809000008,30.03459581000004],[114.31607263900003,30.048941608000064],[114.35509334900007,30.06134175300008],[114.38548712500005,30.05108818900004],[114.41942334700002,30.02957999000006],[114.45357027200009,30.012203010000064],[114.49084397600006,30.00342392300007],[114.53436797300003,30.003078665000032]]]}},{"type":"Feature","properties":{"code":"CN042150","name":"Xiantao","label":"Xiantao · 仙桃市[1]","type":"Sub-prefecture-level city","parentCode":"CN-HB"},"geometry":{"type":"Polygon","coordinates":[[[113.46388583600003,30.375898989000063],[113.50810271900002,30.401948967000067],[113.50865810900007,30.415616973000056],[113.53135591900002,30.44230152600005],[113.5534909800001,30.45531659100004],[113.57563371300012,30.46832269400005],[113.59662718800007,30.453997100000038],[113.62971614100002,30.435150639000028],[113.68476654100004,30.38927377400006],[113.71539947600002,30.361631509000063],[113.72632905700004,30.33247194000006],[113.74487036100004,30.303330431000063],[113.76474271300003,30.278887522000048],[113.74582344300006,30.252999612000053],[113.74026317900007,30.22481969900008],[113.78090869800008,30.22175041400004],[113.83149183600005,30.154500299000063],[113.78253456700008,30.142406063000067],[113.7383636290001,30.116446756000073],[113.69480880800006,30.104146804000038],[113.65184769600012,30.105501206000042],[113.58684328300001,30.093832899000063],[113.54388975400002,30.09514979200003],[113.5014994600001,30.110124364000058],[113.43760594500009,30.125724596000055],[113.37422970800003,30.154962417000036],[113.35274131100005,30.15558357200007],[113.30974980300005,30.15681444100005],[113.28772913700004,30.14374837300005],[113.26571587700005,30.130675589000077],[113.22273944400001,30.131874465000067],[113.17976318900003,30.13305974800005],[113.1367869610001,30.13422698900007],[113.09381045300006,30.135376197000028],[113.05082671000002,30.13651423700003],[113.03029723800012,30.16442965500005],[113.00880927000003,30.164987542000063],[112.98730560600006,30.165541881000024],[112.96621683100011,30.298916983000026],[112.9446858450001,30.319878919000075],[112.9211380480001,30.34973422400003],[112.93421920900005,30.39059751900004],[112.95082610800011,30.422538669000062],[112.9496338030001,30.46569839500006],[112.92607537000004,30.49995287200005],[112.92387360700002,30.536710087000074],[112.9292750400001,30.513674680000065],[112.97244927100007,30.512582139000074],[112.99403649500005,30.512031027000035],[113.01562343400008,30.511475954000048],[113.03673137700002,30.497251492000032],[113.0578241720001,30.48302085000006],[113.03477599900009,30.442578470000058],[113.0563480730001,30.442015765000065],[113.07841458500002,30.45511775600005],[113.09997116400007,30.45454754600007],[113.12155081000003,30.453972759000067],[113.12005196000007,30.41296604000007],[113.14110637700003,30.39871607400005],[113.18421971900011,30.39754999400003],[113.20577647100004,30.39695766600005],[113.24939937800002,30.409435015000042],[113.27097919100004,30.40883239300007],[113.29306058000009,30.42189515800004],[113.3146251930001,30.421285045000047],[113.33564910500002,30.407004905000065],[113.35666535400003,30.392716181000026],[113.37768209400008,30.37842531900003],[113.39868313200009,30.364130560000035],[113.4202322110001,30.363503223000066],[113.44178120600009,30.362869698000054],[113.46388583600003,30.375898989000063]]]}},{"type":"Feature","properties":{"code":"CN042160","name":"Xiaogan","label":"Xiaogan · 孝感市","type":"Prefecture-level city","parentCode":"CN-HB"},"geometry":{"type":"Polygon","coordinates":[[[114.53747521100001,31.581288568000048],[114.51979487400001,31.561868626000035],[114.50848247900001,31.533900781000057],[114.51268178300006,31.49688702800006],[114.49680284800002,31.47235977100007],[114.48938043500004,31.437755654000057],[114.45571209200011,31.409953606000045],[114.44333866600005,31.37235913300003],[114.45182956700012,31.344334993000075],[114.43966943500004,31.319153275000076],[114.38316991500005,31.31913291500007],[114.34341760600012,31.33209273700004],[114.311005926,31.352507468000056],[114.2860536820001,31.373020410000038],[114.24448802000006,31.373603355000057],[114.22327643400001,31.347448498000063],[114.20672800300008,31.30911145700003],[114.2014422740001,31.281289419000075],[114.18418897200002,31.248959786000057],[114.189216654,31.21512477300007],[114.21601555500001,31.18993832700005],[114.20178329700002,31.16390903200005],[114.18384010000011,31.138051033000067],[114.17470037300006,31.10763881500003],[114.16876106300003,31.077071439000065],[114.15860613400002,31.037492306000047],[114.16178621400002,31.00880160400004],[114.16421338600003,30.96633046100004],[114.15873183500003,30.934355424000046],[114.1657040990001,30.89764811400005],[114.16427700600002,30.852587804000052],[114.16956801300012,30.82378575200005],[114.14048834300002,30.755275056000073],[114.10758377700006,30.747311885000045],[114.02103753400002,30.75030774100003],[113.97774136500004,30.751780346000032],[113.95610860600004,30.75251127000007],[113.93446038800005,30.753240960000028],[113.91343630200004,30.767621568000038],[113.89935505100004,30.79215783500007],[113.90110985900003,30.764266232000068],[113.87783728800002,30.74314715400004],[113.8738735610001,30.708543001000066],[113.90362820700011,30.672193641000035],[113.89558829100008,30.649596684000073],[113.8944326410001,30.62063264300008],[113.88797543300007,30.589156182000067],[113.86286669300011,30.555106522000074],[113.83858765900004,30.534679450000056],[113.8070074200001,30.51701397100004],[113.77791844800004,30.48677783000005],[113.74236268200002,30.46572935100005],[113.70468083500009,30.457226194000043],[113.62971614100002,30.435150639000028],[113.59662718800007,30.453997100000038],[113.57563371300012,30.46832269400005],[113.5534909800001,30.45531659100004],[113.53135591900002,30.44230152600005],[113.50865810900007,30.415616973000056],[113.50810271900002,30.401948967000067],[113.46388583600003,30.375898989000063],[113.4260499080001,30.469058181000037],[113.4155132620001,30.503656799000055],[113.408342059,30.542730593000044],[113.42419491300006,30.573613015000035],[113.4315591190001,30.605003600000032],[113.42191212400007,30.642961608000064],[113.40618943200002,30.67253815400005],[113.40376619500012,30.709696363000035],[113.4040361750001,30.741638215000023],[113.38838568800008,30.789894180000033],[113.37287968400005,30.826570434000075],[113.33147049200011,30.893632486000058],[113.30787207700007,30.91856970300006],[113.29313426700003,30.945183633000056],[113.30127886700006,30.971396860000027],[113.33162437200008,30.989913976000025],[113.35812243300006,31.00728742700005],[113.39389074700011,31.04174183400005],[113.43274167000004,31.057135729000038],[113.44482466200009,31.08469076700004],[113.46841743200002,31.105756798000073],[113.5035931220001,31.13714359900007],[113.46340095800008,31.182844122000063],[113.45692522900003,31.21785485600003],[113.43871024400005,31.24844093300004],[113.40526851700008,31.270618504000026],[113.37810155600005,31.299372969000046],[113.34027920400001,31.308883851000076],[113.31694767800002,31.333292026000038],[113.31394853200004,31.36439908500006],[113.31154932400011,31.399570494000045],[113.32137341500004,31.43218399700004],[113.34979451400011,31.444895948000067],[113.39166784500003,31.452265169000043],[113.42320966800003,31.445912836000048],[113.4582692240001,31.431494797000028],[113.49646030300005,31.417300055000055],[113.533739534,31.41185260000003],[113.54874771800007,31.451982420000036],[113.5816630810001,31.43067719800007],[113.62046323000004,31.417179359000045],[113.65041120100011,31.437100500000042],[113.68268452300003,31.467025771000067],[113.73867335200009,31.45555543900008],[113.77418350500011,31.45204496300005],[113.82526988600011,31.469318417000068],[113.86196783100002,31.466730520000056],[113.88984326800005,31.450621725000076],[113.94072903000006,31.42413945000004],[113.99117302600007,31.433097201000066],[114.01916619500003,31.447478825000076],[114.05402442100001,31.46194389200008],[114.08338349500002,31.508966732000033],[114.08793492400002,31.55291814000003],[114.11345710400008,31.61844044700007],[114.11905165600001,31.651758285000028],[114.12817609800004,31.681231767000043],[114.12069780200011,31.710548493000033],[114.10013923300005,31.735859358000027],[114.10169078900003,31.763838504000034],[114.15752721700005,31.859202624000034],[114.17459221400009,31.85188792300005],[114.20754579700008,31.818153434000067],[114.23143832400001,31.79885667800005],[114.29746286700004,31.762382312000057],[114.35256915700006,31.748367604000066],[114.39751759700005,31.747936005000042],[114.43181310200009,31.748693409000055],[114.49315423200005,31.75571734500005],[114.52554874700002,31.761826765000023],[114.5482822130001,31.767336777000025],[114.55072935900012,31.764992044000053],[114.56267683200008,31.753585160000057],[114.559710343,31.710204459000067],[114.54594063100001,31.664489177000064],[114.52942130300005,31.628617143000042],[114.53073694000011,31.58509361600005],[114.53747521100001,31.581288568000048]]]}},{"type":"Feature","properties":{"code":"CN042170","name":"Yichang","label":"Yichang · 宜昌市","type":"Prefecture-level city","parentCode":"CN-HB"},"geometry":{"type":"Polygon","coordinates":[[[111.84667844800003,31.248158183000044],[111.86661413700006,31.219442068000035],[111.89879297000004,31.169182964000072],[111.90284776900006,31.130143029000067],[111.89920337000007,31.096077655000045],[111.90449801900007,31.060696162000056],[111.92723221100005,31.041177830000038],[111.95677156400006,31.020433827000033],[111.98021711600006,30.996278423000035],[111.99554892500004,30.970201119000023],[111.99981301800005,30.937734963000025],[111.99581230800004,30.900591443000053],[112.00434022700006,30.861061122000024],[112.02455327700011,30.81458027900004],[112.03594342300005,30.779566763000048],[112.03520231400012,30.745124193000038],[112.04034301700005,30.711780342000054],[112.05796729400004,30.662277800000027],[112.00291152800003,30.64113333100005],[111.96544487000006,30.61598575200003],[111.96147026700004,30.586128522000024],[111.96188265800004,30.559346426000047],[111.95156711300007,30.531274620000033],[111.91893475000006,30.525412850000066],[111.88671105900005,30.499121557000024],[111.87370083800005,30.466364017000046],[111.88160322100003,30.44010340500006],[111.91617885900007,30.44553217200007],[111.94608599300005,30.433986152000045],[111.94642338000006,30.40529937900004],[111.95309727100005,30.368986060000054],[111.97671890500004,30.343499033000057],[112.00743928300005,30.322782837000034],[112.01685635800004,30.26095298200005],[111.95637048800006,30.27292113900006],[111.92844495400004,30.29627322600004],[111.91522832700008,30.328212845000053],[111.89074856400003,30.348662647000026],[111.87199160600005,30.318099661000076],[111.84575084700003,30.302163135000058],[111.80457454000003,30.299801140000056],[111.75456283100004,30.316755542000067],[111.74098279800006,30.344580982000025],[111.74114100800006,30.37318846100004],[111.72984498300008,30.404146608000076],[111.69236859200004,30.394697102000066],[111.65234380800007,30.377985211000066],[111.61482455100008,30.35105076600007],[111.60806196900006,30.319151029000068],[111.59607144200004,30.28842972600006],[111.56687676600006,30.26758528700003],[111.58222351100005,30.24149776300004],[111.56756265300004,30.203612448000058],[111.56398799300007,30.166682079000054],[111.56382360400005,30.13568592300004],[111.53998622300008,30.114050957000075],[111.50706181300006,30.09929212800006],[111.45994320900007,30.09441085000003],[111.42823256200006,30.10181529500005],[111.39426201800006,30.11625013400004],[111.36016375000008,30.127863872000034],[111.32991331300008,30.11391057000003],[111.32893668400004,30.07745453700005],[111.30981565100006,30.04351974100007],[111.27848596300004,30.037894730000062],[111.26402424100007,29.997717959000056],[111.23423289600004,30.01943499600003],[111.18920684300008,30.03201995300003],[111.14520311900009,30.04280876300004],[111.09382863000008,30.044699068000057],[111.03196712200008,30.036800906000053],[110.94704739500008,30.016442848000054],[110.91348986400004,30.04136104300005],[110.86096937800005,30.125845500000025],[110.83366959900007,30.134730988000058],[110.78121925200008,30.12581738600005],[110.71830795400007,30.101752781000073],[110.70051611400004,30.087502138000048],[110.71424154800007,30.058178093000038],[110.67234891800007,30.042111264000027],[110.65870717600006,30.04564502900007],[110.63557076200004,30.062495566000052],[110.55172564900005,30.054300202000036],[110.49514621600008,30.043467131000057],[110.46688851500005,30.035371290000057],[110.48584883100006,30.01909706200007],[110.42306847000003,29.97898566600003],[110.38368115200007,29.96548967500007],[110.34635239000005,29.962998060000075],[110.32104207700007,29.983657395000023],[110.30080252300007,30.024458915000025],[110.29064987500004,30.06863181700004],[110.29858322800004,30.106228557000065],[110.28454692500009,30.14590048900004],[110.26714590200004,30.193053528000064],[110.25201962800008,30.22028984900004],[110.24560635600005,30.25463282100003],[110.28645932200004,30.250588965000077],[110.33000107100008,30.248292423000066],[110.34100682300004,30.283010709000052],[110.33971641100004,30.31350198000007],[110.33544491300006,30.35977450200005],[110.32935519200004,30.401023648000034],[110.33028819800006,30.434202635000076],[110.34059577600004,30.47676938400008],[110.36410811100006,30.507384755000032],[110.40859846700005,30.511491634000038],[110.44849305200006,30.53002975800007],[110.44466421500005,30.561977557000034],[110.42889224000004,30.598458367000035],[110.41927263500008,30.642574410000066],[110.41968075100004,30.686824837000074],[110.42784296100007,30.761707012000045],[110.39630259800003,30.789919026000064],[110.34048334900007,30.782753292000052],[110.37897546100004,30.84025786500007],[110.39907154200006,30.87464423600005],[110.42012073900008,30.89516875100003],[110.40748024700008,30.931984123000063],[110.42182254300008,30.967466628000068],[110.43763719000009,31.000138797000034],[110.44282236500004,31.03222444100004],[110.46291153500005,31.06520850100003],[110.50340434800006,31.10212619600003],[110.49813450900007,31.16035025900004],[110.48273748300005,31.206461484000044],[110.47059143200005,31.231729827000038],[110.44369890300004,31.260235944000044],[110.41776007000004,31.28686255200006],[110.44459357100004,31.33095872800004],[110.48576979100005,31.34623078100003],[110.52450986200006,31.332557202000032],[110.55613692400004,31.337526860000025],[110.55852024200004,31.365548768000053],[110.57793401800006,31.39348063700004],[110.58747703200004,31.426338978000047],[110.58107136600006,31.459709419000035],[110.59867454600004,31.48263440900007],[110.63902333700008,31.479964008000024],[110.68146875800005,31.48781769800007],[110.68896897800005,31.521670132000054],[110.71829047200004,31.533642951000047],[110.74464501400007,31.55031341700004],[110.78841165400007,31.553094256000065],[110.81956972400008,31.52723015400005],[110.85963104900009,31.508400876000053],[110.89969642300008,31.532913691000033],[110.92247273200007,31.581874475000063],[110.96610364700007,31.55724645400005],[111.00369914600009,31.558537898000054],[111.02143163700003,31.51914503200004],[111.02244847700007,31.488754266000058],[111.01973078000009,31.459463026000037],[111.03639649700006,31.432641258000046],[111.07381726200003,31.43304560400003],[111.10647019300006,31.442297559000053],[111.13634457300009,31.459470735000025],[111.16706200600004,31.44395969800007],[111.19031072300004,31.467897821000065],[111.22797799300008,31.46368229600006],[111.24694019000009,31.432177225000032],[111.27242073100007,31.394956406000063],[111.29597347900005,31.370181239000033],[111.33457896300007,31.364516344000037],[111.38770250100004,31.379911441000047],[111.40861835700008,31.34353333300004],[111.42934231800007,31.321837997000046],[111.45633287300006,31.307263970000065],[111.49055324100004,31.307625375000043],[111.52290372400006,31.313147150000077],[111.55644556900006,31.338905445000023],[111.57728426500006,31.366119840000067],[111.61226592600008,31.379839911000033],[111.66485208700004,31.376721358000054],[111.70653630100009,31.370387691000076],[111.71666096100006,31.336382064000077],[111.71805775400009,31.307798640000044],[111.74488491700004,31.286465347000046],[111.77933512200008,31.259747778000076],[111.81040662400005,31.23818873400006],[111.84667844800003,31.248158183000044]]]}}]}
