{"type":"FeatureCollection","name":"admin2_chn_cn-js","adm0A3":"CHN","parentCode":"CN-JS","parentName":"Jiangsu","bbox":[116.33331800400003,30.760245988000065,121.88371275100008,35.10524571900004],"features":[{"type":"Feature","properties":{"code":"CN032010","name":"Changzhou","label":"Changzhou · 常州市","type":"Prefecture-level city","parentCode":"CN-JS"},"geometry":{"type":"Polygon","coordinates":[[[119.9546536690001,32.014944684000056],[120.00088605200006,31.962645630000054],[120.00661345700007,31.922011540000028],[119.99855765000007,31.892741645000058],[119.99988229200005,31.860731850000036],[120.01636662400006,31.83374359900006],[120.0544174040001,31.844897597000056],[120.09537782900009,31.85760785900004],[120.12866614600011,31.869196421000026],[120.16904922800006,31.86899673100004],[120.1549890010001,31.839390278000053],[120.15541343000007,31.80929988400004],[120.17060021700001,31.78518559200006],[120.17551200600008,31.756507475000035],[120.13642126600007,31.749652215000026],[120.12934829500011,31.719826254000054],[120.12258764900002,31.679799180000032],[120.10456926000006,31.644086577000053],[120.07470517500008,31.61644909300003],[120.04915791700012,31.593013060000033],[120.05007863200001,31.562406082000052],[120.0693165890001,31.540676640000072],[120.09646435200011,31.507480129000044],[120.04463454500001,31.478247688000067],[120.0073227470001,31.500390254000024],[119.97476156000005,31.50581545800003],[119.94417538800008,31.531384751000076],[119.92341687400005,31.55832329800006],[119.88587308900003,31.562807471000042],[119.84565466000004,31.545804074000046],[119.81277114700003,31.53179735200007],[119.7701773760001,31.53440916900007],[119.73105786300005,31.54777370800008],[119.69687669200005,31.57083588100005],[119.65545700400003,31.605179563000036],[119.61394600200003,31.572974387000045],[119.5811538480001,31.537178623000045],[119.55180127800008,31.507530101000043],[119.55457811100007,31.468451827000024],[119.58051154800012,31.43925776100008],[119.54006013800006,31.42819310300007],[119.51273385700006,31.388176847000068],[119.516038148,31.335641923000026],[119.51124986600007,31.295861428000023],[119.50538810100011,31.26496366500004],[119.51441314700003,31.237784866000027],[119.52939044000004,31.206820046000075],[119.51583778600002,31.169666799000026],[119.51421383400009,31.171279954000056],[119.46947976600006,31.171865065000077],[119.43142558400007,31.164826074000075],[119.40973649300008,31.17173903500003],[119.3953622460001,31.177229134000072],[119.37655480800004,31.170567022000057],[119.35636372300007,31.18088417000007],[119.35221760600007,31.18300030000006],[119.33953884800007,31.205282882000063],[119.33572084500008,31.25186633900006],[119.35324327400008,31.27732762900007],[119.29935489000002,31.28295679200005],[119.25834186700001,31.257372926000073],[119.22195136100004,31.245695186000034],[119.1860012300001,31.249113284000032],[119.17604438500007,31.25787912900006],[119.19393747000004,31.344431187000055],[119.18839384500006,31.384198997000055],[119.15915998800006,31.404349299000046],[119.11970180600008,31.455999769000073],[119.14052181500006,31.506711504000066],[119.14902198900006,31.53367546900006],[119.16129540400004,31.57000187400007],[119.17930955500003,31.60027813800008],[119.18119746400009,31.64860757400004],[119.266476538,31.665966923000042],[119.29843543200002,31.672808332000045],[119.29771063800001,31.707513964000043],[119.30199079200008,31.74361962300003],[119.32486554100001,31.76420108800005],[119.33088856800009,31.792296117000035],[119.33305344400003,31.823963095000067],[119.31887453700006,31.867717971000047],[119.35794665900005,31.856823818000066],[119.39866279000012,31.83700099400005],[119.43299285900002,31.862992010000028],[119.49355497300007,31.869509684000036],[119.53790591200004,31.87101304600003],[119.56491463300006,31.840828831000067],[119.57469309300006,31.81498965800006],[119.60836549100009,31.79988763500006],[119.65309532300012,31.78282867100006],[119.68202324600009,31.76444254300003],[119.7292433020001,31.73866494200007],[119.7379925030001,31.790660888000048],[119.7583720020001,31.81602485700006],[119.7394781480001,31.84596335300006],[119.73293591100003,31.875678590000064],[119.77410337100002,31.88616751400008],[119.78068804500003,31.91742904000006],[119.77269235400001,31.944044802000064],[119.74423619600009,31.962396865000073],[119.77071214400007,31.99734942300006],[119.76845647500011,32.03127843000004],[119.79667768400009,32.05404685800005],[119.84036787900004,32.05366761800008],[119.88814023000009,32.02168749800006],[119.92320123500008,32.004524478000064],[119.9546536690001,32.014944684000056]]]}},{"type":"Feature","properties":{"code":"CN032020","name":"Huai'an","label":"Huai'an · 淮安市","type":"Prefecture-level city","parentCode":"CN-JS"},"geometry":{"type":"Polygon","coordinates":[[[119.54365635600004,34.030314400000066],[119.54949361900003,33.99754934900005],[119.57919402100003,33.965428760000066],[119.6274291960001,33.95789674400004],[119.61268921800001,33.93295408800003],[119.60725157800005,33.87676829800006],[119.56673124000008,33.857350988000064],[119.53857548200006,33.83958417400004],[119.51744030500004,33.80736567900004],[119.49923751800009,33.77627098800008],[119.4831883820001,33.74912883700006],[119.45815776500001,33.66636184600003],[119.45522525700005,33.64332977300006],[119.4563975320001,33.61281349700005],[119.45746421400008,33.58138768600003],[119.45734870800004,33.540382770000065],[119.5042889230001,33.47998990900004],[119.54181762000007,33.463733131000026],[119.56777593000004,33.442975766000075],[119.55649758200002,33.414028829000074],[119.49781039900006,33.41880609900005],[119.46062661700012,33.411049544000036],[119.4290099540001,33.39495614200007],[119.39157843700002,33.37153570800007],[119.35106458400003,33.363123646000076],[119.30389404100004,33.36311122800004],[119.25759250700003,33.36116559100003],[119.22145014400007,33.35693826000005],[119.20113075500001,33.33381743600006],[119.21168274400009,33.30294840600004],[119.17956069800005,33.290987950000044],[119.13500305200012,33.290128981000066],[119.11841198700006,33.24189175600003],[119.13720754500002,33.21124273000004],[119.1719234740001,33.208702290000076],[119.20322352300002,33.18662789000007],[119.21461081600012,33.149225828000056],[119.2545876910001,33.140671643000076],[119.29369302600003,33.12480346700005],[119.3130358740001,33.08576291300005],[119.33278538500008,33.06373978900007],[119.34957971600011,33.04012808900006],[119.32691004800006,33.01077762800003],[119.30296637100002,32.984303614000055],[119.3044070200001,32.95097935700005],[119.30822334300001,32.91929194700003],[119.3043343700001,32.891510949000065],[119.29804934700007,32.85747906200004],[119.2875276310001,32.82428357400005],[119.23678218300006,32.81444508100003],[119.19796693300009,32.817837938000025],[119.18277296800011,32.81981280400004],[119.18226147600001,32.820851266000034],[119.13677353000003,32.844401048000066],[119.13416245000008,32.84013281000006],[119.08612420700001,32.86028337600004],[119.06324330900009,32.86005296700006],[119.0284834470001,32.89348504000003],[118.98341735400004,32.95512529000007],[118.94821842400006,32.96280353900005],[118.91297405600005,32.95892947600004],[118.88962144000004,32.95786241600007],[118.88123322700005,32.95748106600007],[118.83501705000003,32.96407749000008],[118.80861042800007,32.96136635200003],[118.78622997100001,32.93263748800007],[118.78363549500011,32.89462814500007],[118.78181263600004,32.86455447800006],[118.7406376030001,32.82105982300004],[118.71959550300005,32.81709875200005],[118.71333151900001,32.79707951300003],[118.7174257580001,32.76040263900006],[118.70792284800007,32.740591358000074],[118.65333999100005,32.72635621200004],[118.61971572300001,32.73828656400008],[118.5854743650001,32.737880235000034],[118.51421102400002,32.73700781700006],[118.46852560100001,32.73633371200003],[118.44668211800001,32.73504032000005],[118.42132683500006,32.742841261000024],[118.384714228,32.73446490900005],[118.38348065800005,32.73344701100007],[118.36358205500005,32.71713241300006],[118.33538971100006,32.72953270800008],[118.32863926400012,32.76279636100003],[118.2871284260001,32.79642237400003],[118.27654899400011,32.823701339000024],[118.26211825300004,32.85653954500003],[118.24834655000006,32.89371510600006],[118.24287586500009,32.949306283000055],[118.24791491100007,32.95605787400007],[118.25665837500003,32.96138025000005],[118.28280706800001,32.96195890900003],[118.32034514100008,32.96530201400003],[118.36490057900005,32.980373547000056],[118.37150884700009,32.988199945000076],[118.35999964500002,32.99372991100006],[118.33651656400002,33.00520509800003],[118.33363732300006,33.01486870800005],[118.33656369100004,33.02452658200008],[118.3448497060001,33.029872315000034],[118.36722840400012,33.04055525000007],[118.40215342400006,33.06495760100006],[118.40198264300011,33.02592560700003],[118.41960563200007,33.03732260700008],[118.4440867080001,33.058889013000055],[118.4581011890001,33.07723779600008],[118.44321687100012,33.083007622000025],[118.42629084300006,33.087734097000066],[118.44201314000009,33.10399508200004],[118.47996742800001,33.13368375600004],[118.4869990740001,33.14541762700003],[118.48159441200005,33.14934477600008],[118.47030804300005,33.15249896300003],[118.43719866200001,33.14612665200008],[118.4248525800001,33.139100401000064],[118.39501670200002,33.126970345000075],[118.38192318800009,33.13142223800003],[118.35921524300011,33.14600153300006],[118.33661041700009,33.14282598500006],[118.31052911200004,33.14343112000006],[118.29466116300011,33.13978439500005],[118.27566410400004,33.15291027100005],[118.2635235030001,33.15728585700003],[118.21491946700007,33.179506950000075],[118.20999523000012,33.18720349000006],[118.23927077700012,33.201285462000044],[118.46297062000008,33.18590827400004],[118.73617745700005,33.29817554600004],[118.73238884700004,33.318403345000036],[118.71260535600004,33.36889902400003],[118.71306124400007,33.36973788100005],[118.72586877800006,33.393296242000076],[118.7403063480001,33.433468805000075],[118.7535632790001,33.43411379300005],[118.76250718600011,33.435837142000025],[118.77562756800012,33.48969700500004],[118.78508525200004,33.528981558000055],[118.78939742900002,33.56177314900003],[118.76495853600011,33.58820814000006],[118.7543869210001,33.625458104000074],[118.78174763000004,33.657722601000046],[118.79142490600009,33.689150847000064],[118.78526429400006,33.72649367100007],[118.78115905000004,33.767348225000035],[118.78003841300006,33.80059102000007],[118.79556436400003,33.83475053300003],[118.82554316100004,33.86034813200007],[118.8496123220001,33.88228682300007],[118.86315198500006,33.91338067500004],[118.92196510100007,33.89235959400003],[118.94672181600004,33.91053876500007],[119.01828153200006,33.89023764900003],[119.03142053400006,33.91721198000005],[119.03815882600009,33.95531863000008],[119.05037502000005,33.983747864000065],[119.08257138600004,34.00818094500005],[119.10806712200008,34.027194492000035],[119.15728946400009,34.06689548400004],[119.19904449400008,34.043356593000055],[119.2321903190001,34.029453327000056],[119.26682882600005,34.02784546400005],[119.3190833540001,34.02561952900004],[119.35313149000001,34.028179041000044],[119.39310555800012,34.002586389000044],[119.42263740100009,33.982036795000056],[119.47170847600012,33.99890484500003],[119.49674020000009,34.026636487000076],[119.54365635600004,34.030314400000066]]]}},{"type":"Feature","properties":{"code":"CN032030","name":"Lianyungang","label":"Lianyungang · 连云港市","type":"Prefecture-level city","parentCode":"CN-JS"},"geometry":{"type":"Polygon","coordinates":[[[119.18880270300008,35.10424808300007],[119.19035709500008,35.104140124000025],[119.22237234400006,35.07410695200008],[119.19682836800007,35.048831938000035],[119.19380141800002,35.011148442000035],[119.18105600900003,34.96783038700005],[119.16818229000012,34.91278805700006],[119.16671393400009,34.89935571800004],[119.14674913200008,34.83127220800003],[119.17986006800004,34.81270530200004],[119.18209281400004,34.79179302600005],[119.19590345300003,34.77537737500006],[119.20728567800006,34.77114576200006],[119.20713715500005,34.769738680000046],[119.20617782000011,34.755705540000065],[119.21494935100009,34.75830196600003],[119.21863207400008,34.76705693400004],[119.24629453400007,34.75747804700006],[119.26006840800005,34.75214816500005],[119.26334502100008,34.74686525100003],[119.2804035040001,34.73917747400003],[119.2967859360001,34.73794010300003],[119.30059689400002,34.73646543000007],[119.30151694300002,34.73758276800004],[119.30355196400001,34.73742906200005],[119.31433711600005,34.73848007400005],[119.3276073720001,34.74557849800004],[119.32980434700005,34.75161608800005],[119.32878935100007,34.755256977000045],[119.32678242200006,34.75986738600005],[119.36184735000006,34.757352214000036],[119.3665011270001,34.754705071000046],[119.36662906100003,34.75444498000007],[119.37075125500007,34.74975962700006],[119.37705077900011,34.746066351000024],[119.3869388060001,34.742716864000045],[119.38767103100008,34.74266329300008],[119.39272586900006,34.73978802100004],[119.42277954000008,34.72497786100007],[119.45810035500006,34.72693104600006],[119.47096930000009,34.72095903500008],[119.46980177900002,34.718550134000054],[119.4722614100001,34.715259529000036],[119.46679605300005,34.703730747000066],[119.46534572100006,34.70174270600006],[119.46212055000001,34.69902946700006],[119.46042510400002,34.69499777500005],[119.45384357400008,34.685976151000034],[119.45085081900004,34.68489482700005],[119.4511237700001,34.682247982000035],[119.44803338400004,34.67801183900008],[119.44875919800006,34.654492600000026],[119.46173115400006,34.63910397400008],[119.47377150400007,34.62558511700007],[119.50091828200004,34.61547837200004],[119.53679934600007,34.602918543000044],[119.5758355050001,34.58831373400005],[119.59393788800003,34.58243180300008],[119.60019603800004,34.57763265700004],[119.60690156100009,34.575344005000034],[119.6225981550001,34.569995092000056],[119.63186901900008,34.56429869200008],[119.62899269100001,34.54916716200006],[119.6243834070001,34.53867012300003],[119.60450888800005,34.52298582900005],[119.58178127800011,34.51202852700004],[119.56578173300011,34.50056692900006],[119.55039522100003,34.49447389300008],[119.53206539700011,34.49221201100005],[119.5183434160001,34.49226257400005],[119.50610647200006,34.49231077600007],[119.5299439050001,34.485913123000046],[119.54764022900008,34.470298988000025],[119.57094979100009,34.46677686800007],[119.58692569700008,34.46830162400005],[119.60129803000007,34.47536710700007],[119.61842600900002,34.49667233800005],[119.64554316200008,34.516329461000055],[119.66193580700008,34.53037918200005],[119.66799777900007,34.52533089000008],[119.672463762,34.524777553000035],[119.68012861900002,34.52684683500007],[119.6871419150001,34.524993649000066],[119.69444001800002,34.53082905200006],[119.69579641400003,34.53064308800003],[119.7210509790001,34.52423982500005],[119.7403798580001,34.51556324100005],[119.761615086,34.50403108300003],[119.76842819100011,34.49237260800004],[119.74557757700006,34.44090173600006],[119.7732615430001,34.384262782000064],[119.74913679300005,34.356494799000075],[119.71868940700006,34.32698859900006],[119.7121236050001,34.29303451000004],[119.69130318400005,34.269110530000034],[119.64963140200007,34.251188658000046],[119.61545567300004,34.23535073900007],[119.58633074900001,34.21997834200005],[119.55265927500011,34.212375259000055],[119.51907548100007,34.209815380000066],[119.4911016740001,34.19432224600007],[119.48151730600011,34.16200956100005],[119.50395549400002,34.14206639300005],[119.50524169300002,34.11247802100007],[119.53548879700008,34.09322131400006],[119.55596911000009,34.06238589000003],[119.54365635600004,34.030314400000066],[119.49674020000009,34.026636487000076],[119.47170847600012,33.99890484500003],[119.42263740100009,33.982036795000056],[119.39310555800012,34.002586389000044],[119.35313149000001,34.028179041000044],[119.3190833540001,34.02561952900004],[119.26682882600005,34.02784546400005],[119.2321903190001,34.029453327000056],[119.19904449400008,34.043356593000055],[119.15728946400009,34.06689548400004],[119.14710584700003,34.103514150000024],[119.11345396600007,34.13216120000004],[119.11066668100011,34.18258169600006],[119.07655174400008,34.19836480200007],[119.06798136900011,34.22855299500003],[119.06876376700006,34.263007584000036],[119.06264138800009,34.29988912600004],[119.04454697200003,34.329488895000054],[119.01374894000003,34.38316623800006],[118.95306474300003,34.35833781000008],[118.90391389100012,34.346322247000046],[118.84450352900001,34.35078655700005],[118.80044627100006,34.34429625000007],[118.77068257000008,34.31729227500006],[118.73642858100004,34.303993269000046],[118.70521799700009,34.31712693000003],[118.66180136500009,34.320656893000034],[118.63031124300005,34.34115413200004],[118.6325981010001,34.37086870500008],[118.6306136930001,34.406912299000055],[118.59381491200008,34.42506330800006],[118.54647011500003,34.42380367000004],[118.50762310100004,34.41909134800005],[118.46446630700007,34.41056699300003],[118.41631486500012,34.40702833000006],[118.37080127900003,34.433238620000054],[118.39432498600002,34.46084446200007],[118.40428062100011,34.49544772100006],[118.40118871000004,34.52589558400007],[118.40541815300003,34.56592273200005],[118.43108691100008,34.629688103000035],[118.43273035400011,34.67492666700008],[118.44059808200007,34.68951061900003],[118.45473625200009,34.70366223100007],[118.4990892190001,34.70156457400003],[118.50596204300007,34.70131307300005],[118.54325481100011,34.695468848000075],[118.59288957400008,34.70214279800007],[118.65059168100004,34.68879094400006],[118.68966930200008,34.70140449300004],[118.72314703000006,34.71347446600004],[118.73119694800005,34.738664921000066],[118.71792291100007,34.751025421000065],[118.69724776600003,34.76739877500006],[118.69666361000009,34.78426938200005],[118.69763730200009,34.78683507000005],[118.70120382900006,34.796394537000026],[118.71724580500006,34.81222074300007],[118.7183801430001,34.82366942800007],[118.71558665600003,34.840683666000075],[118.75044863100004,34.86595731500006],[118.7573717460001,34.879693873000065],[118.78910107100012,34.90692884600003],[118.8192941640001,34.92981515900004],[118.82202474500002,34.95711319000003],[118.81221557000003,34.99318751100003],[118.80236086900004,35.01774411400004],[118.80469815000004,35.019481960000064],[118.83740515700003,35.04386435500004],[118.89398821200007,35.03935412000004],[118.93985546800002,35.05057663400004],[118.97680775200001,35.05083917600007],[119.03854449800008,35.05301486500008],[119.08313274300008,35.07313101300008],[119.12478379100003,35.09697509500006],[119.17378406400007,35.10524571900004],[119.18880270300008,35.10424808300007]]]}},{"type":"Feature","properties":{"code":"CN032040","name":"Nanjing","label":"Nanjing · 南京市","type":"Prefecture-level city","parentCode":"CN-JS"},"geometry":{"type":"Polygon","coordinates":[[[119.05184271500002,32.448039351000034],[119.02583421100007,32.43065246400005],[119.01879733500004,32.39343506700004],[119.0209347330001,32.36511553300005],[119.02397929400001,32.32610629800007],[119.02842061800004,32.29435153800006],[119.03916688700008,32.25651064700003],[119.06291332900003,32.22815449400008],[119.10102054300012,32.23498978300006],[119.1444394130001,32.240884857000026],[119.18950951600004,32.23785306600007],[119.22695976600005,32.225326375000066],[119.16453363900007,32.18190408900006],[119.13045305700007,32.18166115900004],[119.08564169800002,32.17265136300006],[119.05200847000003,32.15297127700006],[119.01969191900002,32.135005782000064],[119.05280860100004,32.10860057700006],[119.08049350800002,32.09142008800006],[119.09867378500007,32.05753134100007],[119.10077229300009,32.01996184600006],[119.10238402900006,31.992130803000066],[119.07731078100005,31.966625876000023],[119.09531984600005,31.92674007200003],[119.10268040100004,31.892860952000035],[119.07801482800005,31.86131629500005],[119.03552028700005,31.852103043000056],[118.99965503800001,31.85383411400005],[118.95501547800006,31.84939102000004],[118.95938498600003,31.821778985000037],[118.98164094800006,31.800000709000074],[119.04379247100007,31.788594887000045],[119.08643525100001,31.77147741700003],[119.10028048600009,31.747174147000067],[119.12981750200004,31.719185976000063],[119.16757245000008,31.70661831600006],[119.17351461900012,31.674690825000027],[119.18119746400009,31.64860757400004],[119.17930955500003,31.60027813800008],[119.16129540400004,31.57000187400007],[119.14902198900006,31.53367546900006],[119.14052181500006,31.506711504000066],[119.11970180600008,31.455999769000073],[119.15915998800006,31.404349299000046],[119.18839384500006,31.384198997000055],[119.19393747000004,31.344431187000055],[119.17604438500007,31.25787912900006],[119.13985358100001,31.289738734000025],[119.08553311200001,31.269477272000074],[119.05703378600003,31.25097300500005],[119.01649229700001,31.236772462000033],[119.00179783400006,31.23163134600003],[118.9530467290001,31.234966411000073],[118.90398523600004,31.22405996300006],[118.8361536330001,31.22864173000005],[118.78088079200006,31.242136490000064],[118.76381355700005,31.23081257800004],[118.7130722180001,31.28135685600006],[118.6957126420001,31.307253807000052],[118.6830975900001,31.326054618000057],[118.69788781000011,31.347326330000044],[118.74525523400007,31.385133886000062],[118.78353664200006,31.405721011000026],[118.8176045890001,31.426589878000073],[118.84820904200001,31.476291871000058],[118.84516639500009,31.513723827000035],[118.84704998500001,31.56698244000006],[118.83277013100007,31.625335535000033],[118.82932408500005,31.639342003000024],[118.78492175100007,31.61205369000004],[118.7500515700001,31.628600265000046],[118.75538520100008,31.67361259300003],[118.72547762300007,31.686263371000052],[118.70091279500002,31.65318790500004],[118.67704327000001,31.638746866000076],[118.64982973300005,31.634296464000045],[118.61385440300012,31.650873717000024],[118.62005715400005,31.672730354000066],[118.62106989300003,31.673541804000024],[118.64839863400005,31.69932031600007],[118.62881819000006,31.742396562000067],[118.59270679500003,31.746518239000068],[118.54001946700009,31.74547194200005],[118.50505856100006,31.750380019000033],[118.4794328260001,31.763577484000052],[118.47274353800003,31.78562842100007],[118.46870333800007,31.798936412000046],[118.4815647480001,31.822124770000073],[118.44073859600007,31.86917065500006],[118.40296188000002,31.89111286800005],[118.34065655500001,31.91546770000008],[118.33094973300001,31.915185415000053],[118.34086661100002,31.95367641400003],[118.35213140000008,31.98319104600006],[118.35334007300003,32.02044679200003],[118.35330773100009,32.02327966200005],[118.36004588700007,32.04248694200004],[118.37238777900006,32.055310864000035],[118.39615676400001,32.07189303600006],[118.41353100000003,32.079798812000035],[118.42313366300004,32.077390603000026],[118.44299950800007,32.117904784000075],[118.45815258200003,32.177376923000054],[118.45759767000004,32.186185042000034],[118.48665114100004,32.18554044900003],[118.57724589500003,32.173537657000054],[118.61076899400007,32.198734787000035],[118.62620678500002,32.19773593800005],[118.65437392600006,32.23323725100005],[118.65468470200005,32.24714214800008],[118.65669445300011,32.33794571800007],[118.66209567500005,32.38380009300005],[118.67033363500002,32.43657604100002],[118.65663806600003,32.48632244100003],[118.59278003600002,32.48687965800008],[118.57257799800004,32.50238455600004],[118.5454747010001,32.525431325000056],[118.53096998300009,32.55566447600006],[118.54612411500011,32.578685789000076],[118.58757865500002,32.59291618100008],[118.63275665700007,32.58912682000005],[118.67272112100011,32.587443044000054],[118.68838332100006,32.59193284000003],[118.71062787300002,32.59830900500003],[118.7756437700001,32.59762272100005],[118.84749307100003,32.555578506000074],[118.8938808910001,32.57559883300007],[118.92750502500007,32.564472601000034],[118.94433253700004,32.52603557800006],[118.97178275600004,32.49664375300006],[119.00657218000003,32.49785689000004],[119.02896748800003,32.47235009800005],[119.05184271500002,32.448039351000034]]]}},{"type":"Feature","properties":{"code":"CN032050","name":"Nantong","label":"Nantong · 南通市","type":"Prefecture-level city","parentCode":"CN-JS"},"geometry":{"type":"MultiPolygon","coordinates":[[[[120.45918075100008,32.63589597400005],[120.49994445000004,32.63558510900003],[120.54408741000009,32.640013133000025],[120.57723644500004,32.64366303200006],[120.61208305000002,32.62773562000007],[120.64637194600004,32.59198154000006],[120.68734457800008,32.59713391400004],[120.7192686090001,32.58792773000005],[120.75488177500006,32.59775026300008],[120.79790969300007,32.60589220500003],[120.83184598000003,32.62379204900003],[120.83129792300008,32.61757038500008],[120.83351126900004,32.61600860100003],[120.84623801100008,32.615818698000055],[120.8501211900001,32.61269512900003],[120.85312688800002,32.611382183000046],[120.86054290800007,32.608098179000024],[120.86455561700006,32.60754631800006],[120.86841786100001,32.59561682800006],[120.89354641600005,32.594237633000034],[120.89694515300005,32.59405045800003],[120.91294745800008,32.59052920500005],[120.91329978700003,32.58970710400007],[120.92183557600003,32.584380012000054],[120.949622911,32.56728836600007],[120.9517184340001,32.56482114600004],[120.95882857800007,32.55823606300004],[120.96003872100005,32.55353067800007],[120.95906956300007,32.54984395100007],[120.96050365400004,32.546893913000076],[120.96684246900008,32.54289613800006],[120.9720091260001,32.53200293800006],[120.97593814400011,32.527039280000054],[120.97099413000001,32.520297741000036],[120.9763572390001,32.51808766900007],[120.97905843800004,32.54061730800004],[120.97906880700009,32.54062567300008],[120.98658205800007,32.53549735100006],[121.00926808400004,32.53169348100005],[121.0405634660001,32.52622251400004],[121.08282269300003,32.51161902700005],[121.12556472400001,32.492424020000044],[121.15527925700007,32.48221924000006],[121.15799570500008,32.47964223500003],[121.16369605400007,32.47905615700006],[121.16596178700001,32.474976527000024],[121.15905653900006,32.459961133000036],[121.16078203300003,32.455868407000025],[121.16323112000009,32.45522339300004],[121.17363646800004,32.47053673800008],[121.17978537900001,32.47293343800004],[121.25890269000001,32.441805800000054],[121.26486169900011,32.44076461000003],[121.26632902400002,32.441381542000045],[121.27302733600004,32.43934746900004],[121.28635952200011,32.431802306000066],[121.29511859800004,32.41469133000004],[121.31276398700004,32.40664940200003],[121.31415042000003,32.40572173400005],[121.33608125,32.391036316000054],[121.35183413400011,32.37743454900004],[121.34956476200011,32.375998035000066],[121.33960797700001,32.37491755600007],[121.34725467900012,32.300630203000026],[121.34713312600002,32.30026236700007],[121.34740279000005,32.28572964600005],[121.35261978800008,32.26711716500006],[121.36690222700008,32.25040381100007],[121.36658623400001,32.25016681000005],[121.353316973,32.250999627000056],[121.33928710800001,32.24068923100003],[121.3415003880001,32.228787803000046],[121.33805819300005,32.224956571000064],[121.33049022600005,32.21652623600005],[121.32604004600012,32.20786081500006],[121.3275832490001,32.20559473900005],[121.31025821900005,32.20469943300003],[121.31627616300011,32.200907931000074],[121.32302097600007,32.20033495000007],[121.33079433900002,32.20087950000004],[121.33348350200004,32.19693066900004],[121.33525356100006,32.19432887100004],[121.3485311070001,32.18677285700005],[121.3677479590001,32.174135155000045],[121.38093695200007,32.17516158900003],[121.39995359600005,32.17663429700008],[121.41326424200008,32.14457426000007],[121.41458753800009,32.14020175100006],[121.413787823,32.13953668200003],[121.41620744200009,32.12766777600007],[121.4156279120001,32.11804168400005],[121.42198185900008,32.118684925000025],[121.43403565800008,32.110921261000044],[121.45513528200001,32.10761449300003],[121.46201589800012,32.10653494200005],[121.4965044710001,32.101538281000046],[121.53255285900002,32.10001551700003],[121.56833834100007,32.080359362000024],[121.5991855530001,32.06478285400004],[121.6302509620001,32.05099004300007],[121.6576847340001,32.034807442000044],[121.67376807500011,32.024391378000075],[121.68391485400002,32.017823204000024],[121.7175813,31.999223525000048],[121.7484878460001,31.984498158000065],[121.77765140000008,31.957228919000045],[121.78500904200007,31.950847027000066],[121.78507995000007,31.947699142000033],[121.7893691270001,31.943652255000075],[121.79422365500011,31.94285442900008],[121.79528465400006,31.941934137000032],[121.81217611000011,31.921263984000063],[121.81773963700005,31.89803660700005],[121.82141345600007,31.88497471200003],[121.81974195100008,31.85698842200003],[121.83635276700011,31.834517856000048],[121.84959658900004,31.81146412800007],[121.85546814600002,31.782751921000056],[121.86651198400011,31.756799819000037],[121.86887679600011,31.75196647200005],[121.87984876000007,31.729555900000037],[121.88371275100008,31.707719591000057],[121.87036909100004,31.69532527000007],[121.85784862300011,31.692257362000078],[121.85154582400003,31.693642341000043],[121.84028591600008,31.692008524000073],[121.82496602300012,31.693377132000023],[121.82068666800001,31.69742729400008],[121.81656774900011,31.698141065000073],[121.81211813700008,31.695940816000075],[121.80693183400001,31.702096276000077],[121.80264265700009,31.69676918300007],[121.78958849700007,31.70100269900007],[121.77932066500011,31.700177606000068],[121.76278605100003,31.71052729200005],[121.73731947100009,31.71522574200003],[121.7230604130001,31.720104271000025],[121.70728213500001,31.722514069000056],[121.68802667600005,31.72290369600006],[121.65888319100009,31.72745480800006],[121.6516150760001,31.729363161000038],[121.63763639900003,31.734427607000043],[121.59348036200004,31.75861797300007],[121.60032773800003,31.772808763000057],[121.5964576560001,31.77392853300006],[121.59053138800004,31.761954853000077],[121.58942535000006,31.76083946400007],[121.58365518900007,31.764000579000026],[121.57192782300001,31.76673479300007],[121.57068657700006,31.76838534500007],[121.5508810560001,31.785031281000045],[121.53375381500007,31.783276320000027],[121.51438048600005,31.789065072000028],[121.50933169900009,31.792077319000043],[121.49912935100008,31.80353040400007],[121.47183905200006,31.82467833900006],[121.45712160800008,31.831416604000026],[121.44004675400004,31.84173682200003],[121.42543081000008,31.842843495000068],[121.40778297500003,31.85004341900003],[121.38638973500008,31.852948361000074],[121.36544857400008,31.85953507000005],[121.34866996400001,31.863039660000027],[121.32795844100008,31.871279757000025],[121.31038591200002,31.881802975000028],[121.28752885400002,31.885954637000054],[121.28016522100006,31.884831593000058],[121.2695765200001,31.880846914000074],[121.2611094880001,31.873699377000037],[121.245085646,31.867098628000065],[121.22989672000006,31.858792031000064],[121.22679279600004,31.857403778000048],[121.21540192100008,31.860933345000035],[121.20588715100007,31.861719149000066],[121.1995155940001,31.860366912000075],[121.19409027600011,31.85816666200003],[121.16359782900008,31.837414903000024],[121.16016834200002,31.836018867000064],[121.13266625000006,31.841464676000044],[121.13088876000006,31.84284676900006],[121.12309293500005,31.848920375000034],[121.10704944800011,31.85251215200003],[121.09484002700003,31.85250232900006],[121.0905797690001,31.85038018700004],[121.08199966600012,31.85249766700008],[121.07349127900011,31.848305469000024],[121.05394738100006,31.838668576000032],[121.05240908200005,31.837954294000042],[121.03196592900008,31.83474317100007],[121.03529249700011,31.830519478000042],[121.03438495000012,31.829585114000054],[121.01786743500008,31.82191550300007],[120.99410616400007,31.815856024000027],[120.97236750100001,31.81687143000005],[120.96770570600006,31.819164750000027],[120.96774286800007,31.82093267600004],[120.9663775350001,31.82637436500005],[120.95813642100006,31.841298082000037],[120.95593944600012,31.841330824000067],[120.95535991600002,31.83675351900007],[120.95987828600005,31.83064062300008],[120.96060842800011,31.82361095600004],[120.96071198100003,31.82260523700006],[120.94764909500009,31.82903138200004],[120.9220180750001,31.851240664000045],[120.9627056380001,31.861261505000073],[120.95838396700003,31.864346471000033],[120.95934132000002,31.86441380000008],[120.96111265200011,31.867304902000058],[120.95026803400003,31.870139920000042],[120.93661202700002,31.879888076000043],[120.91367743800004,31.890617134000024],[120.91307714200002,31.895531616000028],[120.91010418600001,31.89286643300005],[120.90838524100002,31.893102174000035],[120.90585429900011,31.90064261300006],[120.90133592900008,31.907377603000043],[120.89499711500002,31.919973377000076],[120.88442151000004,31.928879150000057],[120.8773263600001,31.94128174800005],[120.87300771500009,31.945092894000027],[120.86670819100004,31.94747649800007],[120.8547672520001,31.962652327000058],[120.85198092400003,31.96957067200003],[120.84641154300004,31.972566547000042],[120.83492244100012,31.985234353000067],[120.83100979500011,31.984874194000042],[120.82167183100012,31.995423605000042],[120.81900664700004,32.00000091000004],[120.8019776320001,31.99985029800007],[120.79694521600004,32.013218779000056],[120.79044269200006,32.01491153000006],[120.78653659400004,32.01918106200003],[120.77195666600005,32.02161050500007],[120.75344772100004,32.029452168000034],[120.74004322400003,32.02847318800008],[120.73548883800004,32.03661607600003],[120.72688429000004,32.03688455900004],[120.72453342800009,32.04347221100005],[120.71417392000001,32.03958248400005],[120.70773360600003,32.03943514600007],[120.69692226000006,32.04365556500005],[120.69331411200005,32.04507001200005],[120.67439916900003,32.056323372000065],[120.64708595100001,32.06120190100006],[120.63189702500006,32.065664610000056],[120.61353214400003,32.076466133000054],[120.60402064800007,32.07968137900008],[120.59303904500007,32.07828003000003],[120.5645667660001,32.069370983000056],[120.56173787400007,32.06966238500007],[120.55917419000002,32.06993086800003],[120.55201683100006,32.07479957500004],[120.55017019200011,32.07384024000004],[120.55200326900001,32.06955532600006],[120.548298122,32.070215835000056],[120.54544310900008,32.07095752500004],[120.52868501700004,32.08890474700007],[120.52184197800011,32.092866506000064],[120.51444232900008,32.08879342500006],[120.50549399300007,32.091098448000025],[120.5031267600001,32.08943843900005],[120.51188519400012,32.08460902200005],[120.5141378300001,32.08168845200004],[120.51227982800003,32.07957285300006],[120.51215320200004,32.07960574900005],[120.50419141500004,32.07902468000003],[120.46963577800011,32.11462679300007],[120.43039700300005,32.124502936000056],[120.39801468600001,32.12491896100005],[120.35660234200009,32.12666603400004],[120.33150261800006,32.17286646800005],[120.34306689800007,32.24120475800004],[120.33320011800004,32.27312261800006],[120.34431017100007,32.30392150700004],[120.37071009900001,32.360012521000044],[120.33206721300007,32.36701390700006],[120.26916178300007,32.37952997000008],[120.26232014300001,32.42228458000005],[120.25307917200007,32.46336073200007],[120.25036773700003,32.504726177000066],[120.25015240700009,32.54030503900003],[120.24464349100003,32.57270120600003],[120.21207935400002,32.59384361000008],[120.17565015700006,32.627443336000056],[120.20464546100004,32.66566147100008],[120.24424723600009,32.68124884000002],[120.28893564600003,32.68987023200003],[120.32408366100003,32.70031851600004],[120.36566085400011,32.70182959600004],[120.39649679100012,32.67989315700004],[120.41809547600008,32.650077457000066],[120.45918075100008,32.63589597400005]]],[[[120.60521572400012,32.068264310000075],[120.6077204720001,32.06510799900008],[120.61200637500008,32.06543869200004],[120.61863659200003,32.05986276100003],[120.62653391600008,32.05706661100004],[120.64624776000005,32.05408383200006],[120.65088727500006,32.051670761000025],[120.657226089,32.046775860000025],[120.65538927400007,32.045590606000076],[120.65101496800003,32.047548567000035],[120.64808785000002,32.046795505000034],[120.64849771400009,32.04602235300007],[120.63927107400002,32.05025887700003],[120.6307803850001,32.054154803000074],[120.60162033000006,32.06660971700006],[120.57729322600005,32.065046935000055],[120.57535009000003,32.06539333400008],[120.58502057500004,32.06870305000007],[120.59163769500003,32.07160724900007],[120.60183022100011,32.072527294000054],[120.60521572400012,32.068264310000075]]],[[[120.7855085010001,32.008851021000055],[120.77964116900012,32.007580639000025],[120.7747724620001,32.00884774700006],[120.76814224500004,32.01488533700007],[120.77131492700005,32.01610333200006],[120.78218848200004,32.012213605000056],[120.7855085010001,32.008851021000055]]]]}},{"type":"Feature","properties":{"code":"CN032060","name":"Suqian","label":"Suqian · 宿迁市","type":"Prefecture-level city","parentCode":"CN-JS"},"geometry":{"type":"Polygon","coordinates":[[[119.15728946400009,34.06689548400004],[119.10806712200008,34.027194492000035],[119.08257138600004,34.00818094500005],[119.05037502000005,33.983747864000065],[119.03815882600009,33.95531863000008],[119.03142053400006,33.91721198000005],[119.01828153200006,33.89023764900003],[118.94672181600004,33.91053876500007],[118.92196510100007,33.89235959400003],[118.86315198500006,33.91338067500004],[118.8496123220001,33.88228682300007],[118.82554316100004,33.86034813200007],[118.79556436400003,33.83475053300003],[118.78003841300006,33.80059102000007],[118.78115905000004,33.767348225000035],[118.78526429400006,33.72649367100007],[118.79142490600009,33.689150847000064],[118.78174763000004,33.657722601000046],[118.7543869210001,33.625458104000074],[118.76495853600011,33.58820814000006],[118.78939742900002,33.56177314900003],[118.78508525200004,33.528981558000055],[118.77562756800012,33.48969700500004],[118.76250718600011,33.435837142000025],[118.7535632790001,33.43411379300005],[118.7403063480001,33.433468805000075],[118.72586877800006,33.393296242000076],[118.71306124400007,33.36973788100005],[118.71260535600004,33.36889902400003],[118.73238884700004,33.318403345000036],[118.73617745700005,33.29817554600004],[118.46297062000008,33.18590827400004],[118.23927077700012,33.201285462000044],[118.20999523000012,33.18720349000006],[118.21491946700007,33.179506950000075],[118.2635235030001,33.15728585700003],[118.27566410400004,33.15291027100005],[118.29466116300011,33.13978439500005],[118.31052911200004,33.14343112000006],[118.33661041700009,33.14282598500006],[118.35921524300011,33.14600153300006],[118.38192318800009,33.13142223800003],[118.39501670200002,33.126970345000075],[118.4248525800001,33.139100401000064],[118.43719866200001,33.14612665200008],[118.47030804300005,33.15249896300003],[118.48159441200005,33.14934477600008],[118.4869990740001,33.14541762700003],[118.47996742800001,33.13368375600004],[118.44201314000009,33.10399508200004],[118.42629084300006,33.087734097000066],[118.44321687100012,33.083007622000025],[118.4581011890001,33.07723779600008],[118.4440867080001,33.058889013000055],[118.41960563200007,33.03732260700008],[118.40198264300011,33.02592560700003],[118.40215342400006,33.06495760100006],[118.36722840400012,33.04055525000007],[118.3448497060001,33.029872315000034],[118.33656369100004,33.02452658200008],[118.33363732300006,33.01486870800005],[118.33651656400002,33.00520509800003],[118.35999964500002,32.99372991100006],[118.37150884700009,32.988199945000076],[118.36490057900005,32.980373547000056],[118.32034514100008,32.96530201400003],[118.28280706800001,32.96195890900003],[118.25665837500003,32.96138025000005],[118.24791491100007,32.95605787400007],[118.24287586500009,32.949306283000055],[118.22942870100007,32.96914488700003],[118.22173507600007,32.98859743700007],[118.21534468900006,33.006775137000034],[118.20450802300002,33.04300286000006],[118.19958449400008,33.06620202700003],[118.20097725500011,33.079912172000036],[118.1991418020001,33.10014188900004],[118.19972992900011,33.12020953600006],[118.19660242400005,33.14683774400004],[118.20064329000002,33.18678142700003],[118.19582127900003,33.19656701300005],[118.17308128900004,33.20164489500007],[118.14790285600009,33.19702865900007],[118.12692811900001,33.16177044400007],[118.09027730100001,33.15357729200008],[118.07114267300005,33.146173513000065],[118.04920387000004,33.13974874400003],[118.0218326700001,33.131842978000066],[118.00367894700003,33.14888070500007],[117.97651292300009,33.17531002000004],[117.94041227500009,33.18717129800007],[117.92844816500008,33.20028482500004],[117.91461474200003,33.217052616000046],[117.91161570500003,33.245609337000076],[117.92159339500006,33.272533657000054],[117.93399372200008,33.289555094000036],[117.93815392200008,33.310784719000026],[117.94378731000006,33.33954078800008],[117.96809747900011,33.35498301900003],[118.00028240800009,33.39744884500004],[118.00795037300009,33.44755297100005],[118.01369857600002,33.475598321000064],[118.04002312400007,33.475832524000054],[118.08254711300003,33.48574485300003],[118.07998694000003,33.51871127600003],[118.07805370100004,33.55873024400006],[118.08150076100003,33.59754712800003],[118.09906113300008,33.62222924100007],[118.13192913500006,33.64600044200006],[118.13603368100007,33.691865180000036],[118.1234236470001,33.73517459300007],[118.13546144400004,33.73633690400004],[118.1441613610001,33.73832677900003],[118.15145683100002,33.765365374000055],[118.15121556200006,33.79391136400005],[118.1529602820001,33.82551917100005],[118.1441764010001,33.85656629500005],[118.12393581600008,33.894008935000045],[118.09828809700002,33.91715044100005],[118.06413775900012,33.928053943000066],[118.0455353100001,33.96581402500004],[118.02459026800011,33.997309607000034],[118.03520401300011,34.02961617500006],[118.02282459000003,34.06918961500003],[117.99414148300002,34.09574696400006],[117.98299221100001,34.12096834500005],[118.03750236000008,34.14993188200003],[118.0970900320001,34.13295823200008],[118.13857300900008,34.138043770000024],[118.182535314,34.150748984000074],[118.2075323470001,34.13132677700003],[118.23686208100003,34.10604635400006],[118.28327111300007,34.09552374400005],[118.33793622000007,34.09996892300006],[118.38089487800005,34.098415173000035],[118.40746740700001,34.102826262000065],[118.44822784200005,34.09636735000004],[118.50277245300003,34.119155559000035],[118.48114555100005,34.124491990000024],[118.50085531500008,34.14729895000005],[118.53498826900011,34.17032355200007],[118.54629928200006,34.206684780000046],[118.53549936200011,34.243436280000026],[118.55004906500005,34.279073604000075],[118.58226320500012,34.28936228400005],[118.62185646600005,34.305951995000044],[118.63031124300005,34.34115413200004],[118.66180136500009,34.320656893000034],[118.70521799700009,34.31712693000003],[118.73642858100004,34.303993269000046],[118.77068257000008,34.31729227500006],[118.80044627100006,34.34429625000007],[118.84450352900001,34.35078655700005],[118.90391389100012,34.346322247000046],[118.95306474300003,34.35833781000008],[119.01374894000003,34.38316623800006],[119.04454697200003,34.329488895000054],[119.06264138800009,34.29988912600004],[119.06876376700006,34.263007584000036],[119.06798136900011,34.22855299500003],[119.07655174400008,34.19836480200007],[119.11066668100011,34.18258169600006],[119.11345396600007,34.13216120000004],[119.14710584700003,34.103514150000024],[119.15728946400009,34.06689548400004]]]}},{"type":"Feature","properties":{"code":"CN032070","name":"Suzhou","label":"Suzhou · 苏州市","type":"Prefecture-level city","parentCode":"CN-JS"},"geometry":{"type":"MultiPolygon","coordinates":[[[[120.51149673500004,31.99355960200006],[120.55160623800009,31.981105479000064],[120.58579271400004,31.982743990000074],[120.6137258980001,31.986751107000032],[120.62026058600009,31.98745097400007],[120.6247127800001,31.987922713000046],[120.6270081560001,31.987963613000034],[120.63671007100004,31.98708754000006],[120.64410452000004,31.98826824400004],[120.6591893320001,31.988537032000067],[120.66995283100005,31.986864896000043],[120.67535057600003,31.98713073400006],[120.71921604400006,31.98041242000005],[120.738638261,31.97512607400006],[120.73937856500004,31.973643753000033],[120.74711069900002,31.96709644500004],[120.75226720300009,31.95731581000007],[120.75254732100007,31.94533190900006],[120.7557592930001,31.934035985000037],[120.77517846,31.901051885000072],[120.7821683520001,31.894357730000024],[120.79143857200006,31.88349887100003],[120.79892628400012,31.864709809000033],[120.79543326300006,31.84490432000007],[120.79218455700004,31.843085785000028],[120.78653004600005,31.828158793000057],[120.7843847910001,31.826132608000023],[120.77513689800003,31.823244759000033],[120.7746691420001,31.82303235200004],[120.77031630200008,31.822965942000053],[120.76206209100008,31.825162918000046],[120.75048131300002,31.83240868000007],[120.7415231540001,31.83607248900006],[120.73597014300003,31.83990000700004],[120.72821688200008,31.850302080000063],[120.72717241800001,31.83897668700007],[120.72145897200005,31.833636498000033],[120.72707419300002,31.833142097000064],[120.7419880870001,31.82189528500004],[120.74849061100008,31.816803934000063],[120.77483467100001,31.80268566500007],[120.79190952500005,31.78952345700003],[120.80857838100007,31.780745378000063],[120.8119114970001,31.77652823300008],[120.80962284500004,31.771142205000046],[120.8215867020001,31.772016412000028],[120.82472336700005,31.77030401500008],[120.8312226170001,31.765625210000053],[120.84884382100006,31.759970861000056],[120.85928898800012,31.753334081000048],[120.88479427900006,31.74747476300007],[120.90078988000005,31.744257016000063],[120.91899534700008,31.749913925000044],[120.95865847100004,31.743696407000073],[121.00911734100009,31.73650674000004],[121.03932372500003,31.72322545600008],[121.05704010300008,31.709562573000028],[121.09646606500007,31.693333437000035],[121.15513811300002,31.665381334000074],[121.19374414200001,31.634671190000063],[121.22092495400011,31.60861169700007],[121.25446734000002,31.572885991000078],[121.26749664200008,31.539020403000052],[121.27529383000001,31.509884827000064],[121.27435355000011,31.50968575400003],[121.26786739700003,31.502708475000077],[121.27348261800012,31.503445165000073],[121.27653368800009,31.50525188000006],[121.27994889000001,31.49249037100003],[121.28860693000001,31.488502991000075],[121.21111602400003,31.46990730300007],[121.18152705900002,31.454384407000077],[121.11758741000006,31.428347907000045],[121.11154818900002,31.424332321000065],[121.1049096270001,31.41579706300007],[121.11814640300008,31.391656153000042],[121.10658103200001,31.378546973000027],[121.09632239000007,31.373249973000043],[121.0792138270001,31.35599484100004],[121.09704034300012,31.326809524000055],[121.11900576800008,31.305287375000034],[121.06206775900012,31.259520327000075],[121.03620087400009,31.258015072000035],[121.03033281400008,31.227300752000076],[121.03289716000006,31.186936384000035],[121.03515433200005,31.161764988000073],[121.00762763500006,31.137364629000047],[120.988377248,31.119387864000032],[120.95318190100011,31.110801354000046],[120.9179957240001,31.111121121000053],[120.85608233300002,31.111018112000068],[120.84760525800004,31.104712823000057],[120.8291450590001,31.090991316000043],[120.8534554360001,31.062180098000056],[120.86264557700008,31.049804608000045],[120.89219323100008,31.038376549000077],[120.90092776400002,31.02425888700003],[120.89260728800002,31.02406691500005],[120.86263968500009,31.01411680800004],[120.81673976100001,31.01353512700007],[120.77074168400009,31.003130992000024],[120.73444391900011,31.00260103900007],[120.7022817940001,30.99190691900003],[120.64170591600009,30.972988163000025],[120.6411220010001,30.96845976900005],[120.65018397300003,30.953898739000067],[120.6694594280001,30.93383149400006],[120.69120402500005,30.890625355000054],[120.68406553500006,30.87753008100003],[120.67751902400005,30.868962699000065],[120.6374738610001,30.854268941000043],[120.566810153,30.85606013000006],[120.53161457700003,30.836312493000037],[120.50540210500003,30.77111597000004],[120.46191815400005,30.760245988000065],[120.44187542500003,30.810843266000063],[120.42252369700009,30.86504466100007],[120.41647075100002,30.914598436000063],[120.35632684300003,30.909644766000042],[120.32927456900006,30.902786457000047],[120.3282607750001,30.903418645000045],[120.29488116000005,30.92446713100003],[120.27925608600003,30.921440893000067],[120.27243044200009,30.91910888500007],[120.26560518000008,30.916776473000027],[120.25482346600006,30.917716532000043],[120.24368496300008,30.91575870300005],[120.23254632400005,30.91379987600004],[120.21044467400009,30.911327889000063],[120.19491545000005,30.912676584000053],[120.18430773900002,30.915059014000065],[120.15067638500011,30.925281580000046],[120.12041104500008,30.938134052000066],[120.09194349000006,30.951558790000036],[120.08108076200006,30.959072310000067],[120.07513464800002,30.96397424500003],[120.06685711800003,30.967611516000034],[120.04329060100008,30.978402464000055],[120.0185096030001,30.993683840000074],[120.0090962910001,30.998874169000032],[119.98639073100003,31.009580924000034],[119.97248545000002,31.02100387400003],[119.95261345100005,31.044632097000033],[119.93488686300009,31.060758716000066],[119.92330502800007,31.07343869600004],[119.91421954100008,31.088835522000068],[119.90617996300011,31.11292102400006],[119.89862530000005,31.141348140000048],[119.89126995400011,31.156595371000037],[119.89288264100003,31.15325291100004],[119.91631130100006,31.173293458000046],[120.12282627400009,31.293713558000036],[120.20897319700009,31.338950673000056],[120.27048530100001,31.383897842000067],[120.3280967280001,31.412240997000026],[120.37907985600009,31.42942709600004],[120.39075258200012,31.436995496000065],[120.39768119200005,31.444169991000024],[120.42418417200008,31.447235513000066],[120.45923463600002,31.444670271000064],[120.49270798100008,31.44225426400004],[120.53240352500006,31.466504968000038],[120.55655313200009,31.494618958000046],[120.57161464500007,31.519017646000066],[120.5796542600001,31.551055894000058],[120.55479118200003,31.57391046200007],[120.52225547600005,31.575780035000037],[120.5286900110001,31.603819478000048],[120.5659070910001,31.608880260000035],[120.57947448400012,31.633886360000076],[120.55211683700009,31.662535270000035],[120.56088675600006,31.69588543200007],[120.60333729000001,31.723539474000063],[120.57680116100005,31.75441912000008],[120.5615663320001,31.78138307200004],[120.5216044230001,31.800635688000057],[120.5078108670001,31.826519182000027],[120.47804884100003,31.849824237000064],[120.44431565200011,31.875822351000068],[120.40785541100001,31.889594445000057],[120.36642014000006,31.902460937000058],[120.35234901400008,31.95347207800006],[120.35365384800002,31.953776022000056],[120.37078763700003,31.955462226000066],[120.37154073800002,31.95618978400006],[120.39746110300007,31.956884829000046],[120.42652439300002,31.95264668300007],[120.42789925200009,31.96399963500005],[120.43225711200012,31.96435817500003],[120.44438795200006,31.974429556000075],[120.44606105900004,31.976475919000052],[120.44962336800006,31.980827306000037],[120.45165336000002,31.986013609000054],[120.45082171800004,31.99540068600004],[120.45197423000002,32.00000091000004],[120.4445656790001,32.00696530600004],[120.45616340400011,32.00727030300004],[120.47971052800006,32.00257534100007],[120.51149673500004,31.99355960200006]]],[[[120.42949042900011,31.975015635000034],[120.42921912400004,31.97489852700005],[120.43000153300011,31.981359302000044],[120.42925566500003,32.002272111000025],[120.43294468500005,32.00388927700004],[120.43488300500007,32.00282325400008],[120.43882839300011,32.00000091000004],[120.44033124200007,31.996769293000057],[120.4385533620001,31.99199881100003],[120.43258780400004,31.98623297900008],[120.43250267500002,31.98018884100003],[120.42949042900011,31.975015635000034]]]]}},{"type":"Feature","properties":{"code":"CN032080","name":"Taizhou","label":"Taizhou · 泰州市","type":"Prefecture-level city","parentCode":"CN-JS"},"geometry":{"type":"Polygon","coordinates":[[[120.17565015700006,32.627443336000056],[120.21207935400002,32.59384361000008],[120.24464349100003,32.57270120600003],[120.25015240700009,32.54030503900003],[120.25036773700003,32.504726177000066],[120.25307917200007,32.46336073200007],[120.26232014300001,32.42228458000005],[120.26916178300007,32.37952997000008],[120.33206721300007,32.36701390700006],[120.37071009900001,32.360012521000044],[120.34431017100007,32.30392150700004],[120.33320011800004,32.27312261800006],[120.34306689800007,32.24120475800004],[120.33150261800006,32.17286646800005],[120.35660234200009,32.12666603400004],[120.39801468600001,32.12491896100005],[120.43039700300005,32.124502936000056],[120.46963577800011,32.11462679300007],[120.50419141500004,32.07902468000003],[120.4886299420001,32.07788247700006],[120.47901241600005,32.079006898000046],[120.47370824300003,32.07681647100003],[120.43592746800005,32.06512764400003],[120.40609640500008,32.04949997800003],[120.35526147100006,32.015959268000074],[120.35156164600005,32.00417549100007],[120.35151756100004,32.00384091500007],[120.32910043800007,31.989748664000047],[120.32490224200001,31.986904077000077],[120.32232648400009,31.985365321000074],[120.32099147200006,31.98425424100003],[120.30048833100011,31.970361851000064],[120.30050808800002,31.96799386500004],[120.28060032100007,31.95455200300006],[120.27015593500005,31.949853321000035],[120.17992342100001,31.921618832000036],[120.1412087980001,31.92257733100007],[120.07972304700002,31.94136706200004],[120.00088605200006,31.962645630000054],[119.9546536690001,32.014944684000056],[119.93144084900007,32.06515547200007],[119.91898625200008,32.08311172600003],[119.90651644100001,32.10106925400004],[119.8856134880001,32.17048402800003],[119.86466569600009,32.23988897300006],[119.85944280800004,32.24515446300006],[119.84867875600003,32.25328502800005],[119.83269179600006,32.26668273700005],[119.85640225800012,32.36623305000006],[119.85870525400003,32.38537654400005],[119.8313031450001,32.41146787400004],[119.85102549400006,32.43871409900004],[119.83965462200001,32.464699282000026],[119.8153711220001,32.487265828000034],[119.81072824800003,32.52370258000008],[119.82220896100011,32.55864200700006],[119.7995303460001,32.58566809100006],[119.80429462400002,32.61476227500003],[119.8607891260001,32.61875024200003],[119.87681929900009,32.64218039600007],[119.87563223200004,32.67156568400003],[119.84253140800001,32.71920784500003],[119.84054275100004,32.750775040000065],[119.80488464900009,32.783143626000026],[119.79182980300004,32.80926403400008],[119.76138144900005,32.82268337900007],[119.76069770600009,32.85180702200006],[119.76684390500009,32.88769040100004],[119.74738328900003,32.91070024000004],[119.70338537500004,32.91657388600004],[119.68639179000002,32.942110273000026],[119.67843965200007,32.97005113600005],[119.67551028800005,33.00767859100006],[119.66616901600003,33.05095477700007],[119.63971679500003,33.10174920000003],[119.63583078200008,33.14501640800006],[119.6429363630001,33.17112112800004],[119.65954505900004,33.19451255600006],[119.69961263200003,33.20839904500008],[119.72540366400005,33.18714044500007],[119.73217433200011,33.15839284400005],[119.75181771400003,33.13630469000003],[119.78822379000007,33.13434833900004],[119.82728839700007,33.144597790000034],[119.87299325700008,33.15974665300007],[119.90910871500012,33.15962910500008],[119.94487578600001,33.156767933000026],[119.98039182500008,33.15207044700003],[120.01952599100002,33.171012208000036],[120.05766789500001,33.182196187000045],[120.10492300500005,33.17082781300007],[120.17822488900003,33.15373168200006],[120.24442134300011,33.132657608000045],[120.25640120300011,33.107513536000056],[120.25542361600003,33.07945808900007],[120.24747282600003,33.052528651000046],[120.25856379200002,33.02470215000005],[120.26942468800007,32.987193251000065],[120.2638711620001,32.95357670000004],[120.23545890000003,32.932760657000074],[120.19734672700008,32.93363308000005],[120.17027099000006,32.918675492000034],[120.17303389000006,32.889797276000024],[120.17812044800007,32.862085852000064],[120.17125085600003,32.826277091000065],[120.15336525200007,32.79797660500003],[120.19845763400008,32.76366436100005],[120.16469137800004,32.738735279000025],[120.14047843500009,32.71611507100005],[120.12024432900012,32.69034177900005],[120.09330418700006,32.633813005000036],[120.13014117600005,32.61599266200005],[120.17565015700006,32.627443336000056]]]}},{"type":"Feature","properties":{"code":"CN032090","name":"Wuxi","label":"Wuxi · 无锡市","type":"Prefecture-level city","parentCode":"CN-JS"},"geometry":{"type":"Polygon","coordinates":[[[120.27015593500005,31.949853321000035],[120.26338795100003,31.946808565000026],[120.27078105200007,31.93318797200004],[120.31345345300008,31.944411865000063],[120.35234901400008,31.95347207800006],[120.36642014000006,31.902460937000058],[120.40785541100001,31.889594445000057],[120.44431565200011,31.875822351000068],[120.47804884100003,31.849824237000064],[120.5078108670001,31.826519182000027],[120.5216044230001,31.800635688000057],[120.5615663320001,31.78138307200004],[120.57680116100005,31.75441912000008],[120.60333729000001,31.723539474000063],[120.56088675600006,31.69588543200007],[120.55211683700009,31.662535270000035],[120.57947448400012,31.633886360000076],[120.5659070910001,31.608880260000035],[120.5286900110001,31.603819478000048],[120.52225547600005,31.575780035000037],[120.55479118200003,31.57391046200007],[120.5796542600001,31.551055894000058],[120.57161464500007,31.519017646000066],[120.55655313200009,31.494618958000046],[120.53240352500006,31.466504968000038],[120.49270798100008,31.44225426400004],[120.45923463600002,31.444670271000064],[120.42418417200008,31.447235513000066],[120.39768119200005,31.444169991000024],[120.39075258200012,31.436995496000065],[120.37907985600009,31.42942709600004],[120.3280967280001,31.412240997000026],[120.27048530100001,31.383897842000067],[120.20897319700009,31.338950673000056],[120.12282627400009,31.293713558000036],[119.91631130100006,31.173293458000046],[119.89288264100003,31.15325291100004],[119.89126995400011,31.156595371000037],[119.8803061530001,31.167388824000057],[119.85274205700011,31.17457102700007],[119.80598800100006,31.176329042000077],[119.76383382600011,31.181290137000076],[119.7019351570001,31.19127055900003],[119.64405907100002,31.17864735300003],[119.61209206900003,31.13824851000004],[119.60824717000003,31.122967542000026],[119.5904314820001,31.12470206200004],[119.56324952400007,31.11957708500006],[119.53839861100005,31.14723851800005],[119.51583778600002,31.169666799000026],[119.52939044000004,31.206820046000075],[119.51441314700003,31.237784866000027],[119.50538810100011,31.26496366500004],[119.51124986600007,31.295861428000023],[119.516038148,31.335641923000026],[119.51273385700006,31.388176847000068],[119.54006013800006,31.42819310300007],[119.58051154800012,31.43925776100008],[119.55457811100007,31.468451827000024],[119.55180127800008,31.507530101000043],[119.5811538480001,31.537178623000045],[119.61394600200003,31.572974387000045],[119.65545700400003,31.605179563000036],[119.69687669200005,31.57083588100005],[119.73105786300005,31.54777370800008],[119.7701773760001,31.53440916900007],[119.81277114700003,31.53179735200007],[119.84565466000004,31.545804074000046],[119.88587308900003,31.562807471000042],[119.92341687400005,31.55832329800006],[119.94417538800008,31.531384751000076],[119.97476156000005,31.50581545800003],[120.0073227470001,31.500390254000024],[120.04463454500001,31.478247688000067],[120.09646435200011,31.507480129000044],[120.0693165890001,31.540676640000072],[120.05007863200001,31.562406082000052],[120.04915791700012,31.593013060000033],[120.07470517500008,31.61644909300003],[120.10456926000006,31.644086577000053],[120.12258764900002,31.679799180000032],[120.12934829500011,31.719826254000054],[120.13642126600007,31.749652215000026],[120.17551200600008,31.756507475000035],[120.17060021700001,31.78518559200006],[120.15541343000007,31.80929988400004],[120.1549890010001,31.839390278000053],[120.16904922800006,31.86899673100004],[120.12866614600011,31.869196421000026],[120.09537782900009,31.85760785900004],[120.0544174040001,31.844897597000056],[120.01636662400006,31.83374359900006],[119.99988229200005,31.860731850000036],[119.99855765000007,31.892741645000058],[120.00661345700007,31.922011540000028],[120.00088605200006,31.962645630000054],[120.07972304700002,31.94136706200004],[120.1412087980001,31.92257733100007],[120.17992342100001,31.921618832000036],[120.27015593500005,31.949853321000035]]]}},{"type":"Feature","properties":{"code":"CN032100","name":"Xuzhou","label":"Xuzhou · 徐州市","type":"Prefecture-level city","parentCode":"CN-JS"},"geometry":{"type":"Polygon","coordinates":[[[117.37095369000008,34.57249432200007],[117.4228077780001,34.492187140000055],[117.4586521970001,34.45574701900006],[117.51688314400008,34.44909009200006],[117.54394887600006,34.468002744000046],[117.55904401800001,34.476046601000064],[117.58555093200005,34.487901055000066],[117.59464453600003,34.49291115300008],[117.63092123900003,34.512891496000066],[117.69030067300002,34.51937669300003],[117.76717839600008,34.509807797000065],[117.78389161200005,34.536337814000035],[117.77470012000003,34.571393819000036],[117.76839070800008,34.614261216000045],[117.79157062800004,34.63254036100005],[117.79463214200007,34.63494449500007],[117.90763169400009,34.668446079000034],[117.9938953510001,34.650241910000034],[118.06366780100007,34.63470130700006],[118.06265617000008,34.63300899200004],[118.04273293900008,34.59958717200004],[118.06057337100003,34.56311817300008],[118.09008763600002,34.54545416700006],[118.14003370600005,34.53278908900006],[118.11562483900002,34.49612078200005],[118.12554076200001,34.47072892400007],[118.13667764200011,34.42222717900006],[118.1555066300001,34.39857419500004],[118.16554230400004,34.385968985000034],[118.20022888800008,34.401639086000046],[118.26756047800006,34.422445356000026],[118.30012962300009,34.42669900800007],[118.33909457100003,34.41637517800007],[118.3680611310001,34.429693257000054],[118.37080127900003,34.433238620000054],[118.41631486500012,34.40702833000006],[118.46446630700007,34.41056699300003],[118.50762310100004,34.41909134800005],[118.54647011500003,34.42380367000004],[118.59381491200008,34.42506330800006],[118.6306136930001,34.406912299000055],[118.6325981010001,34.37086870500008],[118.63031124300005,34.34115413200004],[118.62185646600005,34.305951995000044],[118.58226320500012,34.28936228400005],[118.55004906500005,34.279073604000075],[118.53549936200011,34.243436280000026],[118.54629928200006,34.206684780000046],[118.53498826900011,34.17032355200007],[118.50085531500008,34.14729895000005],[118.48114555100005,34.124491990000024],[118.50277245300003,34.119155559000035],[118.44822784200005,34.09636735000004],[118.40746740700001,34.102826262000065],[118.38089487800005,34.098415173000035],[118.33793622000007,34.09996892300006],[118.28327111300007,34.09552374400005],[118.23686208100003,34.10604635400006],[118.2075323470001,34.13132677700003],[118.182535314,34.150748984000074],[118.13857300900008,34.138043770000024],[118.0970900320001,34.13295823200008],[118.03750236000008,34.14993188200003],[117.98299221100001,34.12096834500005],[117.99414148300002,34.09574696400006],[118.02282459000003,34.06918961500003],[118.03520401300011,34.02961617500006],[118.02459026800011,33.997309607000034],[118.0455353100001,33.96581402500004],[118.06413775900012,33.928053943000066],[118.09828809700002,33.91715044100005],[118.12393581600008,33.894008935000045],[118.1441764010001,33.85656629500005],[118.1529602820001,33.82551917100005],[118.15121556200006,33.79391136400005],[118.15145683100002,33.765365374000055],[118.1441613610001,33.73832677900003],[118.13546144400004,33.73633690400004],[118.1234236470001,33.73517459300007],[118.07413304500005,33.737196435000044],[118.04873869400001,33.73602078500005],[118.01694350100001,33.72458433500003],[117.99655066900004,33.73020408200006],[117.95864585300001,33.749242937000076],[117.90180998300002,33.76581308200008],[117.88328235600011,33.72964387800005],[117.86858288100007,33.69945662300006],[117.8151335020001,33.742384136000055],[117.76771483000005,33.71492287500007],[117.75210481700003,33.71225444300006],[117.71385249600007,33.72769212700007],[117.71233094200011,33.73575512300005],[117.70966022700009,33.74121843700004],[117.68606708200002,33.78951592000004],[117.70902973500006,33.81394241900006],[117.72383425200007,33.845910554000056],[117.7174729620001,33.88791582300007],[117.68130288700002,33.889930925000044],[117.66479138900002,33.88996008000004],[117.613868722,33.92643955200003],[117.61980442400011,33.95801487400007],[117.62685133500008,34.00282246200004],[117.5907783780001,34.00657094300004],[117.57327759900011,33.99511761900004],[117.56055068500007,33.987835407000034],[117.5362682330001,33.98738281800007],[117.51157182400004,34.02238887100003],[117.50777808700002,34.03250681600008],[117.50613680100003,34.036858524000024],[117.47128268100005,34.04227668000004],[117.44580429500002,34.04097894200004],[117.42100781400006,34.03432696800007],[117.40447592600003,34.021029989000056],[117.3985022170001,34.02134984600008],[117.37702284700003,34.022485809000045],[117.35704136000004,34.048345992000066],[117.3324374440001,34.071789178000074],[117.27448017100005,34.078358843000046],[117.23606370200002,34.067059382000025],[117.17906036900001,34.07176565900005],[117.1333715830001,34.066126215000054],[117.09846056700007,34.08629614000006],[117.09640249300003,34.087484603000064],[117.06923084900006,34.12162954400003],[117.0420464010001,34.14158912900007],[117.01332351100007,34.170480816000065],[117.00042801200004,34.218941339000025],[116.95954458400001,34.24841955100004],[116.9306580870001,34.26135353400008],[116.92079199600005,34.291941361000056],[116.92586082800005,34.30054897200006],[116.92802954400008,34.31460835000007],[116.92463394200001,34.343107470000064],[116.91509297200002,34.356074757000044],[116.89742222500001,34.36965072400005],[116.86699724300001,34.38141354700008],[116.83863154000005,34.380472148000024],[116.80692174,34.37718874900003],[116.78524224600005,34.38089963600004],[116.74461020800004,34.420877904000065],[116.70394070100008,34.46084131200007],[116.67846427000006,34.457185655000046],[116.61740892700004,34.470251948000055],[116.60311828700003,34.476165679000076],[116.54401915500011,34.50278591400007],[116.49340755200001,34.54049666100008],[116.45519119400001,34.58116507300008],[116.40161500900001,34.609229921000065],[116.35706937500004,34.623596503000044],[116.33331800400003,34.62676846900007],[116.33686903900002,34.63687863500007],[116.35941441200009,34.65800763000004],[116.36503704200004,34.691385050000065],[116.33873812700006,34.72970885500007],[116.35336894900001,34.74853153500004],[116.35943254900008,34.772156866000046],[116.38036818300009,34.78538601900004],[116.38057216000004,34.820769992000066],[116.38171774000011,34.837410471000055],[116.38196701400011,34.84105983200004],[116.38194034300011,34.856988846000036],[116.43536321900001,34.872305589000064],[116.46419922300004,34.87668180500003],[116.48040401800006,34.87913236600008],[116.53267694500005,34.89358437100003],[116.55565024000009,34.903154106000045],[116.59122224100008,34.91745337100008],[116.62398403700001,34.90797979200005],[116.64960025000005,34.90768134700005],[116.69318975600004,34.90918968100004],[116.71523707900008,34.901999183000044],[116.72803290800005,34.89782203900006],[116.76469059500005,34.89609253800006],[116.76671725200003,34.89641019800007],[116.8242173860001,34.879085203000045],[116.87445357500008,34.86516102300004],[116.92434184800004,34.847511534000034],[116.93522965000011,34.80544516000003],[116.96359284800008,34.76862868400008],[116.98967724800002,34.74199424600005],[117.01305305200003,34.720547424000074],[117.02363024200008,34.69729436400007],[117.02141589700011,34.67225394800005],[117.02862692100007,34.646676642000045],[117.05554223800004,34.630045832000064],[117.08691270400004,34.62825758900004],[117.09677850800006,34.59749096200005],[117.10754466300011,34.57673541100007],[117.11573200900011,34.548976579000055],[117.1213713300001,34.472992384000065],[117.12610716100005,34.45659253500003],[117.12423276600009,34.43561253200005],[117.14790673700008,34.42307867900007],[117.17445085000008,34.425263192000045],[117.21433691700008,34.43782658600003],[117.22734554500005,34.44450831800003],[117.23496942600002,34.460190658000045],[117.23125408900012,34.48770089100003],[117.26054584500002,34.536839936000035],[117.23662881700011,34.54692692400005],[117.31135287500001,34.56610875600006],[117.33433769700002,34.579630112000075],[117.37095369000008,34.57249432200007]]]}},{"type":"Feature","properties":{"code":"CN032110","name":"Yancheng","label":"Yancheng · 盐城市","type":"Prefecture-level city","parentCode":"CN-JS"},"geometry":{"type":"Polygon","coordinates":[[[120.83184598000003,32.62379204900003],[120.79790969300007,32.60589220500003],[120.75488177500006,32.59775026300008],[120.7192686090001,32.58792773000005],[120.68734457800008,32.59713391400004],[120.64637194600004,32.59198154000006],[120.61208305000002,32.62773562000007],[120.57723644500004,32.64366303200006],[120.54408741000009,32.640013133000025],[120.49994445000004,32.63558510900003],[120.45918075100008,32.63589597400005],[120.41809547600008,32.650077457000066],[120.39649679100012,32.67989315700004],[120.36566085400011,32.70182959600004],[120.32408366100003,32.70031851600004],[120.28893564600003,32.68987023200003],[120.24424723600009,32.68124884000002],[120.20464546100004,32.66566147100008],[120.17565015700006,32.627443336000056],[120.13014117600005,32.61599266200005],[120.09330418700006,32.633813005000036],[120.12024432900012,32.69034177900005],[120.14047843500009,32.71611507100005],[120.16469137800004,32.738735279000025],[120.19845763400008,32.76366436100005],[120.15336525200007,32.79797660500003],[120.17125085600003,32.826277091000065],[120.17812044800007,32.862085852000064],[120.17303389000006,32.889797276000024],[120.17027099000006,32.918675492000034],[120.19734672700008,32.93363308000005],[120.23545890000003,32.932760657000074],[120.2638711620001,32.95357670000004],[120.26942468800007,32.987193251000065],[120.25856379200002,33.02470215000005],[120.24747282600003,33.052528651000046],[120.25542361600003,33.07945808900007],[120.25640120300011,33.107513536000056],[120.24442134300011,33.132657608000045],[120.17822488900003,33.15373168200006],[120.10492300500005,33.17082781300007],[120.05766789500001,33.182196187000045],[120.01952599100002,33.171012208000036],[119.98039182500008,33.15207044700003],[119.94487578600001,33.156767933000026],[119.90910871500012,33.15962910500008],[119.87299325700008,33.15974665300007],[119.82728839700007,33.144597790000034],[119.78822379000007,33.13434833900004],[119.75181771400003,33.13630469000003],[119.73217433200011,33.15839284400005],[119.72540366400005,33.18714044500007],[119.69961263200003,33.20839904500008],[119.68014033700001,33.23645146100006],[119.6661441220001,33.29950215000002],[119.62954060100003,33.30050741800005],[119.61701870400009,33.32745630000005],[119.60274413500008,33.35363929500005],[119.55649758200002,33.414028829000074],[119.56777593000004,33.442975766000075],[119.54181762000007,33.463733131000026],[119.5042889230001,33.47998990900004],[119.45734870800004,33.540382770000065],[119.45746421400008,33.58138768600003],[119.4563975320001,33.61281349700005],[119.45522525700005,33.64332977300006],[119.45815776500001,33.66636184600003],[119.4831883820001,33.74912883700006],[119.49923751800009,33.77627098800008],[119.51744030500004,33.80736567900004],[119.53857548200006,33.83958417400004],[119.56673124000008,33.857350988000064],[119.60725157800005,33.87676829800006],[119.61268921800001,33.93295408800003],[119.6274291960001,33.95789674400004],[119.57919402100003,33.965428760000066],[119.54949361900003,33.99754934900005],[119.54365635600004,34.030314400000066],[119.55596911000009,34.06238589000003],[119.53548879700008,34.09322131400006],[119.50524169300002,34.11247802100007],[119.50395549400002,34.14206639300005],[119.48151730600011,34.16200956100005],[119.4911016740001,34.19432224600007],[119.51907548100007,34.209815380000066],[119.55265927500011,34.212375259000055],[119.58633074900001,34.21997834200005],[119.61545567300004,34.23535073900007],[119.64963140200007,34.251188658000046],[119.69130318400005,34.269110530000034],[119.7121236050001,34.29303451000004],[119.71868940700006,34.32698859900006],[119.74913679300005,34.356494799000075],[119.7732615430001,34.384262782000064],[119.74557757700006,34.44090173600006],[119.76842819100011,34.49237260800004],[119.77762049600005,34.47663385000004],[119.78128943900003,34.47698703700007],[119.78019086500001,34.47569430500005],[119.77754205300005,34.466664114000025],[119.78473542900008,34.44140708200007],[119.784493139,34.43428901200008],[119.7796931900001,34.41762670500003],[119.78259411400006,34.41449658800008],[119.78883470300002,34.42362827900007],[119.79400790900002,34.44443569900005],[119.78372043200011,34.47097621000006],[119.78769528800001,34.474993631000075],[119.79403082800002,34.47586783700007],[119.80534312400005,34.470465438000076],[119.81670453200002,34.47057021200004],[119.83238131100006,34.46643819600007],[119.8448395690001,34.466339970000035],[119.85891854800002,34.46463739600006],[119.8785177950001,34.46226361500004],[119.87932239400004,34.462066649000064],[119.89794458300003,34.453040791000035],[119.92282804600006,34.44390703300007],[119.96033573600005,34.43651233400004],[119.99102394500005,34.42872138100006],[120.01625441600004,34.413219913000034],[120.0493111400001,34.39710189600004],[120.071784105,34.38085726000003],[120.07732618300008,34.376845468000056],[120.08316358600007,34.375300097000036],[120.0798046220001,34.36756120300004],[120.08637262900004,34.360443134000036],[120.10108414000001,34.37055587900005],[120.11122291400011,34.36787178000003],[120.14568707900003,34.35432752000003],[120.1929932050001,34.33523959900003],[120.22418058900007,34.32282728100006],[120.24119198000005,34.30521475100005],[120.2541840450001,34.28249099100003],[120.26437569000007,34.255472216000044],[120.2577076450001,34.24696690700006],[120.27668715400011,34.236414411000055],[120.28574385900004,34.21851894100007],[120.29001826600006,34.19829611100005],[120.28981955300003,34.17842900800008],[120.29741667400003,34.16697330300008],[120.31239113200002,34.142270894000035],[120.316075307,34.12661002900006],[120.31286203200011,34.113165680000066],[120.3118676470001,34.108982155000035],[120.28565238200008,34.103904503000024],[120.26329954900007,34.097369237000066],[120.24974116500005,34.091518276000045],[120.24806151000007,34.08768748400007],[120.25299897500008,34.08619773200007],[120.26467143000002,34.090064539000025],[120.270463457,34.089985959000046],[120.27313191400003,34.09234664400003],[120.28241749100005,34.09441920000006],[120.28618607400006,34.09703527100004],[120.29657832400005,34.099134021000054],[120.30940984000006,34.10244094400008],[120.31660734100001,34.102448268000046],[120.33471095000004,34.08624277200005],[120.35743465000007,34.060909657000025],[120.37224981000008,34.03530402900003],[120.38326595600006,34.00639054200008],[120.39139173900003,33.99036336000006],[120.3918811740001,33.98767249900004],[120.39115959100002,33.98289732000006],[120.39301472900001,33.98144033300008],[120.39606578300004,33.96466596100004],[120.40540227800011,33.94040627600003],[120.40795731200001,33.91578135000003],[120.41461477700011,33.89716087200003],[120.42938555700005,33.88058076900006],[120.45332985300001,33.86149162300006],[120.45770404600012,33.85147824300003],[120.46700926900007,33.836567623000064],[120.46815868600004,33.835661791000064],[120.46631719800007,33.82602786500007],[120.44955271300012,33.808405142000026],[120.4471382260001,33.78903765000007],[120.44489217600005,33.786037187000034],[120.43488300500007,33.770533940000064],[120.42173062000006,33.75015871100004],[120.41478608200009,33.744487830000025],[120.39466951300005,33.73940630100003],[120.39083872200001,33.739085431000035],[120.39762937300009,33.73351604900006],[120.4017875830001,33.732242393000035],[120.405899954,33.73234061800002],[120.4611419360001,33.75294503900005],[120.46797842600006,33.75379632600004],[120.47467085200003,33.750744790000056],[120.4801380560001,33.740435915000035],[120.48021667700004,33.739879072000065],[120.48153705600009,33.737797983000064],[120.48259764500006,33.735798153000076],[120.48996127800001,33.72129353100007],[120.49993115900008,33.69469735900003],[120.49922066200008,33.69124309800003],[120.50006867500008,33.68277606600003],[120.49703350900006,33.675366594000025],[120.48465055600002,33.66085542400003],[120.48169069700009,33.65917904300005],[120.48618942100006,33.65584592700003],[120.49671918700005,33.66848099200007],[120.50161081400006,33.66974155100007],[120.50697392200004,33.66528211700006],[120.51637409600005,33.66320956000004],[120.52085901500004,33.66040959800006],[120.51822607000008,33.649927439000066],[120.52416386000004,33.625919590000024],[120.52573699700008,33.62289408400005],[120.51252693300012,33.62321871300003],[120.50685932600004,33.62079254500003],[120.49778657000002,33.62172241300004],[120.49759666800003,33.61896555200008],[120.50325772700012,33.608016691000046],[120.51492363400007,33.58543793900003],[120.52796142300008,33.57244271400003],[120.53887099400004,33.55756483600004],[120.54282293000006,33.54595786400006],[120.54247914100006,33.539759839000055],[120.53584237600012,33.52607703700005],[120.53814740000007,33.52246234100005],[120.54725617100007,33.51992485100004],[120.56926849000001,33.508281863000036],[120.58389995400012,33.509723387000065],[120.58255504200008,33.50348046600004],[120.58173438400001,33.47911906400003],[120.58772256100008,33.47027207700006],[120.58846173900008,33.43328347200003],[120.59059978000005,33.418202595000025],[120.5882030790001,33.408281826000064],[120.63200131100007,33.39574964500002],[120.63868973500007,33.38207459500006],[120.64538868700004,33.33807840400004],[120.65052752500003,33.29058805600005],[120.66302551900003,33.26600960500008],[120.66768134100005,33.27647543100005],[120.69368161500006,33.27066891800007],[120.71127492800008,33.260131483000066],[120.72117201600008,33.249626668000076],[120.72370833500008,33.24464153300005],[120.72511950700004,33.234583249000025],[120.72859341300011,33.210815969000066],[120.72960513500004,33.19593809100007],[120.72844607500008,33.18949450200006],[120.72472987900005,33.18620395000005],[120.71441620900009,33.18483206900004],[120.71275292500002,33.185938742000076],[120.70797589500012,33.18170850000007],[120.70433173100002,33.17658768100006],[120.69499049300009,33.17042239800003],[120.6945484790001,33.16720060400007],[120.70137842000008,33.14947091400006],[120.71649858800004,33.11908651400006],[120.71945189900009,33.11181783200004],[120.72268679000001,33.10431995700003],[120.72872765400007,33.09779451500003],[120.73692947800009,33.09271298600004],[120.74064567300002,33.08887892000007],[120.74463690000005,33.088011262000066],[120.77208763300007,33.05610764200003],[120.7775347590001,33.05279279900003],[120.77733471600004,33.03636200500006],[120.7838271280001,33.03475146000005],[120.76915724100002,33.02762226700003],[120.78984024300007,33.00078707900008],[120.79956128600008,32.99411757300004],[120.81157753100001,32.99185183900005],[120.82787313000006,32.98394469200008],[120.83428070200011,32.97857503500006],[120.83667740200008,32.971060790000024],[120.8362288400001,32.959132949000036],[120.83859279800004,32.94360023400003],[120.83735515800004,32.930506784000045],[120.83941789200003,32.92505199800007],[120.85463628500008,32.90680171300005],[120.85785807900004,32.898848728000075],[120.86372213800007,32.85702761400006],[120.86234370700004,32.84875048400005],[120.82140989600009,32.81993441700007],[120.81597148200001,32.81156888400005],[120.8085489130001,32.78803734500008],[120.8163905770001,32.761847171000056],[120.81659685000011,32.754748747000065],[120.8400563570001,32.74997171700005],[120.84226315500007,32.73076864500007],[120.84693868600004,32.72834247700007],[120.88094433000003,32.71507222100007],[120.88472600900002,32.687425037000025],[120.889940636,32.68399802700003],[120.89236986100002,32.653336042000035],[120.89276269600009,32.648591907000025],[120.87602978400002,32.64255893400008],[120.85563236900009,32.641173614000024],[120.84848754900008,32.64716453700004],[120.85116326000002,32.64087008800004],[120.84686337900007,32.64057805500005],[120.84474171000011,32.63870194900005],[120.84281976600005,32.63064091600006],[120.83210664600006,32.62675118800007],[120.83184598000003,32.62379204900003]]]}},{"type":"Feature","properties":{"code":"CN032120","name":"Yangzhou","label":"Yangzhou · 扬州市","type":"Prefecture-level city","parentCode":"CN-JS"},"geometry":{"type":"Polygon","coordinates":[[[119.55649758200002,33.414028829000074],[119.60274413500008,33.35363929500005],[119.61701870400009,33.32745630000005],[119.62954060100003,33.30050741800005],[119.6661441220001,33.29950215000002],[119.68014033700001,33.23645146100006],[119.69961263200003,33.20839904500008],[119.65954505900004,33.19451255600006],[119.6429363630001,33.17112112800004],[119.63583078200008,33.14501640800006],[119.63971679500003,33.10174920000003],[119.66616901600003,33.05095477700007],[119.67551028800005,33.00767859100006],[119.67843965200007,32.97005113600005],[119.68639179000002,32.942110273000026],[119.70338537500004,32.91657388600004],[119.74738328900003,32.91070024000004],[119.76684390500009,32.88769040100004],[119.76069770600009,32.85180702200006],[119.76138144900005,32.82268337900007],[119.79182980300004,32.80926403400008],[119.80488464900009,32.783143626000026],[119.84054275100004,32.750775040000065],[119.84253140800001,32.71920784500003],[119.87563223200004,32.67156568400003],[119.87681929900009,32.64218039600007],[119.8607891260001,32.61875024200003],[119.80429462400002,32.61476227500003],[119.7995303460001,32.58566809100006],[119.82220896100011,32.55864200700006],[119.81072824800003,32.52370258000008],[119.8153711220001,32.487265828000034],[119.83965462200001,32.464699282000026],[119.85102549400006,32.43871409900004],[119.8313031450001,32.41146787400004],[119.85870525400003,32.38537654400005],[119.85640225800012,32.36623305000006],[119.83269179600006,32.26668273700005],[119.81641713400006,32.27768244200007],[119.808283114,32.28318323000008],[119.80013407400008,32.28868010600007],[119.79461601300011,32.291547294000054],[119.78909019500009,32.29441481900005],[119.78123658800007,32.302306842000064],[119.77336753500003,32.31019494200007],[119.75828410600002,32.30659016900006],[119.74316958500003,32.30298389500007],[119.73651496500008,32.29627764500003],[119.72985272900007,32.28957167100003],[119.72261498400007,32.278077203000066],[119.71539214600011,32.26657661300004],[119.6765851240001,32.23588900500005],[119.63444096500007,32.205282209000075],[119.60018868800012,32.22134317000007],[119.58643872400012,32.250296098000035],[119.51503940600003,32.247583966000036],[119.47952403300008,32.238768434000065],[119.44234428000004,32.257819561000076],[119.38889546000007,32.234546702000046],[119.3527143550001,32.21877675600007],[119.31500374900008,32.23367760700006],[119.27862520700012,32.20506235400006],[119.22695976600005,32.225326375000066],[119.18950951600004,32.23785306600007],[119.1444394130001,32.240884857000026],[119.10102054300012,32.23498978300006],[119.06291332900003,32.22815449400008],[119.03916688700008,32.25651064700003],[119.02842061800004,32.29435153800006],[119.02397929400001,32.32610629800007],[119.0209347330001,32.36511553300005],[119.01879733500004,32.39343506700004],[119.02583421100007,32.43065246400005],[119.05184271500002,32.448039351000034],[119.05933777900009,32.44007411100006],[119.09722119100002,32.45082155500006],[119.12890858600008,32.48598153000006],[119.1296810020001,32.52591907200008],[119.14130272700004,32.55533532000004],[119.17619865900008,32.578712274000054],[119.17678921600009,32.59486601700007],[119.1786657560001,32.64607177900007],[119.17307484100002,32.68733040300003],[119.18204861900006,32.711590181000076],[119.19588763500008,32.74084875600005],[119.2029774020001,32.77855721900005],[119.18277296800011,32.81981280400004],[119.19796693300009,32.817837938000025],[119.23678218300006,32.81444508100003],[119.2875276310001,32.82428357400005],[119.29804934700007,32.85747906200004],[119.3043343700001,32.891510949000065],[119.30822334300001,32.91929194700003],[119.3044070200001,32.95097935700005],[119.30296637100002,32.984303614000055],[119.32691004800006,33.01077762800003],[119.34957971600011,33.04012808900006],[119.33278538500008,33.06373978900007],[119.3130358740001,33.08576291300005],[119.29369302600003,33.12480346700005],[119.2545876910001,33.140671643000076],[119.21461081600012,33.149225828000056],[119.20322352300002,33.18662789000007],[119.1719234740001,33.208702290000076],[119.13720754500002,33.21124273000004],[119.11841198700006,33.24189175600003],[119.13500305200012,33.290128981000066],[119.17956069800005,33.290987950000044],[119.21168274400009,33.30294840600004],[119.20113075500001,33.33381743600006],[119.22145014400007,33.35693826000005],[119.25759250700003,33.36116559100003],[119.30389404100004,33.36311122800004],[119.35106458400003,33.363123646000076],[119.39157843700002,33.37153570800007],[119.4290099540001,33.39495614200007],[119.46062661700012,33.411049544000036],[119.49781039900006,33.41880609900005],[119.55649758200002,33.414028829000074]]]}},{"type":"Feature","properties":{"code":"CN032130","name":"Zhenjiang","label":"Zhenjiang · 镇江市","type":"Prefecture-level city","parentCode":"CN-JS"},"geometry":{"type":"Polygon","coordinates":[[[119.83269179600006,32.26668273700005],[119.84867875600003,32.25328502800005],[119.85944280800004,32.24515446300006],[119.86466569600009,32.23988897300006],[119.8856134880001,32.17048402800003],[119.90651644100001,32.10106925400004],[119.91898625200008,32.08311172600003],[119.93144084900007,32.06515547200007],[119.9546536690001,32.014944684000056],[119.92320123500008,32.004524478000064],[119.88814023000009,32.02168749800006],[119.84036787900004,32.05366761800008],[119.79667768400009,32.05404685800005],[119.76845647500011,32.03127843000004],[119.77071214400007,31.99734942300006],[119.74423619600009,31.962396865000073],[119.77269235400001,31.944044802000064],[119.78068804500003,31.91742904000006],[119.77410337100002,31.88616751400008],[119.73293591100003,31.875678590000064],[119.7394781480001,31.84596335300006],[119.7583720020001,31.81602485700006],[119.7379925030001,31.790660888000048],[119.7292433020001,31.73866494200007],[119.68202324600009,31.76444254300003],[119.65309532300012,31.78282867100006],[119.60836549100009,31.79988763500006],[119.57469309300006,31.81498965800006],[119.56491463300006,31.840828831000067],[119.53790591200004,31.87101304600003],[119.49355497300007,31.869509684000036],[119.43299285900002,31.862992010000028],[119.39866279000012,31.83700099400005],[119.35794665900005,31.856823818000066],[119.31887453700006,31.867717971000047],[119.33305344400003,31.823963095000067],[119.33088856800009,31.792296117000035],[119.32486554100001,31.76420108800005],[119.30199079200008,31.74361962300003],[119.29771063800001,31.707513964000043],[119.29843543200002,31.672808332000045],[119.266476538,31.665966923000042],[119.18119746400009,31.64860757400004],[119.17351461900012,31.674690825000027],[119.16757245000008,31.70661831600006],[119.12981750200004,31.719185976000063],[119.10028048600009,31.747174147000067],[119.08643525100001,31.77147741700003],[119.04379247100007,31.788594887000045],[118.98164094800006,31.800000709000074],[118.95938498600003,31.821778985000037],[118.95501547800006,31.84939102000004],[118.99965503800001,31.85383411400005],[119.03552028700005,31.852103043000056],[119.07801482800005,31.86131629500005],[119.10268040100004,31.892860952000035],[119.09531984600005,31.92674007200003],[119.07731078100005,31.966625876000023],[119.10238402900006,31.992130803000066],[119.10077229300009,32.01996184600006],[119.09867378500007,32.05753134100007],[119.08049350800002,32.09142008800006],[119.05280860100004,32.10860057700006],[119.01969191900002,32.135005782000064],[119.05200847000003,32.15297127700006],[119.08564169800002,32.17265136300006],[119.13045305700007,32.18166115900004],[119.16453363900007,32.18190408900006],[119.22695976600005,32.225326375000066],[119.27862520700012,32.20506235400006],[119.31500374900008,32.23367760700006],[119.3527143550001,32.21877675600007],[119.38889546000007,32.234546702000046],[119.44234428000004,32.257819561000076],[119.47952403300008,32.238768434000065],[119.51503940600003,32.247583966000036],[119.58643872400012,32.250296098000035],[119.60018868800012,32.22134317000007],[119.63444096500007,32.205282209000075],[119.6765851240001,32.23588900500005],[119.71539214600011,32.26657661300004],[119.72261498400007,32.278077203000066],[119.72985272900007,32.28957167100003],[119.73651496500008,32.29627764500003],[119.74316958500003,32.30298389500007],[119.75828410600002,32.30659016900006],[119.77336753500003,32.31019494200007],[119.78123658800007,32.302306842000064],[119.78909019500009,32.29441481900005],[119.79461601300011,32.291547294000054],[119.80013407400008,32.28868010600007],[119.808283114,32.28318323000008],[119.81641713400006,32.27768244200007],[119.83269179600006,32.26668273700005]]]}}]}
