{"type":"FeatureCollection","name":"admin2_chn_cn-jx","adm0A3":"CHN","parentCode":"CN-JX","parentName":"Jiangxi","bbox":[113.54722236600003,24.501300703000027,118.44407686800002,30.064625782000064],"features":[{"type":"Feature","properties":{"code":"CN036010","name":"Fuzhou","label":"Fuzhou · 抚州市","type":"Prefecture-level city","parentCode":"CN-JX"},"geometry":{"type":"Polygon","coordinates":[[[116.77273517000003,28.355304344000047],[116.78202114400005,28.309180765000065],[116.79223978200002,28.28308002800003],[116.78704837500004,28.248993995000035],[116.75701995000009,28.23535336300006],[116.7214450250001,28.23267725100004],[116.68546536800011,28.231394263000027],[116.68217134400004,28.19833069200007],[116.71857218100001,28.17000573400003],[116.75104347900003,28.16381897900004],[116.78474903000006,28.17016673300003],[116.79184431600004,28.143355661000044],[116.79528214600009,28.115788749000046],[116.78823082100007,28.083280671000068],[116.81842345200005,28.064633680000043],[116.87112984400005,28.05104938000005],[116.90809544500007,28.07155106700003],[116.92677206200005,28.045801936000032],[116.95587278000005,28.03130887800006],[116.9740589050001,27.996617627000035],[117.00064951200011,27.975898018000066],[117.02952007700003,27.951471621000053],[117.01849655100011,27.92227334100005],[116.99635412100008,27.89620198500006],[116.97738089300003,27.87047474900004],[116.98891318400001,27.83954764400005],[117.03075757200008,27.84465480600005],[117.06412642800001,27.878796350000073],[117.09213915400005,27.90014553800006],[117.10736523000003,27.871749284000032],[117.15005669300001,27.874525721000055],[117.19042004100004,27.88360610500007],[117.2281506270001,27.87482609500006],[117.2555459030001,27.85836918900003],[117.25314827700004,27.85356480100006],[117.27066895700011,27.798843609000073],[117.26075524200007,27.760892994000073],[117.2036243450001,27.720223598000075],[117.18318911900008,27.706141079000076],[117.13029959400001,27.695649039000045],[117.05435749300011,27.676549298000054],[117.09809120300008,27.64458238700007],[117.0531508680001,27.630034559000023],[117.0102053170001,27.644027677000054],[116.99064840300002,27.62717389100004],[117.00816932300006,27.570678438000073],[117.0130708370001,27.566576775000044],[117.02651154900002,27.555341354000063],[117.07111288600004,27.536764034000043],[117.08677954300003,27.498263118000068],[117.10452638900006,27.44619908800007],[117.07622145300002,27.391295618000072],[117.07662392300006,27.36796289600005],[117.112450867,27.35611811800004],[117.13685127200006,27.326963900000067],[117.1333526090001,27.303739712000038],[117.12921621500004,27.276283695000075],[117.09795199500002,27.251122072000044],[117.04859994000003,27.18479847800006],[117.01072212800011,27.13321637300004],[117.00934441400011,27.13134755300007],[117.00374005600008,27.124518428000044],[116.97277283200003,27.08670360800005],[116.9186547060001,27.051962975000038],[116.85401552400003,27.041088810000076],[116.78457315500009,27.034019175000026],[116.72746692800001,27.013700999000037],[116.70888344100001,26.999075009000023],[116.696469148,26.98930831200005],[116.63597228200001,26.994236586000056],[116.61502776000009,26.95225460200004],[116.58263718900002,26.93686796800006],[116.56051098800003,26.907492520000062],[116.53491495200001,26.871109425000043],[116.53056014000003,26.864159304000054],[116.51802967200001,26.84414623600003],[116.51623281900004,26.81552077300006],[116.51527378100002,26.800311325000052],[116.51614151800004,26.750004734000072],[116.48507678600004,26.721952787000077],[116.48026000200002,26.709627650000073],[116.50045503400008,26.69334888700007],[116.52377193000007,26.678697209000063],[116.536514022,26.650031716000058],[116.53968766000003,26.642868762000035],[116.53038182500006,26.60742785700006],[116.53634491800005,26.573898961000054],[116.53884628000003,26.569750869000075],[116.50616260200002,26.56056493600005],[116.48548581200009,26.581070072000045],[116.45702414400012,26.597343540000054],[116.43234727400011,26.577975560000027],[116.38706387700006,26.549418539000044],[116.36686807700005,26.528086981000058],[116.32943795500012,26.504629585000032],[116.29821141500008,26.505232515000046],[116.27545485600001,26.524870702000044],[116.24659682900005,26.554592653000043],[116.26242364000007,26.580135814000073],[116.25282718800008,26.611909319000063],[116.22700744200006,26.63163253400006],[116.20238953100011,26.655797042000074],[116.17725283000004,26.679978125000048],[116.13610354000002,26.697020253000062],[116.11524588500004,26.72688493100003],[116.12359662300003,26.754919332000043],[116.13222542000005,26.788776650000045],[116.13388882200002,26.824655733000043],[116.14592559800008,26.85525694100005],[116.15370543100005,26.881502742000066],[116.14341691700008,26.910569143000032],[116.16042637200007,26.971980147000068],[116.1736500080001,27.005670477000024],[116.18969416900006,27.050512428000047],[116.13871662400004,27.039553483000077],[116.13646745800008,27.067902825000033],[116.12061721900011,27.109242477000066],[116.0895844160001,27.129962651000028],[116.04573506700001,27.125493204000065],[116.00788900100008,27.096588618000055],[116.002496414,27.06668739400004],[115.99320077800007,27.040044068000043],[115.9734477940001,27.01775544000003],[115.9523433810001,26.98742195500006],[115.92173527700004,26.960264015000064],[115.87746936200006,26.990687423000054],[115.85821554200004,27.014104461000045],[115.83954756800006,27.039731775000064],[115.82039924100002,27.07835166500007],[115.7946212820001,27.10414967500003],[115.75484179000011,27.098541349000072],[115.71810270800006,27.092374965000033],[115.68438203300002,27.11074552300005],[115.66553261100012,27.133181310000055],[115.64396595100004,27.163724499000068],[115.63299938900002,27.19306692400005],[115.63233996000008,27.22614353700004],[115.66078496300008,27.251737949000074],[115.68568699800005,27.27697227400006],[115.67532089800011,27.308463489000076],[115.66701946300009,27.341213150000044],[115.66576627800009,27.372438527000043],[115.69212391600001,27.39763668300003],[115.71693518200004,27.422442138000065],[115.6882273980001,27.441429104000065],[115.65080475700006,27.44411597900006],[115.62246561500001,27.45953203700003],[115.60049886400009,27.48373465700007],[115.58169846800001,27.513264813000035],[115.58817467800009,27.54087335400004],[115.59886034200008,27.575157914000044],[115.62487609900006,27.61078149800005],[115.6469532860001,27.632094683000048],[115.67107428800011,27.651501561000032],[115.69828114200004,27.67033640300008],[115.72229017600012,27.697289268000077],[115.73712616900002,27.722795335000058],[115.82886427500011,27.716647385000044],[115.84708078300002,27.746697898000036],[115.85038595100002,27.775393069000074],[115.84854820700002,27.803337406000026],[115.85388044600006,27.831524476000027],[115.87419036100005,27.852087649000055],[115.89995060000001,27.868847275000064],[115.93822537300002,27.87979928900006],[115.96868413100003,27.876205261000052],[116.00270868400003,27.884558507000065],[116.06128768100007,27.926117599000065],[116.07334282700003,27.951235131000033],[116.0891439620001,27.98037097300005],[116.1046441100001,28.01544014600006],[116.12103686000012,28.050086882000073],[116.11959687400008,28.087880867000024],[116.10972433100005,28.12180671400006],[116.07225122200009,28.132737573000043],[116.06100393100007,28.15904191100003],[116.0893100940001,28.186803721000047],[116.11022330300011,28.230088744000057],[116.12990883100008,28.21067083500003],[116.16993766300004,28.180963102000078],[116.18994104900003,28.16610656900008],[116.21090333000006,28.164960257000075],[116.23384603000011,28.191239127000074],[116.25480853700003,28.190082854000025],[116.32413947000009,28.192150681000044],[116.38021986800004,28.21820447500005],[116.42393198600007,28.222035835000042],[116.44901031300003,28.24483355700005],[116.46529716100008,28.27650879500004],[116.48824180300005,28.29930810600007],[116.49619217700001,28.33159521500005],[116.51224235200004,28.36423575500004],[116.52750852700001,28.395611538000026],[116.52159065300009,28.42961484600005],[116.54158351800004,28.469417857000053],[116.56061405300011,28.424729333000073],[116.57146526700001,28.39840871800004],[116.60074755100004,28.373285618000068],[116.63828798100008,28.363628043000062],[116.67090198000005,28.36164306200004],[116.70341875100007,28.368177651000053],[116.74178761000007,28.36224892100006],[116.77273517000003,28.355304344000047]]]}},{"type":"Feature","properties":{"code":"CN036020","name":"Ganzhou","label":"Ganzhou · 赣州市","type":"Prefecture-level city","parentCode":"CN-JX"},"geometry":{"type":"Polygon","coordinates":[[[116.53884628000003,26.569750869000075],[116.55642697600001,26.540542447000064],[116.56968679600004,26.511116409000067],[116.59903141100006,26.49703019100008],[116.61468840100008,26.473764637000045],[116.57397784000011,26.403990072000056],[116.52005788500003,26.39507022600003],[116.50406061100011,26.412955788000033],[116.466207155,26.370850913000027],[116.43884206200005,26.335384973000032],[116.40907103300003,26.309022079000044],[116.38181199100006,26.274435122000057],[116.3672734160001,26.23381415600005],[116.37907684700008,26.18019393700007],[116.42267374400001,26.186999288000038],[116.45004205300006,26.191014881000058],[116.4801875280001,26.175104728000065],[116.47918473400011,26.142791791000036],[116.46401630800005,26.12467849500007],[116.43167411900004,26.104730225000026],[116.3833539640001,26.069385793000038],[116.35620507400006,26.04113713000004],[116.34376925900006,26.028191336000077],[116.32950361100006,25.991125457000066],[116.30149602000006,25.958329457000048],[116.28794734500002,25.932910754000034],[116.26555575700002,25.926815456000043],[116.22635322000008,25.92423214300004],[116.18110843600005,25.92102404900004],[116.12243580200004,25.89325333200003],[116.09883952400003,25.848498782000036],[116.11019173900002,25.837160393000033],[116.13141357600011,25.823551474000055],[116.15252125900008,25.808142717000067],[116.15944312900001,25.789813266000067],[116.15211040600002,25.766763653000055],[116.11073080800008,25.759748271000035],[116.05949467100004,25.719883845000027],[116.05124692300001,25.69777263700007],[116.03855389900002,25.667770588000053],[116.02513423200003,25.642295250000075],[116.0221796410001,25.625330650000024],[116.038268431,25.592160129000035],[116.03788693700005,25.57990564800008],[116.03707125500011,25.553501045000075],[116.02211794900006,25.518184553000026],[116.00246054000002,25.487589185000047],[115.99673002100008,25.474783346000038],[115.98310706900008,25.44436427900007],[115.9969224350001,25.38876816000004],[115.9757992960001,25.34921680000008],[115.96885451500009,25.31350266000004],[115.91425669500006,25.261069131000056],[115.88636319700004,25.241624598000044],[115.8238942370001,25.188603277000027],[115.82548340900007,25.181332741000062],[115.83027295200009,25.15947133800006],[115.84609010400004,25.121788207000066],[115.85684559100002,25.100559864000047],[115.89197210200007,25.089927029000023],[115.91429058400001,25.062746278000077],[115.86055149700007,25.04087872200006],[115.86181106000004,25.009259564000047],[115.86888352200003,24.993603042000075],[115.883535617,24.953239556000028],[115.85224192400005,24.924009649000027],[115.8697052120001,24.88545807500003],[115.85796634000008,24.865106560000072],[115.79530582600012,24.895936647000042],[115.75436796500003,24.832829521000065],[115.72336886400001,24.751199211000028],[115.75430564700002,24.68211187000003],[115.76654224700007,24.61474832300007],[115.74385260000008,24.55376046300006],[115.7401087830001,24.543699445000073],[115.65818254600003,24.579874673000063],[115.5647708140001,24.604739623000057],[115.5449881180001,24.635790127000064],[115.5245411410001,24.667871330000025],[115.46028887700004,24.725671517000023],[115.45993162500008,24.738323155000046],[115.41941296000005,24.75808015100006],[115.38839312100004,24.77020830200007],[115.3601484940001,24.778599669000073],[115.35727816100007,24.774494682000068],[115.33997179100004,24.74965626100004],[115.31583626600002,24.740725846000032],[115.29655255000011,24.750541076000047],[115.27430023400007,24.739716690000023],[115.26706497800001,24.732792911000047],[115.24606001500001,24.72732492800003],[115.22694571500006,24.719975520000048],[115.20497259500007,24.71454195800004],[115.1763156070001,24.710647607000055],[115.17416717800006,24.710357223000074],[115.16648009900007,24.693514623000056],[115.15481569400004,24.67592927800007],[115.12332122700002,24.678073236000046],[115.11219917000005,24.67219570800006],[115.08424529400008,24.665162487000032],[115.0643322200001,24.68308404800007],[115.03792592700006,24.68861957000007],[115.02113931400004,24.688361851000025],[115.01674779600012,24.678601093000054],[115.00831135800001,24.66629219300006],[114.98730661700006,24.659872361000055],[114.96164990000011,24.659942957000055],[114.92612596700008,24.659481812000024],[114.8980667840001,24.649697589000027],[114.88968322000005,24.63827886400003],[114.89113740100004,24.626492557000063],[114.87893463000012,24.61791795000005],[114.874528553,24.60725087700007],[114.8686424980001,24.584905766000077],[114.86105407600007,24.568937994000066],[114.83670942100002,24.552682394000044],[114.82243812900003,24.564940895000063],[114.80837015200007,24.581701071000055],[114.79786744800003,24.586132908000025],[114.78027638000003,24.593555308000077],[114.74509830900001,24.601139715000045],[114.72258444500005,24.581187242000055],[114.70594606000009,24.56011576700007],[114.69656484100005,24.547810318000074],[114.68729953200011,24.546133567000027],[114.67571088500006,24.54403456500006],[114.65983220100009,24.540984878000074],[114.64365503300007,24.55509031300005],[114.62820506100002,24.562848359000043],[114.60250367600008,24.561034978000066],[114.59227515300006,24.551457131000063],[114.58410243500009,24.54451761100006],[114.57204311800001,24.53861302200005],[114.5549559530001,24.530172453000034],[114.53522823100002,24.52903794100007],[114.50994782300006,24.538016182000035],[114.48992701600002,24.52966354600005],[114.46223723000003,24.526977526000053],[114.44469206300005,24.50589604000004],[114.41497616200002,24.501459123000075],[114.39232192600002,24.501300703000027],[114.38379780200012,24.51060504800006],[114.36602225500008,24.535555243000033],[114.36134542400009,24.546145239000055],[114.35875903600004,24.552035617000058],[114.34177842700001,24.572437921000073],[114.31299967500001,24.582256851000068],[114.30090460100007,24.58637994000003],[114.2694028620001,24.587375181000027],[114.25419219300011,24.60319433600006],[114.23624342200003,24.624510987000065],[114.21492456700003,24.63509713700006],[114.18413493600008,24.64373220500005],[114.17879234800012,24.645234413000026],[114.15921424600003,24.649437945000045],[114.15670047000003,24.662147611000023],[114.16302665900002,24.673684241000046],[114.18534390400009,24.691043442000023],[114.21263697200004,24.709145569000043],[114.24431204900009,24.71177072100005],[114.27033679400006,24.72178236800005],[114.30574210000009,24.745018410000057],[114.32313729200007,24.761601092000035],[114.33714897000004,24.792723141000067],[114.36616173400012,24.828763527000035],[114.38981656900012,24.853247159000034],[114.39274417700005,24.878398428000025],[114.38583380800003,24.904768880000063],[114.37669428400011,24.92489914400005],[114.38526469300007,24.94284146700005],[114.39281521100008,24.958633339000073],[114.43986132500004,24.972419776000038],[114.457753679,24.999773411000035],[114.47504426900002,25.011819630000048],[114.49684657600005,25.03723065400004],[114.5214779370001,25.058935387000076],[114.54688191000002,25.075203888000033],[114.56216949300006,25.085499089000052],[114.59447624800009,25.07538422600004],[114.63634495300005,25.08115453700003],[114.67098801300006,25.104279018000057],[114.69739840800003,25.119572466000022],[114.70293074100005,25.132975437000027],[114.70401152000011,25.135560447000046],[114.70833459800008,25.144417316000045],[114.70306803000005,25.160819165000078],[114.6876617260001,25.172171347000074],[114.66770863600004,25.19358931100004],[114.66878402900011,25.219679017000033],[114.69777744600003,25.24838905100006],[114.71166325600007,25.272219449000033],[114.7026443850001,25.294150869000077],[114.6931369560001,25.304390521000073],[114.67520947500009,25.327530887000023],[114.64950557200007,25.331123916000024],[114.63712895800006,25.31984503500007],[114.61977121100006,25.333052473000066],[114.60392285300009,25.358807796000065],[114.58070357200006,25.374904506000064],[114.55085022200001,25.39931885200008],[114.53710183400005,25.40292962500007],[114.52329259700002,25.406550133000053],[114.49433803400007,25.40391186100004],[114.4692936670001,25.399337759000048],[114.44785146100003,25.384738147000064],[114.42848779700012,25.37276704900006],[114.40889151300007,25.354498182000043],[114.3902634860001,25.33529294400006],[114.35810484600006,25.325519646000032],[114.33003640100003,25.319210114000043],[114.28056399100001,25.32526920300006],[114.2647582730001,25.300551791000032],[114.22023965800008,25.30552837700003],[114.19224608800005,25.300982958000077],[114.15771638300009,25.307431958000052],[114.12316386300006,25.31386610000004],[114.10405632900006,25.307233722000035],[114.096799368,25.298442874000045],[114.07168067500004,25.290181464000057],[114.0473725700001,25.276486746000046],[114.01561934300003,25.277404266000076],[114.01440147500011,25.289563052000062],[114.01190359500004,25.314429506000067],[114.0292320850001,25.32743312100007],[114.02670211400005,25.36981891100004],[114.02719739700001,25.38420644300004],[114.01795085800006,25.404276174000074],[113.98997139000005,25.430277138000065],[113.97434547900002,25.43882387800005],[113.97270710300006,25.439366020000023],[113.9315882730001,25.469728143000054],[113.939445094,25.496503779000022],[113.94811924100009,25.547543872000062],[113.94499606300008,25.573722695000072],[113.93777488800004,25.596414915000025],[113.9266888410001,25.62280826400007],[113.90150022800003,25.645095268000034],[113.87580027900003,25.682674673000065],[113.88101432400003,25.720302133000075],[113.89738942400004,25.763010260000044],[113.93027795300009,25.78969241300007],[113.94561764700006,25.802127789000053],[113.96509296200009,25.84652719500008],[113.97153090100005,25.889490727000066],[113.98416241300004,25.908008712000026],[113.99761910400002,25.92176029700005],[114.0038489320001,25.928117748000034],[114.01621683700012,25.968203840000058],[114.01110764400005,25.988926615000025],[114.0713997250001,25.99753049800006],[114.10162898600004,26.009928538000054],[114.1399636540001,26.026156590000028],[114.175666406,26.03418233600007],[114.21757933900005,26.028522508000037],[114.2513839390001,26.038253292000036],[114.27671089000012,26.068790125000078],[114.30324905700002,26.086242482000046],[114.340371559,26.103030387000047],[114.37875024200002,26.109012929000073],[114.40454610200004,26.131856698000036],[114.41391762400008,26.16132656600007],[114.44607923800004,26.17871708000007],[114.47802610100007,26.171411637000062],[114.49721470100008,26.19584065400005],[114.52266855500011,26.230984524000064],[114.56009203200006,26.241123779000077],[114.59634952500005,26.224242066000045],[114.64922686900002,26.20594108100005],[114.70289049600001,26.171371459000056],[114.73667359300009,26.177933275000044],[114.7780440030001,26.187968124000065],[114.80782547100011,26.196418941000047],[114.83710479100012,26.20396801100003],[114.88746843600006,26.21108102100004],[114.93015510200007,26.21108913200004],[114.97411167700011,26.202472396000076],[115.00161489700008,26.183888855000077],[115.02552231400011,26.163599728000065],[115.05306178600006,26.147726609000074],[115.08250776800003,26.170401180000056],[115.05860137900004,26.18887526700007],[115.03745701200012,26.214471756000023],[115.05634947800002,26.249935035000078],[115.05349552000007,26.28416911000005],[115.03937322400009,26.31601905800005],[115.03294474000006,26.35172471800007],[115.02642808400003,26.38151022200003],[115.03055629000005,26.411917783000035],[115.04584736000004,26.44243493400006],[115.06129840500012,26.473257623000052],[115.08639702400001,26.488493494000068],[115.12177077600006,26.511647150000044],[115.15167451100001,26.519126373000063],[115.18594751500007,26.52107313500005],[115.21459148100007,26.533451461000027],[115.234655943,26.557647744000064],[115.25549505600009,26.58670154500004],[115.2693160660001,26.61635988100005],[115.28655912400006,26.643695808000075],[115.31017452200001,26.68127161500007],[115.35379613700002,26.65907426700005],[115.38786674100004,26.654249312000047],[115.40881026700004,26.674390636000055],[115.44183268200004,26.691461322000066],[115.479567771,26.70158004500007],[115.53242054500004,26.67255305200007],[115.555530266,26.647815871000034],[115.58924736000006,26.649765220000063],[115.62329462600007,26.659336336000024],[115.65502956800003,26.649180552000075],[115.68257799300011,26.67143265900006],[115.69515145600008,26.696287428000062],[115.69633139300004,26.738053001000026],[115.67741710400003,26.78168447400003],[115.67326680200006,26.817313940000076],[115.70265463100009,26.833208143000036],[115.72986537600002,26.81947006400003],[115.7601912240001,26.808334349000063],[115.78440128500006,26.831953216000045],[115.81123166000009,26.86985661800003],[115.84344405800005,26.89006736400006],[115.86977950200003,26.91447017200005],[115.89206139200007,26.938075962000028],[115.92173527700004,26.960264015000064],[115.9523433810001,26.98742195500006],[115.9734477940001,27.01775544000003],[115.99320077800007,27.040044068000043],[116.002496414,27.06668739400004],[116.00788900100008,27.096588618000055],[116.04573506700001,27.125493204000065],[116.0895844160001,27.129962651000028],[116.12061721900011,27.109242477000066],[116.13646745800008,27.067902825000033],[116.13871662400004,27.039553483000077],[116.18969416900006,27.050512428000047],[116.1736500080001,27.005670477000024],[116.16042637200007,26.971980147000068],[116.14341691700008,26.910569143000032],[116.15370543100005,26.881502742000066],[116.14592559800008,26.85525694100005],[116.13388882200002,26.824655733000043],[116.13222542000005,26.788776650000045],[116.12359662300003,26.754919332000043],[116.11524588500004,26.72688493100003],[116.13610354000002,26.697020253000062],[116.17725283000004,26.679978125000048],[116.20238953100011,26.655797042000074],[116.22700744200006,26.63163253400006],[116.25282718800008,26.611909319000063],[116.26242364000007,26.580135814000073],[116.24659682900005,26.554592653000043],[116.27545485600001,26.524870702000044],[116.29821141500008,26.505232515000046],[116.32943795500012,26.504629585000032],[116.36686807700005,26.528086981000058],[116.38706387700006,26.549418539000044],[116.43234727400011,26.577975560000027],[116.45702414400012,26.597343540000054],[116.48548581200009,26.581070072000045],[116.50616260200002,26.56056493600005],[116.53884628000003,26.569750869000075]]]}},{"type":"Feature","properties":{"code":"CN036030","name":"Ji'an","label":"Ji'an · 吉安市","type":"Prefecture-level city","parentCode":"CN-JX"},"geometry":{"type":"Polygon","coordinates":[[[115.73712616900002,27.722795335000058],[115.72229017600012,27.697289268000077],[115.69828114200004,27.67033640300008],[115.67107428800011,27.651501561000032],[115.6469532860001,27.632094683000048],[115.62487609900006,27.61078149800005],[115.59886034200008,27.575157914000044],[115.58817467800009,27.54087335400004],[115.58169846800001,27.513264813000035],[115.60049886400009,27.48373465700007],[115.62246561500001,27.45953203700003],[115.65080475700006,27.44411597900006],[115.6882273980001,27.441429104000065],[115.71693518200004,27.422442138000065],[115.69212391600001,27.39763668300003],[115.66576627800009,27.372438527000043],[115.66701946300009,27.341213150000044],[115.67532089800011,27.308463489000076],[115.68568699800005,27.27697227400006],[115.66078496300008,27.251737949000074],[115.63233996000008,27.22614353700004],[115.63299938900002,27.19306692400005],[115.64396595100004,27.163724499000068],[115.66553261100012,27.133181310000055],[115.68438203300002,27.11074552300005],[115.71810270800006,27.092374965000033],[115.75484179000011,27.098541349000072],[115.7946212820001,27.10414967500003],[115.82039924100002,27.07835166500007],[115.83954756800006,27.039731775000064],[115.85821554200004,27.014104461000045],[115.87746936200006,26.990687423000054],[115.92173527700004,26.960264015000064],[115.89206139200007,26.938075962000028],[115.86977950200003,26.91447017200005],[115.84344405800005,26.89006736400006],[115.81123166000009,26.86985661800003],[115.78440128500006,26.831953216000045],[115.7601912240001,26.808334349000063],[115.72986537600002,26.81947006400003],[115.70265463100009,26.833208143000036],[115.67326680200006,26.817313940000076],[115.67741710400003,26.78168447400003],[115.69633139300004,26.738053001000026],[115.69515145600008,26.696287428000062],[115.68257799300011,26.67143265900006],[115.65502956800003,26.649180552000075],[115.62329462600007,26.659336336000024],[115.58924736000006,26.649765220000063],[115.555530266,26.647815871000034],[115.53242054500004,26.67255305200007],[115.479567771,26.70158004500007],[115.44183268200004,26.691461322000066],[115.40881026700004,26.674390636000055],[115.38786674100004,26.654249312000047],[115.35379613700002,26.65907426700005],[115.31017452200001,26.68127161500007],[115.28655912400006,26.643695808000075],[115.2693160660001,26.61635988100005],[115.25549505600009,26.58670154500004],[115.234655943,26.557647744000064],[115.21459148100007,26.533451461000027],[115.18594751500007,26.52107313500005],[115.15167451100001,26.519126373000063],[115.12177077600006,26.511647150000044],[115.08639702400001,26.488493494000068],[115.06129840500012,26.473257623000052],[115.04584736000004,26.44243493400006],[115.03055629000005,26.411917783000035],[115.02642808400003,26.38151022200003],[115.03294474000006,26.35172471800007],[115.03937322400009,26.31601905800005],[115.05349552000007,26.28416911000005],[115.05634947800002,26.249935035000078],[115.03745701200012,26.214471756000023],[115.05860137900004,26.18887526700007],[115.08250776800003,26.170401180000056],[115.05306178600006,26.147726609000074],[115.02552231400011,26.163599728000065],[115.00161489700008,26.183888855000077],[114.97411167700011,26.202472396000076],[114.93015510200007,26.21108913200004],[114.88746843600006,26.21108102100004],[114.83710479100012,26.20396801100003],[114.80782547100011,26.196418941000047],[114.7780440030001,26.187968124000065],[114.73667359300009,26.177933275000044],[114.70289049600001,26.171371459000056],[114.64922686900002,26.20594108100005],[114.59634952500005,26.224242066000045],[114.56009203200006,26.241123779000077],[114.52266855500011,26.230984524000064],[114.49721470100008,26.19584065400005],[114.47802610100007,26.171411637000062],[114.44607923800004,26.17871708000007],[114.41391762400008,26.16132656600007],[114.40454610200004,26.131856698000036],[114.37875024200002,26.109012929000073],[114.340371559,26.103030387000047],[114.30324905700002,26.086242482000046],[114.27671089000012,26.068790125000078],[114.2513839390001,26.038253292000036],[114.21757933900005,26.028522508000037],[114.175666406,26.03418233600007],[114.1399636540001,26.026156590000028],[114.10162898600004,26.009928538000054],[114.0713997250001,25.99753049800006],[114.01110764400005,25.988926615000025],[114.00302769600012,26.021591602000058],[113.99069492300009,26.041706399000077],[114.03183339200007,26.072875244000045],[114.05545369400011,26.08926115400004],[114.10436131000006,26.112095004000025],[114.16493345200001,26.12377433200004],[114.21191255600002,26.14751279400008],[114.22542333000001,26.187520217000042],[114.21450971200011,26.218383177000078],[114.15907036100009,26.211963489000027],[114.10158246900005,26.203783987000065],[114.06871430400008,26.182289687000036],[114.009124971,26.170527396000068],[113.96083949500007,26.166502080000043],[113.93940619300008,26.17724491100006],[113.9361821660001,26.178865030000054],[113.94223789300008,26.21012549200003],[113.95530466200012,26.240290566000056],[113.98531983800001,26.267281535000052],[113.99784695200003,26.28129289000003],[114.0250853980001,26.313732295000023],[114.0331984610001,26.344922566000037],[114.0355607030001,26.413063530000045],[114.04422701400006,26.422584029000063],[114.05229929500001,26.431435329000067],[114.06784439900002,26.44444851700007],[114.0995572280001,26.487499712000044],[114.0881239360001,26.534485566000058],[114.06896230100006,26.570719333000056],[114.06450742700008,26.579127266000057],[114.02385192200006,26.598231628000065],[113.97353506500008,26.630141957000035],[113.91791951500011,26.62540420600004],[113.8869025240001,26.632530401000054],[113.84747102200004,26.629107496000074],[113.83160960700002,26.636695116000055],[113.82562629600011,26.639554804000056],[113.81961876300011,26.67199888700003],[113.82129129100008,26.692581224000037],[113.81891575100008,26.743751332000045],[113.82696875800002,26.773411415000055],[113.82807868400005,26.77757467200007],[113.83655091600008,26.820379462000062],[113.84708942800012,26.83354534700004],[113.85641244500005,26.840465471000073],[113.86789512200005,26.882285841000055],[113.8839651610001,26.909634700000026],[113.88982667100004,26.933671180000033],[113.88336485900004,26.94714691200005],[113.91148378700007,26.958564065000076],[113.92623975300012,26.992176543000028],[113.94490129000008,27.01852768300006],[113.98005358400007,27.05585508000007],[114.00264904900007,27.091878732000055],[114.01441525900009,27.117248348000032],[114.04423551400009,27.150824944000078],[114.09012389100008,27.17563172000007],[114.10519807900005,27.17211524100003],[114.13761487800002,27.235609872000055],[114.13717912700008,27.26485056000007],[114.12150477700004,27.292015983000056],[114.08541990000003,27.313547932000063],[114.0470224930001,27.341296604000036],[114.02487061500005,27.36927417000004],[114.04240073500011,27.401750768000056],[114.07250312800011,27.408602418000044],[114.10608857900002,27.41363701100005],[114.14752563600007,27.427061652000077],[114.17665647400008,27.45355438400003],[114.18870064900011,27.485134145000075],[114.20270558700008,27.512167315000056],[114.22732774100007,27.534545999000045],[114.2502024050001,27.561617540000043],[114.28267140500009,27.546727480000072],[114.3237370600001,27.54308756300003],[114.36004187100002,27.549749279000025],[114.38334242000008,27.52520012800005],[114.41368279300002,27.515271179000024],[114.44755488200008,27.538804595000045],[114.48536915500006,27.557345956000063],[114.52074566200008,27.575008643000047],[114.55006448000006,27.566002292000064],[114.57931030100008,27.53825420900006],[114.60102513600009,27.515107017000048],[114.63717126100005,27.532789043000037],[114.65917303200001,27.55336923400006],[114.6929024310001,27.572332334000066],[114.74685197400004,27.570992689000036],[114.75689492200001,27.596910855000033],[114.79106958400007,27.59800195100007],[114.82058424800005,27.579528020000055],[114.87988162700003,27.567091572000038],[114.89666880000004,27.605258255000024],[114.91962249800008,27.626304057000027],[114.96396378500003,27.650056955000025],[114.99866118000011,27.655604625000024],[115.03293753800006,27.66470905700004],[115.06405920300006,27.686798176000025],[115.09607726600007,27.687796895000076],[115.1388674530001,27.692469304000042],[115.1779849940001,27.709661219000054],[115.21404150400008,27.72379391800007],[115.25003945900005,27.733121193000045],[115.2761665910001,27.748205188000043],[115.30402897900001,27.766922022000074],[115.32673990500007,27.78609927900004],[115.34742269300011,27.807454241000073],[115.37641984600009,27.85314079400007],[115.39298072400004,27.912348391000023],[115.43972488100007,27.891708248000043],[115.46762555600003,27.90952203200004],[115.49343957200006,27.92600735800005],[115.51724737600011,27.906578285000023],[115.51489742700005,27.873870331000035],[115.53980882700012,27.857075258000066],[115.56507969900008,27.837940592000052],[115.60045521100005,27.817091823000055],[115.62962289100005,27.805483923000054],[115.65761228800011,27.789105120000045],[115.68388276700011,27.767868424000028],[115.7099185080001,27.74378620500005],[115.73712616900002,27.722795335000058]]]}},{"type":"Feature","properties":{"code":"CN036040","name":"Jingdezhen","label":"Jingdezhen · 景德镇市","type":"Prefecture-level city","parentCode":"CN-JX"},"geometry":{"type":"Polygon","coordinates":[[[117.18612441200003,29.92407379100007],[117.21138936700004,29.91405564200005],[117.25146533800012,29.846790175000024],[117.27108234200011,29.82877440900006],[117.30744428500009,29.838358217000064],[117.33166111500009,29.812052864000066],[117.3635967680001,29.832559237000055],[117.3964819680001,29.81021221800006],[117.40600362500004,29.742802158000075],[117.3985384990001,29.727171358000078],[117.38709640200011,29.686791396000046],[117.41490526200005,29.667387061000056],[117.44849030900002,29.682431948000044],[117.5031529690001,29.658809296000072],[117.50104523100003,29.617895804000057],[117.52624417100003,29.592367283000044],[117.55877995300011,29.580678118000037],[117.60685092100005,29.593951553000068],[117.63371136400008,29.591875464000054],[117.6536069330001,29.590330230000063],[117.65947789900008,29.572144472000048],[117.66196704300012,29.563969402000055],[117.70004645100005,29.56976044000004],[117.73397551300002,29.570905137000068],[117.6417650730001,29.507882422000023],[117.60368374000006,29.48120654300004],[117.56170325000005,29.451583019000054],[117.53205379200006,29.43071922100006],[117.50721831700002,29.410867391000068],[117.4800298030001,29.365724078000028],[117.47327299800008,29.338000687000033],[117.44260992400007,29.31672693400003],[117.43143211300003,29.28053327600003],[117.41182752800012,29.24313019400006],[117.38228733900007,29.21666265300007],[117.35465737300001,29.18216663800007],[117.36596077600007,29.15213177700008],[117.38885654700005,29.12955465400006],[117.43194296200011,29.134150204000036],[117.45831685600001,29.154829892000066],[117.4923891200001,29.146197581000024],[117.49168427400002,29.116143974000067],[117.49315692800008,29.076185805000023],[117.48762535500009,29.039086891000068],[117.47942039200007,29.012380163000046],[117.45713808400001,28.979340999000044],[117.45759792500007,28.95057328200005],[117.49863225000001,28.933978229000047],[117.5223401720001,28.904340379000075],[117.53766956200002,28.85727130400005],[117.53792839100004,28.82109131200008],[117.50880163200009,28.80341298500008],[117.47941370000001,28.827470047000077],[117.4462271320001,28.844387819000076],[117.42084088100012,28.82779537400006],[117.40479615200002,28.799821948000044],[117.38349390500002,28.770852602000048],[117.32819641000003,28.749564263000025],[117.28804302200001,28.74657426600004],[117.25187123300009,28.735853225000028],[117.20891916700009,28.73629132700006],[117.17568688900008,28.741089336000073],[117.14534104600011,28.772543080000048],[117.10660212900007,28.78560567900007],[117.0640960400001,28.791515918000073],[117.03182492400003,28.807321245000026],[117.02123561700012,28.840527483000074],[116.9968877340001,28.858518953000043],[116.96050465300004,28.869497801000023],[116.95262314400009,28.898328556000024],[116.97759298800008,28.922925677000023],[116.9984706680001,28.94827696300007],[117.01834979000012,28.985737507000067],[117.0295074070001,29.018272982000042],[117.03302204400006,29.06432912500003],[117.04470957900003,29.09079776200008],[117.05967734300009,29.093820781000034],[117.06200475100002,29.098724159000028],[117.06726608500003,29.104199538000046],[117.0704937050001,29.109165089000044],[117.0590787540001,29.12748363000003],[117.04324508000002,29.144334256000036],[117.02132855200011,29.15193337000005],[117.02030940700001,29.156620631000067],[117.01989534600011,29.165584010000032],[117.02012013000001,29.179060822000054],[117.01500267900008,29.19839903600007],[117.0102451030001,29.222278328000073],[116.99885571700008,29.252873442000066],[117.00062660300011,29.25943754800005],[117.01365225200004,29.27012986400007],[117.02583902600009,29.27488285100003],[117.02896961400006,29.27913521200003],[117.03471745000002,29.295887979000042],[117.03937410100002,29.308898002000035],[117.04640925500007,29.314910628000064],[117.05193268200003,29.318188930000076],[117.0584613100001,29.31804073400008],[117.04780857000003,29.339181858000074],[117.04763880100006,29.37853347300006],[117.05646385800003,29.413525310000068],[117.057515738,29.44908149500003],[117.04142341600004,29.497443988000043],[117.03590552900005,29.547349439000072],[117.03746812200006,29.582859856000027],[117.04598273400006,29.63774926800005],[117.06922924300011,29.663817015000063],[117.06349265800009,29.685837898000045],[117.06591569400007,29.686552428000027],[117.0833761240001,29.74000772900007],[117.08059487000003,29.788296414000058],[117.0713798050001,29.805728679000026],[117.04798758100003,29.83014978800003],[117.07420485300008,29.844797807000077],[117.10566717800009,29.902832370000056],[117.1178759820001,29.91198212200004],[117.16450949800003,29.93264165100004],[117.18612441200003,29.92407379100007]]]}},{"type":"Feature","properties":{"code":"CN036050","name":"Jiujiang","label":"Jiujiang · 九江市","type":"Prefecture-level city","parentCode":"CN-JX"},"geometry":{"type":"Polygon","coordinates":[[[116.74748182400003,30.028964838000036],[116.75337395800011,30.025413369000034],[116.80722437800011,29.98437682100007],[116.84407388700004,29.970909090000077],[116.86502443800009,29.94042574300005],[116.84618621900006,29.895950737000078],[116.80501064000009,29.84637315300006],[116.73043222400008,29.782420692000073],[116.67338328000005,29.759439158000077],[116.65204137400008,29.722175123000056],[116.66790476200003,29.662551656000062],[116.69227077800008,29.60433576500003],[116.63990082200007,29.580433871000025],[116.59667306100005,29.582478903000037],[116.5648642000001,29.602230047000035],[116.51895875800005,29.609976716000062],[116.50411445500004,29.562896162000072],[116.51989452800001,29.538703981000026],[116.52582557200003,29.509164596000062],[116.52416649500003,29.469968994000055],[116.52145177400007,29.436849307000045],[116.5252268480001,29.40652900300006],[116.53664191700011,29.38031003100008],[116.54177377400003,29.350254549000056],[116.53954425600011,29.32101478800007],[116.53691380500004,29.286617283000055],[116.55120535500009,29.25413233200004],[116.56191204100003,29.227607943000066],[116.55926894100003,29.201842636000038],[116.54950923000001,29.18800166400007],[116.52554420400008,29.189938393000034],[116.51490505400011,29.21760861300004],[116.50377260500011,29.22975721100005],[116.49199278100002,29.180319610000026],[116.48042206700006,29.186728671000026],[116.47615991700002,29.186498233000066],[116.47300598100003,29.18149026900005],[116.4670043640001,29.177404910000064],[116.4594765920001,29.167509938000023],[116.45527233000007,29.16388358900008],[116.44698842700006,29.159385882000038],[116.4302902720001,29.145717732000037],[116.42040125900007,29.134777540000073],[116.41944154600003,29.12763374900004],[116.41963817300007,29.123568755000065],[116.42230465800003,29.113935155000036],[116.4250355480001,29.101100864000045],[116.42480843500005,29.09388372400008],[116.42024248500002,29.087523830000066],[116.40583512400008,29.072346349000043],[116.39492562800001,29.055542304000028],[116.38198804700005,29.056825591000063],[116.37956458700012,29.06089872800004],[116.37647343900005,29.06738020100005],[116.36887458900003,29.073456055000065],[116.36358724000002,29.074618137000073],[116.34747205000008,29.076211525000076],[116.3348666280001,29.080011306000074],[116.33002623800007,29.084534303000055],[116.31462361400008,29.10265931200007],[116.30213913500006,29.11857792400008],[116.28830982000011,29.131858773000033],[116.27898180200009,29.13618054600005],[116.27458968300004,29.13852731000003],[116.27030877000004,29.141714468000032],[116.27016071600008,29.146199325000055],[116.26657563700007,29.154639747000033],[116.26343844400003,29.158991552000032],[116.25766157900011,29.162111611000057],[116.23492745600004,29.15496918900004],[116.2264062380001,29.14856425100004],[116.21223229000009,29.140581541000074],[116.19932012700008,29.13651863800004],[116.19222819000004,29.13529359000006],[116.18758481900011,29.135745572000076],[116.18302433600002,29.136827865000043],[116.17944132800005,29.137814915000035],[116.17467231500007,29.142961310000032],[116.1680659000001,29.152968478000048],[116.16439562000005,29.16460544800003],[116.14602103600009,29.16042831900006],[116.13917578200005,29.16109155600003],[116.130013555,29.15729632600005],[116.09869794600002,29.14308373800003],[116.07401056800006,29.12707407000005],[116.07757002500011,29.125229741000055],[116.06778182400001,29.120407068000077],[116.02972317600006,29.105268671000033],[115.98839975800001,29.108375701000057],[115.95747015300003,29.097849059000055],[115.93545241300001,29.067322258000047],[115.91828729500003,29.039255936000075],[115.89029822400005,29.004930431000048],[115.85809580500006,28.96947060000008],[115.82955931600009,28.93376919600007],[115.80661559800001,28.897449248000044],[115.74132539300001,28.904078602000027],[115.70871165500012,28.919045019000066],[115.677962148,28.938514163000036],[115.64647935100004,28.94784261700005],[115.60797765000007,28.946015265000028],[115.57271276200004,28.960638052000036],[115.53911061400004,28.98440240700006],[115.50587505600004,29.006282119000048],[115.4749026500001,29.015987127000074],[115.44626675100005,29.029711379000048],[115.43044136200001,29.078749409000068],[115.37598727900001,29.072230681000065],[115.3407891390001,29.089081368000052],[115.2904632530001,29.097544252000034],[115.24411355100005,29.095583528000077],[115.20147882000003,29.086916450000047],[115.15985794200003,29.077721316000066],[115.11939860300004,29.062426978000076],[115.07486988800008,29.048272782000026],[115.0396300760001,29.032661681000036],[114.99963401500008,29.00759230600005],[114.98178233800002,28.979901693000045],[114.97281244900012,28.944782708000048],[114.96258992000003,28.913896341000054],[114.93014791600001,28.909196259000055],[114.91497772500009,28.857293020000043],[114.90262758600011,28.816793665000034],[114.88984490100006,28.786032516000034],[114.86329876200011,28.758327261000034],[114.8207439030001,28.755996813000024],[114.78767090200006,28.748056276000057],[114.773402239,28.717357478000054],[114.74806926200006,28.70020170400005],[114.70957422300012,28.687438283000063],[114.6757196420001,28.661144440000044],[114.63673116000007,28.696360157000072],[114.6134952330001,28.714224495000053],[114.59096625600012,28.735291420000067],[114.57480547300008,28.75972099100005],[114.542802015,28.760441246000028],[114.50812984900006,28.751116899000067],[114.47470056600002,28.727380966000055],[114.4605312540001,28.696179872000073],[114.4208311650001,28.69772643500005],[114.3783011160001,28.70402171300003],[114.33411138000008,28.708535493000056],[114.30440299500003,28.732209866000062],[114.2879267080001,28.76123430000007],[114.26847716100008,28.79317420800004],[114.23195746400006,28.815770370000052],[114.20061671100007,28.829314424000074],[114.18360826100002,28.792211663000046],[114.1362157310001,28.762295669000025],[114.1405737560001,28.801517344000047],[114.1375534440001,28.831935505000047],[114.12669490000007,28.845622468000045],[114.08604066200007,28.83695623600005],[114.06402268200009,28.857197003000067],[114.03921046000005,28.886427068000046],[113.98191897200002,28.93437279400007],[113.9533599340001,28.946732086000054],[113.9223665510001,28.978770878000034],[113.91728013900001,29.011005519000037],[113.91103725300002,29.04059045500003],[113.92143490400008,29.071521209000025],[113.92184527000006,29.07361516000003],[113.925225651,29.09103294500005],[113.9378311700001,29.12546059600004],[113.96575912500009,29.122931710000046],[114.00170586900003,29.141567414000065],[114.03711101800002,29.17358001300005],[114.03408259500009,29.204859688000056],[114.06747748700002,29.209284022000077],[114.07949443100006,29.208617024000034],[114.13173734000009,29.205701615000066],[114.1837404050001,29.234518200000025],[114.20707216800008,29.247215863000065],[114.22311955700002,29.25922537200006],[114.23148444000003,29.28749868600005],[114.2290343620001,29.33212494000003],[114.27105121300008,29.34248008700007],[114.2969224530001,29.339040150000073],[114.31418253000004,29.336814546000028],[114.35074505500006,29.33208860800005],[114.38288709000005,29.329329587000075],[114.41981993400009,29.316613698000026],[114.4555062600001,29.324422192000043],[114.495653532,29.33921147600006],[114.49957449200008,29.34426182800007],[114.51324127900011,29.361823987000037],[114.55378689500003,29.38548816900004],[114.60067125100011,29.410717644000044],[114.63686856400011,29.405086967000045],[114.6895873200001,29.396229171000073],[114.73597508400007,29.385774308000066],[114.8461452890001,29.404316533000042],[114.88115691100006,29.41825429100004],[114.90772933200003,29.45208193700006],[114.90339741000003,29.470944708000047],[114.8983055330001,29.473794776000034],[114.86327861900008,29.459863391000056],[114.85555913900009,29.47349381500004],[114.86199701900011,29.500002162000044],[114.87322540000002,29.517433077000078],[114.92686080600004,29.504874947000076],[114.94085248800002,29.514184847000024],[114.9383149140001,29.526747439000076],[114.92898152600003,29.550236433000066],[114.9377765810001,29.559729735000076],[114.9400695270001,29.56070743600003],[114.9590759560001,29.56877794600007],[115.00902471800009,29.566113020000046],[115.0450494050001,29.55591115900006],[115.07457523300002,29.51920346000003],[115.12336736100008,29.514748260000033],[115.12837820800007,29.531789075000063],[115.13087980400007,29.540311608000025],[115.13505763,29.56153977300005],[115.11570935100008,29.613923310000075],[115.09364334000009,29.675304151000034],[115.10346526500007,29.662476054000024],[115.14764597200008,29.647491821000074],[115.18666180000002,29.65495274400007],[115.22804921800002,29.647169960000042],[115.27824453300002,29.62745453000008],[115.32760437800005,29.653185679000046],[115.36817212400001,29.689928789000078],[115.415115979,29.72818191700003],[115.4427006190001,29.775197871000046],[115.43529177700009,29.816510836000077],[115.54174218900005,29.81010187000004],[115.63726721000012,29.815129463000062],[115.69401616100004,29.819023238000057],[115.72541058000002,29.804508462000058],[115.74043170000004,29.787754162000056],[115.76472956500004,29.765081703000078],[115.79735645200003,29.741983899000047],[115.83322253200004,29.728622312000027],[115.8646912480001,29.71712321700005],[115.89253098500001,29.709103259000074],[115.9336632190001,29.707003648000068],[115.95919370400009,29.712300688000028],[115.99428892500009,29.725355024000066],[116.03297825300001,29.743174261000036],[116.03922261700006,29.749452028000064],[116.05559693200007,29.761814722000054],[116.06483430100002,29.782803001000048],[116.07760154000005,29.800093994000065],[116.09650707900005,29.810322402000054],[116.13103661500008,29.814558239000064],[116.14962259000004,29.812474106000025],[116.16547349400003,29.808329229000037],[116.18413243700002,29.798525581000035],[116.19901151900001,29.790023364000035],[116.20678128600002,29.781348294000054],[116.24275570200007,29.778870254000026],[116.29417870000009,29.79315729700005],[116.34077125900001,29.82035495100007],[116.37256353100008,29.83953685800003],[116.38867409000011,29.84745977600005],[116.41883100100006,29.861765796000043],[116.45826751200002,29.878852143000074],[116.49940436700001,29.892522154000062],[116.53573120700003,29.91085515900005],[116.55476726400002,29.931260844000064],[116.55977683000003,29.93758307400003],[116.56134874100007,29.957866586000023],[116.56495922500005,29.99619756100003],[116.58223335600007,30.04366692700006],[116.59156801800009,30.055249968000055],[116.6089808690001,30.063845405000052],[116.61005447700006,30.064625782000064],[116.69688300300004,30.059428963000073],[116.74748182400003,30.028964838000036]]]}},{"type":"Feature","properties":{"code":"CN036060","name":"Nanchang","label":"Nanchang · 南昌市","type":"Prefecture-level city","parentCode":"CN-JX"},"geometry":{"type":"Polygon","coordinates":[[[116.39492562800001,29.055542304000028],[116.40057766000007,29.051574042000027],[116.40259632900006,29.042642562000026],[116.40211790300009,29.033533007000074],[116.39790467300008,29.020535038000048],[116.40014831500002,29.007747169000027],[116.39899479400003,28.999129974000027],[116.39241992600012,28.985087839000073],[116.39064827200002,28.977383561000067],[116.39014338200002,28.968062446000033],[116.39162639200003,28.960673558000053],[116.38968774400007,28.946169689000044],[116.37868355800003,28.93405672800003],[116.37396127900001,28.926431455000056],[116.36756183300008,28.919185327000037],[116.35626258600007,28.893679845000065],[116.35126127700005,28.889489257000037],[116.34158760300011,28.881713929000057],[116.33979049600009,28.879335688000026],[116.33699417200012,28.878186552000045],[116.33403363900004,28.86364851700006],[116.32169250200002,28.85914325600004],[116.24169324900004,28.860074475000033],[116.25155610000002,28.83014619900007],[116.26873400000011,28.837272958000028],[116.27804063600001,28.807153691000053],[116.29908487600005,28.771942068000044],[116.2967693810001,28.770255147000057],[116.39538404100006,28.72007940700007],[116.42644216100007,28.707322503000057],[116.45043540900008,28.683915719000026],[116.45864251600005,28.65741219000006],[116.46232676500006,28.626117312000076],[116.4774479030001,28.582812886000056],[116.49567036200006,28.539031284000032],[116.51168688900009,28.513903957000025],[116.54158351800004,28.469417857000053],[116.52159065300009,28.42961484600005],[116.52750852700001,28.395611538000026],[116.51224235200004,28.36423575500004],[116.49619217700001,28.33159521500005],[116.48824180300005,28.29930810600007],[116.46529716100008,28.27650879500004],[116.44901031300003,28.24483355700005],[116.42393198600007,28.222035835000042],[116.38021986800004,28.21820447500005],[116.32413947000009,28.192150681000044],[116.25480853700003,28.190082854000025],[116.23384603000011,28.191239127000074],[116.21090333000006,28.164960257000075],[116.18994104900003,28.16610656900008],[116.16993766300004,28.180963102000078],[116.12990883100008,28.21067083500003],[116.11022330300011,28.230088744000057],[116.08028238300005,28.24754540300006],[116.07302637600003,28.300906355000052],[116.02864354300004,28.27289469300007],[115.99484245800011,28.25936375200007],[115.9574847560001,28.256743721000078],[115.91792122400011,28.27257185900004],[115.88787535000006,28.286841706000075],[115.8579094370001,28.308518943000024],[115.84137342600002,28.334959914000024],[115.81217170600007,28.352348393000057],[115.77090756900009,28.333000835000064],[115.72947999100006,28.330838801000027],[115.68910355700007,28.342583348000062],[115.65471427700004,28.33224649600004],[115.63163097400002,28.311323430000073],[115.60733249200007,28.335760642000025],[115.60232419600004,28.364940749000027],[115.57726463800009,28.387070249000033],[115.55039334100002,28.368333980000045],[115.51562723100005,28.37649907900004],[115.52428819500005,28.40599025700004],[115.53224246800005,28.433156757000063],[115.5439735220001,28.464413930000035],[115.55123172900005,28.495038030000046],[115.55740612900001,28.52928821000006],[115.56268051000006,28.564508000000046],[115.55086811100011,28.593157095000038],[115.53679652900007,28.627258837000056],[115.54813586500006,28.67655287100007],[115.55603327900008,28.708021737000024],[115.52908500400008,28.72954970400008],[115.49448455100003,28.715420295000058],[115.4463268400001,28.72939580800005],[115.43647185900011,28.759140323000054],[115.46257987800004,28.79276860300007],[115.47818602000007,28.81636806100005],[115.49925250800004,28.85722679400004],[115.51756923900007,28.88389653300004],[115.5028242950001,28.91022821400003],[115.48502626400011,28.945062430000064],[115.46970146500007,28.985764932000052],[115.4749026500001,29.015987127000074],[115.50587505600004,29.006282119000048],[115.53911061400004,28.98440240700006],[115.57271276200004,28.960638052000036],[115.60797765000007,28.946015265000028],[115.64647935100004,28.94784261700005],[115.677962148,28.938514163000036],[115.70871165500012,28.919045019000066],[115.74132539300001,28.904078602000027],[115.80661559800001,28.897449248000044],[115.82955931600009,28.93376919600007],[115.85809580500006,28.96947060000008],[115.89029822400005,29.004930431000048],[115.91828729500003,29.039255936000075],[115.93545241300001,29.067322258000047],[115.95747015300003,29.097849059000055],[115.98839975800001,29.108375701000057],[116.02972317600006,29.105268671000033],[116.06778182400001,29.120407068000077],[116.07757002500011,29.125229741000055],[116.07401056800006,29.12707407000005],[116.09869794600002,29.14308373800003],[116.130013555,29.15729632600005],[116.13917578200005,29.16109155600003],[116.14602103600009,29.16042831900006],[116.16439562000005,29.16460544800003],[116.1680659000001,29.152968478000048],[116.17467231500007,29.142961310000032],[116.17944132800005,29.137814915000035],[116.18302433600002,29.136827865000043],[116.18758481900011,29.135745572000076],[116.19222819000004,29.13529359000006],[116.19932012700008,29.13651863800004],[116.21223229000009,29.140581541000074],[116.2264062380001,29.14856425100004],[116.23492745600004,29.15496918900004],[116.25766157900011,29.162111611000057],[116.26343844400003,29.158991552000032],[116.26657563700007,29.154639747000033],[116.27016071600008,29.146199325000055],[116.27030877000004,29.141714468000032],[116.27458968300004,29.13852731000003],[116.27898180200009,29.13618054600005],[116.28830982000011,29.131858773000033],[116.30213913500006,29.11857792400008],[116.31462361400008,29.10265931200007],[116.33002623800007,29.084534303000055],[116.3348666280001,29.080011306000074],[116.34747205000008,29.076211525000076],[116.36358724000002,29.074618137000073],[116.36887458900003,29.073456055000065],[116.37647343900005,29.06738020100005],[116.37956458700012,29.06089872800004],[116.38198804700005,29.056825591000063],[116.39492562800001,29.055542304000028]]]}},{"type":"Feature","properties":{"code":"CN036070","name":"Pingxiang","label":"Pingxiang · 萍乡市","type":"Prefecture-level city","parentCode":"CN-JX"},"geometry":{"type":"Polygon","coordinates":[[[114.2502024050001,27.561617540000043],[114.22732774100007,27.534545999000045],[114.20270558700008,27.512167315000056],[114.18870064900011,27.485134145000075],[114.17665647400008,27.45355438400003],[114.14752563600007,27.427061652000077],[114.10608857900002,27.41363701100005],[114.07250312800011,27.408602418000044],[114.04240073500011,27.401750768000056],[114.02487061500005,27.36927417000004],[114.0470224930001,27.341296604000036],[114.08541990000003,27.313547932000063],[114.12150477700004,27.292015983000056],[114.13717912700008,27.26485056000007],[114.13761487800002,27.235609872000055],[114.10519807900005,27.17211524100003],[114.09012389100008,27.17563172000007],[114.04423551400009,27.150824944000078],[114.01441525900009,27.117248348000032],[114.00264904900007,27.091878732000055],[113.98005358400007,27.05585508000007],[113.94490129000008,27.01852768300006],[113.92623975300012,26.992176543000028],[113.91148378700007,26.958564065000076],[113.88336485900004,26.94714691200005],[113.87373719000004,26.967263364000075],[113.85701835200007,26.982048511000073],[113.82220490000009,27.03225031200003],[113.80095015900008,27.06416316900004],[113.77387917200008,27.072931322000045],[113.74745967700005,27.102278325000043],[113.7523277570001,27.117170973000043],[113.76430100900006,27.153792458000055],[113.79970715200011,27.213767722000057],[113.8155908650001,27.233941981000044],[113.83446263200005,27.25225019900006],[113.8314872630001,27.285455977000026],[113.82146992300011,27.320634977000054],[113.85415387,27.356471330000034],[113.86087184600001,27.375091611000073],[113.85332590400003,27.378786263000052],[113.83385153500001,27.388337231000037],[113.8112924080001,27.38266360600005],[113.747930741,27.372670413000037],[113.65739521800003,27.338256129000058],[113.63003082000012,27.34072537800006],[113.58654315100011,27.382062338000026],[113.60155496900006,27.407649586000048],[113.59924312500004,27.41329434100004],[113.59302417700007,27.428442963000066],[113.57614574700006,27.442272541000023],[113.56655600200008,27.46219005100005],[113.58530092400008,27.476057405000063],[113.59325558100011,27.503600040000038],[113.59178953600008,27.522426881000058],[113.57434988500006,27.518374083000026],[113.55854433200011,27.53485657400006],[113.55129551800007,27.565446682000072],[113.54722236600003,27.59953629100005],[113.5709678400001,27.609701847000053],[113.58732675100009,27.611098516000027],[113.62052004100008,27.66306525600004],[113.64125873700004,27.70727151600005],[113.656166987,27.72747157200007],[113.67431810700009,27.752954181000064],[113.6848579330001,27.763420874000076],[113.69970694200003,27.78093413600004],[113.71059096900001,27.80211845900004],[113.72128078900005,27.81704804900005],[113.71600001400009,27.844002705000037],[113.69731155600005,27.86451922400005],[113.70912241000008,27.917473550000068],[113.72313041200005,27.939467587000024],[113.72881219700002,27.957200933000024],[113.75989447000006,27.968921600000044],[113.78283832500006,27.98174153900004],[113.8252202540001,27.99405020200004],[113.83983381400003,27.996675027000038],[113.9295099310001,27.948042031000057],[113.96471565500008,27.93139613900007],[113.98168757300004,27.901061207000055],[113.95459958600009,27.87334912600005],[113.92151833500009,27.85284727900006],[113.89873904800004,27.832718511000053],[113.89579102900007,27.804801131000033],[113.92715162800005,27.783071163000045],[113.94824922500004,27.76009619000007],[113.9538892380001,27.731476797000028],[113.98483377500008,27.717674989000045],[114.02823789000001,27.715310170000066],[114.065641604,27.719265990000054],[114.10980106000011,27.728924531000075],[114.14181839600008,27.718155979000073],[114.16750158800005,27.697593078000068],[114.19468755700007,27.674289246000058],[114.20277577900004,27.64182806100007],[114.20276899700002,27.613982544000066],[114.21650190700007,27.584121037000045],[114.2502024050001,27.561617540000043]]]}},{"type":"Feature","properties":{"code":"CN036080","name":"Shangrao","label":"Shangrao · 上饶市","type":"Prefecture-level city","parentCode":"CN-JX"},"geometry":{"type":"Polygon","coordinates":[[[117.73397551300002,29.570905137000068],[117.75767971800008,29.571700304000046],[117.79487477400005,29.55342002200007],[117.87250139000002,29.54429249800006],[117.90233453500002,29.551406577000023],[117.94509588800008,29.56307701000003],[117.98475663300007,29.56243504300005],[118.02538539500006,29.548327994000033],[118.04981827300003,29.540568071000052],[118.07282206500008,29.540924670000038],[118.12173436700004,29.501274652000063],[118.102325328,29.44446692500003],[118.12797640500003,29.426788913000053],[118.17855121000002,29.43252813600003],[118.18861151600004,29.416350899000065],[118.19415693100007,29.40743526800003],[118.18281118700008,29.359937480000042],[118.1626827770001,29.319242348000046],[118.1141584940001,29.29997411200003],[118.05240389100004,29.296691580000072],[118.04301733900002,29.271379919000026],[118.05048369200006,29.23608515500007],[118.00477363100003,29.212129032000064],[117.99575231600011,29.175821006000035],[117.99385236900002,29.168151195000064],[118.00097117000007,29.128409076000025],[118.02877865300002,29.03734479700006],[118.0725372600001,29.01406159000004],[118.10825286300008,28.99824460600007],[118.12661321700011,28.990106578000052],[118.15581077900003,28.979322824000064],[118.16728592600009,28.955359524000073],[118.16681696600006,28.937512741000035],[118.17473673300003,28.90840832500004],[118.20815462600001,28.923257706000072],[118.25845530600009,28.904835096000056],[118.25892413100007,28.899230663000026],[118.26253263500007,28.855406278000032],[118.3023647770001,28.848361445000023],[118.34808116500005,28.801577425000062],[118.3581647530001,28.771810818000063],[118.36541727400004,28.750371307000023],[118.37518938700009,28.707697422000024],[118.39201831800005,28.651140558000066],[118.39081503300008,28.625279308000074],[118.38888589200008,28.603040945000032],[118.39629776800007,28.545295168000052],[118.41292619800004,28.50495049500006],[118.4167798090001,28.495627244000048],[118.44407686800002,28.46518154100005],[118.4371248220001,28.420896765000066],[118.43611047700006,28.37352709700008],[118.44252360900009,28.352511615000026],[118.43488397500005,28.31184484100004],[118.39736695400006,28.282998792000058],[118.39378767400001,28.267653885000072],[118.37357930000007,28.28188635300006],[118.33563959500009,28.271848688000034],[118.31243402100006,28.241142860000025],[118.28919075900001,28.22206889100005],[118.30659459100002,28.196755875000065],[118.33361936800009,28.187824354000043],[118.3503412340001,28.142844667000077],[118.34165757100004,28.10132388200003],[118.28874288700001,28.08330330900003],[118.22894525700008,28.080930111000043],[118.21533101200009,28.077551664000055],[118.1660015870001,28.065294995000045],[118.15357745500012,28.059361746000036],[118.11146054900007,28.039237623000076],[118.08095739300006,28.005358281000042],[118.07905137400007,27.98219380300003],[118.0673050790001,27.976669602000072],[118.06257024700005,27.981448956000065],[118.04784438000002,27.98954737100007],[118.01743132400009,27.994155999000043],[117.96485737900002,27.991194378000046],[117.95240038400004,27.989557587000036],[117.91403849000005,27.984513298000024],[117.82988048000004,27.932398453000076],[117.80007353600001,27.905565311000032],[117.76455596800008,27.871012068000027],[117.74004418800007,27.845631327000035],[117.68837818800012,27.839800811000032],[117.66007754700001,27.842438866000066],[117.60702592700011,27.847366690000058],[117.5858245280001,27.87818310800003],[117.5567113080001,27.92647371100003],[117.5492662040001,27.977057752000064],[117.49595851100003,27.99092998200007],[117.45971547900001,27.959023444000024],[117.4444459770001,27.93305005700006],[117.42704619100004,27.927412713000024],[117.42238129700002,27.942436496000028],[117.4285345180001,27.973614473000055],[117.43891935300007,28.00049437100006],[117.44466162000003,28.055664926000077],[117.45573179900009,28.083034335000036],[117.41405605000011,28.088030889000038],[117.38242986700004,28.108501120000028],[117.35182578500007,28.11450062700004],[117.31421730600005,28.122614395000028],[117.27508437400002,28.132519286000047],[117.2495833260001,28.15489241000006],[117.24760066400006,28.182209217000036],[117.26258452800005,28.213949425000067],[117.28111611100007,28.23742459400006],[117.27303696000001,28.266293302000065],[117.25490757000011,28.295310622000045],[117.2833241410001,28.315559465000035],[117.3103673380001,28.351801203000036],[117.30703906000008,28.386377922000065],[117.30725680000012,28.415913128000057],[117.31671038000002,28.44507704600005],[117.31862873600005,28.473047312000062],[117.3082351060001,28.49869685400006],[117.29150732700009,28.540330918000052],[117.28062168100007,28.572345410000025],[117.26277259300002,28.603831986000046],[117.23006768500011,28.642919233000043],[117.21127345900004,28.600286195000024],[117.18384630600008,28.544315852000068],[117.15345418400011,28.576973679000048],[117.11996960300007,28.583597524000027],[117.09391616100004,28.61155416500003],[117.0599375810001,28.59068400700005],[117.06533374500009,28.551080254000055],[117.05199588700009,28.519034627000053],[117.00383660000011,28.498434148000058],[116.95708934100003,28.49931655900008],[116.9075440250001,28.50347152100005],[116.89600692500005,28.467164371000024],[116.85943165300012,28.468867398000043],[116.87495561200001,28.439019734000055],[116.85395491800011,28.415508396000064],[116.84367014800011,28.38804645700003],[116.77273517000003,28.355304344000047],[116.74178761000007,28.36224892100006],[116.70341875100007,28.368177651000053],[116.67090198000005,28.36164306200004],[116.63828798100008,28.363628043000062],[116.60074755100004,28.373285618000068],[116.57146526700001,28.39840871800004],[116.56061405300011,28.424729333000073],[116.54158351800004,28.469417857000053],[116.51168688900009,28.513903957000025],[116.49567036200006,28.539031284000032],[116.4774479030001,28.582812886000056],[116.46232676500006,28.626117312000076],[116.45864251600005,28.65741219000006],[116.45043540900008,28.683915719000026],[116.42644216100007,28.707322503000057],[116.39538404100006,28.72007940700007],[116.2967693810001,28.770255147000057],[116.29908487600005,28.771942068000044],[116.27804063600001,28.807153691000053],[116.26873400000011,28.837272958000028],[116.25155610000002,28.83014619900007],[116.24169324900004,28.860074475000033],[116.32169250200002,28.85914325600004],[116.33403363900004,28.86364851700006],[116.33699417200012,28.878186552000045],[116.33979049600009,28.879335688000026],[116.34158760300011,28.881713929000057],[116.35126127700005,28.889489257000037],[116.35626258600007,28.893679845000065],[116.36756183300008,28.919185327000037],[116.37396127900001,28.926431455000056],[116.37868355800003,28.93405672800003],[116.38968774400007,28.946169689000044],[116.39162639200003,28.960673558000053],[116.39014338200002,28.968062446000033],[116.39064827200002,28.977383561000067],[116.39241992600012,28.985087839000073],[116.39899479400003,28.999129974000027],[116.40014831500002,29.007747169000027],[116.39790467300008,29.020535038000048],[116.40211790300009,29.033533007000074],[116.40259632900006,29.042642562000026],[116.40057766000007,29.051574042000027],[116.39492562800001,29.055542304000028],[116.40583512400008,29.072346349000043],[116.42024248500002,29.087523830000066],[116.42480843500005,29.09388372400008],[116.4250355480001,29.101100864000045],[116.42230465800003,29.113935155000036],[116.41963817300007,29.123568755000065],[116.41944154600003,29.12763374900004],[116.42040125900007,29.134777540000073],[116.4302902720001,29.145717732000037],[116.44698842700006,29.159385882000038],[116.45527233000007,29.16388358900008],[116.4594765920001,29.167509938000023],[116.4670043640001,29.177404910000064],[116.47300598100003,29.18149026900005],[116.47615991700002,29.186498233000066],[116.48042206700006,29.186728671000026],[116.49199278100002,29.180319610000026],[116.50377260500011,29.22975721100005],[116.51490505400011,29.21760861300004],[116.52554420400008,29.189938393000034],[116.54950923000001,29.18800166400007],[116.55926894100003,29.201842636000038],[116.56191204100003,29.227607943000066],[116.55120535500009,29.25413233200004],[116.53691380500004,29.286617283000055],[116.53954425600011,29.32101478800007],[116.54177377400003,29.350254549000056],[116.53664191700011,29.38031003100008],[116.5252268480001,29.40652900300006],[116.52145177400007,29.436849307000045],[116.52416649500003,29.469968994000055],[116.52582557200003,29.509164596000062],[116.51989452800001,29.538703981000026],[116.50411445500004,29.562896162000072],[116.51895875800005,29.609976716000062],[116.5648642000001,29.602230047000035],[116.59667306100005,29.582478903000037],[116.63990082200007,29.580433871000025],[116.69227077800008,29.60433576500003],[116.70029092800007,29.585144725000077],[116.75459440700001,29.600235300000065],[116.76030093300005,29.576759715000037],[116.7891976190001,29.571719992000055],[116.82257800500008,29.586062353000045],[116.84241752700007,29.60109212800006],[116.88014679000003,29.61786423800004],[116.91633244500008,29.641843229000074],[116.94288916200003,29.66274523800007],[116.9840919720001,29.668606521000072],[117.03278429700003,29.67672660200003],[117.06349265800009,29.685837898000045],[117.06922924300011,29.663817015000063],[117.04598273400006,29.63774926800005],[117.03746812200006,29.582859856000027],[117.03590552900005,29.547349439000072],[117.04142341600004,29.497443988000043],[117.057515738,29.44908149500003],[117.05646385800003,29.413525310000068],[117.04763880100006,29.37853347300006],[117.04780857000003,29.339181858000074],[117.0584613100001,29.31804073400008],[117.05193268200003,29.318188930000076],[117.04640925500007,29.314910628000064],[117.03937410100002,29.308898002000035],[117.03471745000002,29.295887979000042],[117.02896961400006,29.27913521200003],[117.02583902600009,29.27488285100003],[117.01365225200004,29.27012986400007],[117.00062660300011,29.25943754800005],[116.99885571700008,29.252873442000066],[117.0102451030001,29.222278328000073],[117.01500267900008,29.19839903600007],[117.02012013000001,29.179060822000054],[117.01989534600011,29.165584010000032],[117.02030940700001,29.156620631000067],[117.02132855200011,29.15193337000005],[117.04324508000002,29.144334256000036],[117.0590787540001,29.12748363000003],[117.0704937050001,29.109165089000044],[117.06726608500003,29.104199538000046],[117.06200475100002,29.098724159000028],[117.05967734300009,29.093820781000034],[117.04470957900003,29.09079776200008],[117.03302204400006,29.06432912500003],[117.0295074070001,29.018272982000042],[117.01834979000012,28.985737507000067],[116.9984706680001,28.94827696300007],[116.97759298800008,28.922925677000023],[116.95262314400009,28.898328556000024],[116.96050465300004,28.869497801000023],[116.9968877340001,28.858518953000043],[117.02123561700012,28.840527483000074],[117.03182492400003,28.807321245000026],[117.0640960400001,28.791515918000073],[117.10660212900007,28.78560567900007],[117.14534104600011,28.772543080000048],[117.17568688900008,28.741089336000073],[117.20891916700009,28.73629132700006],[117.25187123300009,28.735853225000028],[117.28804302200001,28.74657426600004],[117.32819641000003,28.749564263000025],[117.38349390500002,28.770852602000048],[117.40479615200002,28.799821948000044],[117.42084088100012,28.82779537400006],[117.4462271320001,28.844387819000076],[117.47941370000001,28.827470047000077],[117.50880163200009,28.80341298500008],[117.53792839100004,28.82109131200008],[117.53766956200002,28.85727130400005],[117.5223401720001,28.904340379000075],[117.49863225000001,28.933978229000047],[117.45759792500007,28.95057328200005],[117.45713808400001,28.979340999000044],[117.47942039200007,29.012380163000046],[117.48762535500009,29.039086891000068],[117.49315692800008,29.076185805000023],[117.49168427400002,29.116143974000067],[117.4923891200001,29.146197581000024],[117.45831685600001,29.154829892000066],[117.43194296200011,29.134150204000036],[117.38885654700005,29.12955465400006],[117.36596077600007,29.15213177700008],[117.35465737300001,29.18216663800007],[117.38228733900007,29.21666265300007],[117.41182752800012,29.24313019400006],[117.43143211300003,29.28053327600003],[117.44260992400007,29.31672693400003],[117.47327299800008,29.338000687000033],[117.4800298030001,29.365724078000028],[117.50721831700002,29.410867391000068],[117.53205379200006,29.43071922100006],[117.56170325000005,29.451583019000054],[117.60368374000006,29.48120654300004],[117.6417650730001,29.507882422000023],[117.73397551300002,29.570905137000068]]]}},{"type":"Feature","properties":{"code":"CN036090","name":"Xinyu","label":"Xinyu · 新余市","type":"Prefecture-level city","parentCode":"CN-JX"},"geometry":{"type":"Polygon","coordinates":[[[115.37641984600009,27.85314079400007],[115.34742269300011,27.807454241000073],[115.32673990500007,27.78609927900004],[115.30402897900001,27.766922022000074],[115.2761665910001,27.748205188000043],[115.25003945900005,27.733121193000045],[115.21404150400008,27.72379391800007],[115.1779849940001,27.709661219000054],[115.1388674530001,27.692469304000042],[115.09607726600007,27.687796895000076],[115.06405920300006,27.686798176000025],[115.03293753800006,27.66470905700004],[114.99866118000011,27.655604625000024],[114.96396378500003,27.650056955000025],[114.91962249800008,27.626304057000027],[114.89666880000004,27.605258255000024],[114.87988162700003,27.567091572000038],[114.82058424800005,27.579528020000055],[114.79106958400007,27.59800195100007],[114.75689492200001,27.596910855000033],[114.74685197400004,27.570992689000036],[114.6929024310001,27.572332334000066],[114.65917303200001,27.55336923400006],[114.63717126100005,27.532789043000037],[114.60102513600009,27.515107017000048],[114.57931030100008,27.53825420900006],[114.55006448000006,27.566002292000064],[114.52074566200008,27.575008643000047],[114.52556734600012,27.604471439000065],[114.53911072400001,27.638750833000074],[114.54887975600002,27.664593253000078],[114.55716069000005,27.693583861000036],[114.56453232800004,27.727500374000044],[114.56724966700006,27.75878388800004],[114.57140958500008,27.785984970000072],[114.54935316700005,27.80692819500007],[114.51796528500006,27.796780580000075],[114.48505368600001,27.81210724600004],[114.47604197200008,27.84702732100004],[114.48222101100009,27.874491813000077],[114.50154769400001,27.895914400000038],[114.52895603700006,27.909647363000033],[114.55736405400012,27.920282864000058],[114.57935037700008,27.940822163000064],[114.5734486450001,27.97380665600008],[114.55402534400002,28.026473355000064],[114.60292085300011,28.054284524000025],[114.64430769500007,28.06092688500007],[114.68626482000002,28.070172714000023],[114.72179449600003,28.072701602000052],[114.75642312500008,28.065745890000073],[114.77247764200001,28.040273659000036],[114.78483155700008,28.01085573000006],[114.84991998800001,28.01070113800006],[114.90236563400003,28.039519093000024],[114.93268397500003,28.05424197900004],[114.96851242200012,28.05386154000007],[115.02138345800006,28.058409754000024],[115.04808453400005,28.043543278000072],[115.08004775500001,28.04653821100004],[115.12097461300004,28.04510791000007],[115.14805700700003,28.029637098000023],[115.13289159800001,27.994081966000067],[115.11035245100004,27.967571846000055],[115.1095528940001,27.95384072400003],[115.08702142800007,27.92732380500007],[115.0854222590001,27.899856188000058],[115.10554709500002,27.88517861300005],[115.12566449400003,27.870496967000065],[115.14738092000005,27.883279257000027],[115.18919964300005,27.88136731700007],[115.21093150500008,27.89413470100004],[115.23184836300004,27.89316760300005],[115.2728445240001,27.87748983700004],[115.3138332200001,27.861796308000066],[115.3347424110001,27.860810103000063],[115.37641984600009,27.85314079400007]]]}},{"type":"Feature","properties":{"code":"CN036100","name":"Yichun","label":"Yichun · 宜春市","type":"Prefecture-level city","parentCode":"CN-JX"},"geometry":{"type":"Polygon","coordinates":[[[115.4749026500001,29.015987127000074],[115.46970146500007,28.985764932000052],[115.48502626400011,28.945062430000064],[115.5028242950001,28.91022821400003],[115.51756923900007,28.88389653300004],[115.49925250800004,28.85722679400004],[115.47818602000007,28.81636806100005],[115.46257987800004,28.79276860300007],[115.43647185900011,28.759140323000054],[115.4463268400001,28.72939580800005],[115.49448455100003,28.715420295000058],[115.52908500400008,28.72954970400008],[115.55603327900008,28.708021737000024],[115.54813586500006,28.67655287100007],[115.53679652900007,28.627258837000056],[115.55086811100011,28.593157095000038],[115.56268051000006,28.564508000000046],[115.55740612900001,28.52928821000006],[115.55123172900005,28.495038030000046],[115.5439735220001,28.464413930000035],[115.53224246800005,28.433156757000063],[115.52428819500005,28.40599025700004],[115.51562723100005,28.37649907900004],[115.55039334100002,28.368333980000045],[115.57726463800009,28.387070249000033],[115.60232419600004,28.364940749000027],[115.60733249200007,28.335760642000025],[115.63163097400002,28.311323430000073],[115.65471427700004,28.33224649600004],[115.68910355700007,28.342583348000062],[115.72947999100006,28.330838801000027],[115.77090756900009,28.333000835000064],[115.81217170600007,28.352348393000057],[115.84137342600002,28.334959914000024],[115.8579094370001,28.308518943000024],[115.88787535000006,28.286841706000075],[115.91792122400011,28.27257185900004],[115.9574847560001,28.256743721000078],[115.99484245800011,28.25936375200007],[116.02864354300004,28.27289469300007],[116.07302637600003,28.300906355000052],[116.08028238300005,28.24754540300006],[116.11022330300011,28.230088744000057],[116.0893100940001,28.186803721000047],[116.06100393100007,28.15904191100003],[116.07225122200009,28.132737573000043],[116.10972433100005,28.12180671400006],[116.11959687400008,28.087880867000024],[116.12103686000012,28.050086882000073],[116.1046441100001,28.01544014600006],[116.0891439620001,27.98037097300005],[116.07334282700003,27.951235131000033],[116.06128768100007,27.926117599000065],[116.00270868400003,27.884558507000065],[115.96868413100003,27.876205261000052],[115.93822537300002,27.87979928900006],[115.89995060000001,27.868847275000064],[115.87419036100005,27.852087649000055],[115.85388044600006,27.831524476000027],[115.84854820700002,27.803337406000026],[115.85038595100002,27.775393069000074],[115.84708078300002,27.746697898000036],[115.82886427500011,27.716647385000044],[115.73712616900002,27.722795335000058],[115.7099185080001,27.74378620500005],[115.68388276700011,27.767868424000028],[115.65761228800011,27.789105120000045],[115.62962289100005,27.805483923000054],[115.60045521100005,27.817091823000055],[115.56507969900008,27.837940592000052],[115.53980882700012,27.857075258000066],[115.51489742700005,27.873870331000035],[115.51724737600011,27.906578285000023],[115.49343957200006,27.92600735800005],[115.46762555600003,27.90952203200004],[115.43972488100007,27.891708248000043],[115.39298072400004,27.912348391000023],[115.37641984600009,27.85314079400007],[115.3347424110001,27.860810103000063],[115.3138332200001,27.861796308000066],[115.2728445240001,27.87748983700004],[115.23184836300004,27.89316760300005],[115.21093150500008,27.89413470100004],[115.18919964300005,27.88136731700007],[115.14738092000005,27.883279257000027],[115.12566449400003,27.870496967000065],[115.10554709500002,27.88517861300005],[115.0854222590001,27.899856188000058],[115.08702142800007,27.92732380500007],[115.1095528940001,27.95384072400003],[115.11035245100004,27.967571846000055],[115.13289159800001,27.994081966000067],[115.14805700700003,28.029637098000023],[115.12097461300004,28.04510791000007],[115.08004775500001,28.04653821100004],[115.04808453400005,28.043543278000072],[115.02138345800006,28.058409754000024],[114.96851242200012,28.05386154000007],[114.93268397500003,28.05424197900004],[114.90236563400003,28.039519093000024],[114.84991998800001,28.01070113800006],[114.78483155700008,28.01085573000006],[114.77247764200001,28.040273659000036],[114.75642312500008,28.065745890000073],[114.72179449600003,28.072701602000052],[114.68626482000002,28.070172714000023],[114.64430769500007,28.06092688500007],[114.60292085300011,28.054284524000025],[114.55402534400002,28.026473355000064],[114.5734486450001,27.97380665600008],[114.57935037700008,27.940822163000064],[114.55736405400012,27.920282864000058],[114.52895603700006,27.909647363000033],[114.50154769400001,27.895914400000038],[114.48222101100009,27.874491813000077],[114.47604197200008,27.84702732100004],[114.48505368600001,27.81210724600004],[114.51796528500006,27.796780580000075],[114.54935316700005,27.80692819500007],[114.57140958500008,27.785984970000072],[114.56724966700006,27.75878388800004],[114.56453232800004,27.727500374000044],[114.55716069000005,27.693583861000036],[114.54887975600002,27.664593253000078],[114.53911072400001,27.638750833000074],[114.52556734600012,27.604471439000065],[114.52074566200008,27.575008643000047],[114.48536915500006,27.557345956000063],[114.44755488200008,27.538804595000045],[114.41368279300002,27.515271179000024],[114.38334242000008,27.52520012800005],[114.36004187100002,27.549749279000025],[114.3237370600001,27.54308756300003],[114.28267140500009,27.546727480000072],[114.2502024050001,27.561617540000043],[114.21650190700007,27.584121037000045],[114.20276899700002,27.613982544000066],[114.20277577900004,27.64182806100007],[114.19468755700007,27.674289246000058],[114.16750158800005,27.697593078000068],[114.14181839600008,27.718155979000073],[114.10980106000011,27.728924531000075],[114.065641604,27.719265990000054],[114.02823789000001,27.715310170000066],[113.98483377500008,27.717674989000045],[113.9538892380001,27.731476797000028],[113.94824922500004,27.76009619000007],[113.92715162800005,27.783071163000045],[113.89579102900007,27.804801131000033],[113.89873904800004,27.832718511000053],[113.92151833500009,27.85284727900006],[113.95459958600009,27.87334912600005],[113.98168757300004,27.901061207000055],[113.96471565500008,27.93139613900007],[113.9295099310001,27.948042031000057],[113.83983381400003,27.996675027000038],[113.88600541700009,28.00495736700003],[113.89768709400005,28.017157903000054],[113.93260762400007,28.019794055000034],[113.98225819600009,28.03363356600005],[114.00534512800004,28.049082618000057],[114.02030792400001,28.06653924300008],[114.02308316400001,28.076949383000056],[114.02740162300006,28.093150481000066],[113.99158526800011,28.12451701200007],[113.97034952400008,28.162624830000027],[113.97177524000006,28.174197605000074],[114.05148291600005,28.193434522000075],[114.07291817700002,28.218738904000077],[114.09520963900002,28.23865303900004],[114.13511611100012,28.26252376900004],[114.19447734000005,28.284027096000045],[114.21727218000001,28.31640326100006],[114.2467645050001,28.361969361000035],[114.24125101800007,28.369141124000066],[114.21441644700008,28.40400466500006],[114.2055256220001,28.414088045000028],[114.1717665330001,28.41953217500003],[114.15719896500002,28.443166603000066],[114.18344880300003,28.45669390100005],[114.20073312400007,28.478509948000067],[114.19949345300006,28.49996994600008],[114.1473072660001,28.509515236000027],[114.11113640100007,28.53465171600004],[114.10287343400012,28.539765870000053],[114.08088995900005,28.553358152000044],[114.07777973700001,28.58111423200006],[114.09397551200004,28.60118605200006],[114.10802355200008,28.61863858600003],[114.11621441600005,28.645179401000064],[114.12886534300003,28.680511120000062],[114.13363135300006,28.72588268100003],[114.13592770200012,28.759722690000046],[114.1362157310001,28.762295669000025],[114.18360826100002,28.792211663000046],[114.20061671100007,28.829314424000074],[114.23195746400006,28.815770370000052],[114.26847716100008,28.79317420800004],[114.2879267080001,28.76123430000007],[114.30440299500003,28.732209866000062],[114.33411138000008,28.708535493000056],[114.3783011160001,28.70402171300003],[114.4208311650001,28.69772643500005],[114.4605312540001,28.696179872000073],[114.47470056600002,28.727380966000055],[114.50812984900006,28.751116899000067],[114.542802015,28.760441246000028],[114.57480547300008,28.75972099100005],[114.59096625600012,28.735291420000067],[114.6134952330001,28.714224495000053],[114.63673116000007,28.696360157000072],[114.6757196420001,28.661144440000044],[114.70957422300012,28.687438283000063],[114.74806926200006,28.70020170400005],[114.773402239,28.717357478000054],[114.78767090200006,28.748056276000057],[114.8207439030001,28.755996813000024],[114.86329876200011,28.758327261000034],[114.88984490100006,28.786032516000034],[114.90262758600011,28.816793665000034],[114.91497772500009,28.857293020000043],[114.93014791600001,28.909196259000055],[114.96258992000003,28.913896341000054],[114.97281244900012,28.944782708000048],[114.98178233800002,28.979901693000045],[114.99963401500008,29.00759230600005],[115.0396300760001,29.032661681000036],[115.07486988800008,29.048272782000026],[115.11939860300004,29.062426978000076],[115.15985794200003,29.077721316000066],[115.20147882000003,29.086916450000047],[115.24411355100005,29.095583528000077],[115.2904632530001,29.097544252000034],[115.3407891390001,29.089081368000052],[115.37598727900001,29.072230681000065],[115.43044136200001,29.078749409000068],[115.44626675100005,29.029711379000048],[115.4749026500001,29.015987127000074]]]}},{"type":"Feature","properties":{"code":"CN036110","name":"Yingtan","label":"Yingtan · 鹰潭市","type":"Prefecture-level city","parentCode":"CN-JX"},"geometry":{"type":"Polygon","coordinates":[[[117.42704619100004,27.927412713000024],[117.35308132800003,27.90340081200003],[117.33344070600003,27.873184180000067],[117.26752502800002,27.88230284900004],[117.2555459030001,27.85836918900003],[117.2281506270001,27.87482609500006],[117.19042004100004,27.88360610500007],[117.15005669300001,27.874525721000055],[117.10736523000003,27.871749284000032],[117.09213915400005,27.90014553800006],[117.06412642800001,27.878796350000073],[117.03075757200008,27.84465480600005],[116.98891318400001,27.83954764400005],[116.97738089300003,27.87047474900004],[116.99635412100008,27.89620198500006],[117.01849655100011,27.92227334100005],[117.02952007700003,27.951471621000053],[117.00064951200011,27.975898018000066],[116.9740589050001,27.996617627000035],[116.95587278000005,28.03130887800006],[116.92677206200005,28.045801936000032],[116.90809544500007,28.07155106700003],[116.87112984400005,28.05104938000005],[116.81842345200005,28.064633680000043],[116.78823082100007,28.083280671000068],[116.79528214600009,28.115788749000046],[116.79184431600004,28.143355661000044],[116.78474903000006,28.17016673300003],[116.75104347900003,28.16381897900004],[116.71857218100001,28.17000573400003],[116.68217134400004,28.19833069200007],[116.68546536800011,28.231394263000027],[116.7214450250001,28.23267725100004],[116.75701995000009,28.23535336300006],[116.78704837500004,28.248993995000035],[116.79223978200002,28.28308002800003],[116.78202114400005,28.309180765000065],[116.77273517000003,28.355304344000047],[116.84367014800011,28.38804645700003],[116.85395491800011,28.415508396000064],[116.87495561200001,28.439019734000055],[116.85943165300012,28.468867398000043],[116.89600692500005,28.467164371000024],[116.9075440250001,28.50347152100005],[116.95708934100003,28.49931655900008],[117.00383660000011,28.498434148000058],[117.05199588700009,28.519034627000053],[117.06533374500009,28.551080254000055],[117.0599375810001,28.59068400700005],[117.09391616100004,28.61155416500003],[117.11996960300007,28.583597524000027],[117.15345418400011,28.576973679000048],[117.18384630600008,28.544315852000068],[117.21127345900004,28.600286195000024],[117.23006768500011,28.642919233000043],[117.26277259300002,28.603831986000046],[117.28062168100007,28.572345410000025],[117.29150732700009,28.540330918000052],[117.3082351060001,28.49869685400006],[117.31862873600005,28.473047312000062],[117.31671038000002,28.44507704600005],[117.30725680000012,28.415913128000057],[117.30703906000008,28.386377922000065],[117.3103673380001,28.351801203000036],[117.2833241410001,28.315559465000035],[117.25490757000011,28.295310622000045],[117.27303696000001,28.266293302000065],[117.28111611100007,28.23742459400006],[117.26258452800005,28.213949425000067],[117.24760066400006,28.182209217000036],[117.2495833260001,28.15489241000006],[117.27508437400002,28.132519286000047],[117.31421730600005,28.122614395000028],[117.35182578500007,28.11450062700004],[117.38242986700004,28.108501120000028],[117.41405605000011,28.088030889000038],[117.45573179900009,28.083034335000036],[117.44466162000003,28.055664926000077],[117.43891935300007,28.00049437100006],[117.4285345180001,27.973614473000055],[117.42238129700002,27.942436496000028],[117.42704619100004,27.927412713000024]]]}}]}
