{"type":"FeatureCollection","name":"admin2_chn_cn-nx","adm0A3":"CHN","parentCode":"CN-NX","parentName":"Ningxia","bbox":[104.22649195600007,35.22003140900006,107.63373007600006,39.38000075700006],"features":[{"type":"Feature","properties":{"code":"CN064010","name":"Guyuan","label":"Guyuan · 固原市","type":"Prefecture-level city","parentCode":"CN-NX"},"geometry":{"type":"Polygon","coordinates":[[[106.42789611000006,36.57239875700003],[106.42605574900006,36.56697075300008],[106.33011050900006,36.52708658100005],[106.42223511000009,36.45453184400003],[106.46581886000007,36.42126121800004],[106.48503702800008,36.34926440600003],[106.46446277200005,36.30358447200007],[106.45701018300008,36.29275897100007],[106.43540750500006,36.27004170500004],[106.49148515000007,36.26446813800004],[106.57591554400005,36.27126659900006],[106.65106078300005,36.23789862800004],[106.73062468500007,36.20548536500007],[106.82781164100004,36.21061214700006],[106.83519426800007,36.19995342900006],[106.86031765400008,36.16366874900007],[106.87989302100004,36.12788742500004],[106.91646173900006,36.09075846300004],[106.91927898400007,35.96434435300006],[106.83521647200007,35.89503820500005],[106.87477194400009,35.810226510000064],[106.89516997000004,35.75146386500006],[106.81513000100006,35.75388320800005],[106.78480056200004,35.69826694100004],[106.74660777500009,35.713620193000054],[106.72069382200004,35.724032427000054],[106.68096972400008,35.679644762000066],[106.61035969800008,35.69898810800004],[106.55960909600009,35.726803423000035],[106.44770538100005,35.73696073900004],[106.38539803200007,35.68863175300004],[106.41045345700007,35.61488523500003],[106.43226608100008,35.55957384300007],[106.41682441400008,35.50515591200008],[106.45529444000005,35.44962091600007],[106.46229240100007,35.39650731800003],[106.46388520600004,35.38438376800008],[106.44578613800007,35.314848220000044],[106.42304380900003,35.24959847700006],[106.37181099200006,35.22003140900006],[106.32808249200008,35.24146746500003],[106.28382581400007,35.30218841900006],[106.25035511600004,35.36941507500006],[106.21640946000008,35.40459625300008],[106.18215348000007,35.41199290700007],[106.15974540800005,35.39668358700004],[106.13365335000009,35.362961581000036],[106.11090539400004,35.35494417900003],[106.07883137900006,35.39419559800007],[106.07697968500008,35.43072256600004],[106.05810073500004,35.43745370400006],[106.01026568600008,35.42131718300004],[105.96690864300007,35.40896537700007],[105.93684133400006,35.408001744000046],[105.92152101400006,35.41467216900003],[105.92644153600008,35.429619581000054],[105.96807618000008,35.43095286700003],[106.00664558200003,35.44681300800005],[106.03365601000007,35.46229855800004],[106.03791075300006,35.469746110000074],[106.02345684500006,35.480271266000045],[105.98373820400008,35.48633009200006],[105.96350984600008,35.51861647700008],[105.93532753300008,35.52503045100008],[105.90754608500004,35.524134729000025],[105.88747716100005,35.50885066600006],[105.87899776800003,35.49393907700005],[105.86491453200006,35.49713986200004],[105.85891663900009,35.52254981700003],[105.84092890400007,35.55489115600005],[105.81340735900005,35.58886244400003],[105.78954970400008,35.60841050200003],[105.74061472900007,35.64850596600007],[105.71307708400008,35.68416203900006],[105.70763480600004,35.69861522600007],[105.73294543900005,35.70312576300006],[105.74183294900007,35.71074093300007],[105.73193569400007,35.72138482300005],[105.69902164700005,35.72758900800005],[105.65704187300008,35.729816354000036],[105.63150076700003,35.72893895400006],[105.62031963900006,35.721236575000034],[105.60469090400005,35.70971837800005],[105.58928506300003,35.69454956800007],[105.57029222200003,35.701204000000075],[105.54835102100009,35.71872974200005],[105.52956609600005,35.721729337000056],[105.51538677800005,35.73196715100005],[105.48565348400007,35.75676268800004],[105.44763711800005,35.770035601000075],[105.41025245400004,35.772349002000055],[105.37730028300007,35.77846948200005],[105.37135035300008,35.800204250000036],[105.38397787300005,35.82261793400005],[105.38330799400006,35.83357140600003],[105.33284806700004,35.85917097400005],[105.32321193700005,35.902719099000024],[105.33240652900008,35.943302722000055],[105.35747588000004,35.99178843900006],[105.41628942500006,36.02318709700006],[105.45525724000004,36.03555904600006],[105.49272293400008,36.07347578300005],[105.50691061900005,36.11055868500006],[105.50369830000005,36.165317970000046],[105.49710139300004,36.198007877000066],[105.48687926500008,36.252520193000066],[105.48661498800004,36.296405899000035],[105.46910030800007,36.32677353300005],[105.42764255500003,36.40729137500006],[105.39738582300004,36.47618493700003],[105.34956933500007,36.51520743200007],[105.25898377100003,36.527838476000056],[105.24824907600004,36.60893563900004],[105.22291295500008,36.66823666300007],[105.23807948700005,36.69891674100006],[105.32318109100004,36.741900464000025],[105.31970362000004,36.81706258300005],[105.29148531100009,36.867410998000025],[105.25971190400008,36.900789091000036],[105.18838581300008,36.87246070500004],[105.16120808300008,36.86878597500004],[105.16868486400006,36.94878758200008],[105.15365568200008,36.964767994000056],[105.21012188500004,36.983734543000025],[105.25322986400005,37.002976036000064],[105.29994832100004,37.012620441000024],[105.34112443000004,36.97960749500004],[105.35866544500004,36.95596844700003],[105.44161050600007,36.950796850000074],[105.49834665100008,36.94076939800004],[105.55852861500006,36.927546405000044],[105.60364482400007,36.92882645200007],[105.64125941800006,36.93552704500007],[105.67076791600005,36.95177563800007],[105.70125829300008,36.93505410200004],[105.74738896200006,36.89919411500006],[105.79982212100003,36.90870151100006],[105.82124766200008,36.93401722800007],[105.86338323700005,36.94846784200007],[105.90635965900009,36.93589064500003],[105.94327864100006,36.89853770000008],[105.96987441400006,36.85975522900003],[105.98961929500007,36.82138278300005],[106.02225725400007,36.80596715200005],[106.02362372600004,36.77895444100005],[106.05117589900004,36.75664147600003],[106.09087951100008,36.70322998100005],[106.09851174700009,36.67212043500007],[106.11351010000004,36.64469973300004],[106.14220660300003,36.609094054000025],[106.15135308900005,36.55803965400003],[106.21355438600006,36.56812108300005],[106.24757264500005,36.58608118400008],[106.31973819300003,36.600008159000026],[106.35899536000005,36.60009222600007],[106.42789611000006,36.57239875700003]]]}},{"type":"Feature","properties":{"code":"CN064020","name":"Shizuishan","label":"Shizuishan · 石嘴山市","type":"Prefecture-level city","parentCode":"CN-NX"},"geometry":{"type":"Polygon","coordinates":[[[106.78231716100004,39.22936999900003],[106.80653180900003,39.18618610900006],[106.84296865900006,39.12110049200004],[106.84500590200008,39.07360160200005],[106.93358697700006,39.04641851300005],[106.96678239400006,39.00695548200008],[106.97351184000007,38.961398331000055],[106.95071597200007,38.92613543900006],[106.81958032200004,38.87551199300003],[106.76761353500007,38.84499820900004],[106.72984670300008,38.817901034000045],[106.69542056000006,38.77546246800006],[106.64505522900004,38.698102937000044],[106.61021144800009,38.56452419200008],[106.60866311300003,38.44507336700008],[106.58900372100004,38.39060313600004],[106.51312914800008,38.34348449100003],[106.51827104300008,38.30103444900004],[106.46101924700008,38.31970715600005],[106.42838804800004,38.34807402000007],[106.40819026300005,38.36763429200005],[106.42920371500009,38.38100734600005],[106.46716407700006,38.392999674000066],[106.52976246300005,38.44403149500005],[106.54293292300008,38.471801337000045],[106.55000443100005,38.52683826900005],[106.54906840800004,38.546924888000035],[106.53333083300004,38.573936021000065],[106.52765678800006,38.59207117600005],[106.52585502200009,38.630422545000044],[106.55192604500007,38.69075507100007],[106.50631965300005,38.694973341000036],[106.46068418700008,38.70820524700008],[106.40857660900008,38.726460143000054],[106.38044065800005,38.743819131000066],[106.35280461000008,38.77674349200004],[106.31951806900008,38.76018110500007],[106.27740731000006,38.75595874000004],[106.24281343000007,38.76823570700003],[106.18894865700008,38.77081619900008],[106.13797581300008,38.77842865000008],[106.09846436200007,38.81721737600003],[106.07484081000007,38.843230651000056],[106.03890570300007,38.86690285000003],[105.99143856900008,38.90662700100006],[106.07176093500004,38.95583884800004],[106.08471598300008,39.030590532000076],[106.22016343200005,39.12778859600007],[106.26918390900005,39.122559832000036],[106.28059810100007,39.253338161000045],[106.35533787700007,39.287266042000056],[106.46538809300006,39.27478647400005],[106.53542093100003,39.348821128000054],[106.63734402400007,39.364844230000074],[106.73423082900007,39.38000075700006],[106.75501461200008,39.35124718600008],[106.76635561900008,39.26006946700005],[106.78231716100004,39.22936999900003]]]}},{"type":"Feature","properties":{"code":"CN064030","name":"Wuzhong","label":"Wuzhong · 吴忠市","type":"Prefecture-level city","parentCode":"CN-NX"},"geometry":{"type":"Polygon","coordinates":[[[106.51827104300008,38.30103444900004],[106.58406460200007,38.25897625400006],[106.80712289500008,38.15673967400005],[107.01093241100006,38.10122030800005],[107.04512874800008,38.10199310200005],[107.07621818500007,38.12213600600006],[107.15273417200007,38.15567424100004],[107.23659220400003,38.14952787900006],[107.28736959400004,38.12672817600003],[107.30644334500005,38.11297839500003],[107.37184140500005,38.03651344100007],[107.41738244600003,37.99410390300005],[107.44117579000005,37.94241296000007],[107.45868095800006,37.90474263900006],[107.50575544400004,37.881787203000044],[107.55443060400006,37.88006544800004],[107.59027276000006,37.880738661000066],[107.63373007600006,37.87662722400006],[107.62404354300008,37.80179812200004],[107.58360067800004,37.76568165700007],[107.49253591700005,37.75863437700008],[107.45267383400005,37.74194063400006],[107.44935476700005,37.703861509000035],[107.36115636700004,37.68351499800008],[107.33349610400006,37.617521762000024],[107.27882151600005,37.56686194900004],[107.32665301500003,37.551068609000026],[107.30342257900008,37.49222952900004],[107.24209053800007,37.43787875700008],[107.20714877700004,37.40104295800006],[107.18886269800004,37.36543177400006],[107.22991277000006,37.31600670300003],[107.25672364300004,37.297395599000026],[107.25741433500008,37.27854395800006],[107.23825879800006,37.266822010000055],[107.21258841800005,37.254952881000065],[107.22041461500004,37.21990619300004],[107.25398113600005,37.19421101100005],[107.30056259100007,37.16814684800005],[107.30761302900004,37.15320371000007],[107.30206112000008,37.12636220400003],[107.29608979500006,37.11114347300003],[107.28361901800008,37.09579045700008],[107.25759074000007,37.09524411900003],[107.24498023600006,37.083653920000074],[107.22546646300009,37.08323722600005],[107.18557814200005,37.105015035000065],[107.16562248900004,37.11590032600003],[107.08708000200005,37.12547590400004],[107.01560320200008,37.12007817800003],[106.99033430000009,37.10031136600003],[106.95810094800004,37.09200875000005],[106.93191751900008,37.09516507500007],[106.92479063300004,37.110087375000035],[106.89809629200005,37.12549270900007],[106.87872232800004,37.12125237500004],[106.86649006500005,37.10209044000004],[106.84696880000007,37.10161618600006],[106.81345795100003,37.123748256000056],[106.77991605200003,37.14618748500004],[106.75355510300005,37.153076217000034],[106.74084308500005,37.145209496000064],[106.73515598200004,37.12619904100006],[106.72947679700007,37.106872218000035],[106.71028065000007,37.09883807700004],[106.67757486200009,37.101779074000035],[106.61879204000007,37.108187937000025],[106.61245961200007,37.10888247100007],[106.40874881800005,37.35320539800006],[106.24281698700008,37.649432717000025],[105.82156561400006,37.85499108300007],[105.86910388600006,37.91971993900006],[105.87159263900008,37.980794659000026],[105.85242603600005,38.05399801400006],[105.79129164700004,38.11286738600006],[105.75409827900006,38.16055685500004],[105.80125593400004,38.26324678000003],[105.86312806800004,38.25132440800007],[105.90978753800005,38.23418082100005],[105.96418709200009,38.196451807000074],[106.00321586700005,38.18381537800008],[106.04677912500006,38.181723705000024],[106.09683404400005,38.168651183000065],[106.14743877000006,38.15372693200004],[106.22782355200007,38.13538891800005],[106.25579281100005,38.19483417600003],[106.27658675700008,38.21778694000005],[106.30549810400004,38.248085281000044],[106.33096921800006,38.272419065000065],[106.37649582200004,38.34043529600007],[106.40819026300005,38.36763429200005],[106.42838804800004,38.34807402000007],[106.46101924700008,38.31970715600005],[106.51827104300008,38.30103444900004]]]}},{"type":"Feature","properties":{"code":"CN064040","name":"Yinchuan","label":"Yinchuan · 银川市","type":"Prefecture-level city","parentCode":"CN-NX"},"geometry":{"type":"Polygon","coordinates":[[[106.40819026300005,38.36763429200005],[106.37649582200004,38.34043529600007],[106.33096921800006,38.272419065000065],[106.30549810400004,38.248085281000044],[106.27658675700008,38.21778694000005],[106.25579281100005,38.19483417600003],[106.22782355200007,38.13538891800005],[106.14743877000006,38.15372693200004],[106.09683404400005,38.168651183000065],[106.04677912500006,38.181723705000024],[106.00321586700005,38.18381537800008],[105.96418709200009,38.196451807000074],[105.90978753800005,38.23418082100005],[105.86312806800004,38.25132440800007],[105.80125593400004,38.26324678000003],[105.85883102500009,38.32966116600005],[105.83548515600006,38.38483486300004],[105.84492971200007,38.41285379400006],[105.85683075600008,38.44810247400005],[105.85850382700005,38.53161096500003],[105.86178478300008,38.60348549300005],[105.89504676500007,38.689065725000034],[105.89977804100005,38.70119443100003],[105.92993828900006,38.82117566900007],[105.95388959400009,38.883585534000076],[105.99143856900008,38.90662700100006],[106.03890570300007,38.86690285000003],[106.07484081000007,38.843230651000056],[106.09846436200007,38.81721737600003],[106.13797581300008,38.77842865000008],[106.18894865700008,38.77081619900008],[106.24281343000007,38.76823570700003],[106.27740731000006,38.75595874000004],[106.31951806900008,38.76018110500007],[106.35280461000008,38.77674349200004],[106.38044065800005,38.743819131000066],[106.40857660900008,38.726460143000054],[106.46068418700008,38.70820524700008],[106.50631965300005,38.694973341000036],[106.55192604500007,38.69075507100007],[106.52585502200009,38.630422545000044],[106.52765678800006,38.59207117600005],[106.53333083300004,38.573936021000065],[106.54906840800004,38.546924888000035],[106.55000443100005,38.52683826900005],[106.54293292300008,38.471801337000045],[106.52976246300005,38.44403149500005],[106.46716407700006,38.392999674000066],[106.42920371500009,38.38100734600005],[106.40819026300005,38.36763429200005]]]}},{"type":"Feature","properties":{"code":"CN064050","name":"Zhongwei","label":"Zhongwei · 中卫市","type":"Prefecture-level city","parentCode":"CN-NX"},"geometry":{"type":"Polygon","coordinates":[[[106.61245961200007,37.10888247100007],[106.60488448600006,37.09895350700003],[106.61361143200008,36.98068440700007],[106.60257132000004,36.921140207000064],[106.54675853000003,36.94175349500006],[106.50495045200006,36.88136022300006],[106.55469381100005,36.867676224000036],[106.60127539000007,36.89899566200006],[106.59188904200005,36.82799749900005],[106.61702242400008,36.77648596600005],[106.57597812300008,36.724981961000026],[106.51062558800004,36.73293733600008],[106.46594210900008,36.68837140800008],[106.43906053200004,36.60536521500006],[106.42789611000006,36.57239875700003],[106.35899536000005,36.60009222600007],[106.31973819300003,36.600008159000026],[106.24757264500005,36.58608118400008],[106.21355438600006,36.56812108300005],[106.15135308900005,36.55803965400003],[106.14220660300003,36.609094054000025],[106.11351010000004,36.64469973300004],[106.09851174700009,36.67212043500007],[106.09087951100008,36.70322998100005],[106.05117589900004,36.75664147600003],[106.02362372600004,36.77895444100005],[106.02225725400007,36.80596715200005],[105.98961929500007,36.82138278300005],[105.96987441400006,36.85975522900003],[105.94327864100006,36.89853770000008],[105.90635965900009,36.93589064500003],[105.86338323700005,36.94846784200007],[105.82124766200008,36.93401722800007],[105.79982212100003,36.90870151100006],[105.74738896200006,36.89919411500006],[105.70125829300008,36.93505410200004],[105.67076791600005,36.95177563800007],[105.64125941800006,36.93552704500007],[105.60364482400007,36.92882645200007],[105.55852861500006,36.927546405000044],[105.49834665100008,36.94076939800004],[105.44161050600007,36.950796850000074],[105.35866544500004,36.95596844700003],[105.34112443000004,36.97960749500004],[105.29994832100004,37.012620441000024],[105.25322986400005,37.002976036000064],[105.21012188500004,36.983734543000025],[105.15365568200008,36.964767994000056],[105.11715471200006,37.00353911700006],[105.02034171300005,37.03173574300007],[104.95915351600007,37.05682275800007],[104.93064185100008,37.08937161400007],[104.89405271100009,37.12248307300007],[104.85600352900008,37.21045174400007],[104.74901844700008,37.22597494100006],[104.66911908200007,37.22270239300008],[104.64104243800006,37.242137967000076],[104.61767740500005,37.26999806400005],[104.64762664800008,37.30007489600007],[104.68282015900007,37.30399474200004],[104.70598281600007,37.306593974000066],[104.74693011400007,37.33297871700006],[104.76741116600004,37.34616054900005],[104.81317641100009,37.380954521000035],[104.82750034200006,37.406239337000045],[104.81597896100004,37.41813015400004],[104.79995493600006,37.417490015000055],[104.73139399800004,37.40236255900004],[104.66199446600007,37.399519962000056],[104.59997410300008,37.40294615800008],[104.52291684200009,37.42303467500005],[104.43119673600006,37.41119547000005],[104.36128940400005,37.42782458100004],[104.27983749000003,37.42069170700006],[104.22649195600007,37.41893224700004],[104.28916221200006,37.48294980800006],[104.39014284800004,37.455679373000066],[104.44695323500008,37.507758068000044],[104.53332892600008,37.512237302000074],[104.62114952200005,37.556207234000055],[104.77598710300003,37.52844636400005],[104.89324327300005,37.524595360000035],[104.96356675700008,37.54719075100007],[105.07027454400009,37.59405400800006],[105.13104643900004,37.62258176300003],[105.29078544500004,37.69486213000005],[105.41630276800004,37.723050776000036],[105.44118564100006,37.71596869800004],[105.53856952400008,37.688210928000046],[105.61906950200006,37.70338200200007],[105.63054343300007,37.70554204300004],[105.61015202400006,37.77598689900003],[105.69799618500008,37.78151262800003],[105.80418975100008,37.83133183600006],[105.82156561400006,37.85499108300007],[106.24281698700008,37.649432717000025],[106.40874881800005,37.35320539800006],[106.61245961200007,37.10888247100007]]]}}]}
