{"type":"FeatureCollection","name":"admin2_chn_cn-sn","adm0A3":"CHN","parentCode":"CN-SN","parentName":"Shaanxi","bbox":[105.49621508400008,31.69331531800003,111.25223533100007,39.58060147000003],"features":[{"type":"Feature","properties":{"code":"CN061010","name":"Ankang","label":"Ankang · 安康市","type":"Prefecture-level city","parentCode":"CN-SN"},"geometry":{"type":"Polygon","coordinates":[[[108.82082611200008,33.819989193000026],[108.85585899300008,33.776230586000054],[108.89358772600008,33.771407786000054],[108.92284097900006,33.75801076100004],[108.93774453800006,33.722859173000074],[108.92915423100004,33.690900889000034],[108.88745165800009,33.68984398900005],[108.84547376200004,33.67822875300004],[108.82162770100007,33.64745688200003],[108.77915353700007,33.63720435000005],[108.77698426000006,33.59685820400006],[108.74619324400004,33.571240733000025],[108.71167439300007,33.54843124900003],[108.67050741500009,33.543623955000044],[108.61436506900009,33.53032604200007],[108.58914984800003,33.48300890000007],[108.58354408000008,33.45464575200003],[108.56968642200007,33.400712241000065],[108.55653375700007,33.35272833700003],[108.55256649800003,33.32387772000004],[108.58882161000008,33.311821844000065],[108.63593086100008,33.318851617000064],[108.66036133200004,33.29228018900005],[108.69323546600003,33.27658060700003],[108.75093567800008,33.272362230000056],[108.79306020000007,33.25693226200008],[108.81418305500006,33.23130265200007],[108.84309412100004,33.19221391800005],[108.87645999800009,33.15762449300007],[108.91720221500009,33.13482075600007],[108.95526444000006,33.133176529000025],[108.96543266200007,33.16466124200008],[109.00550643600008,33.17536036900003],[109.03596777700005,33.192205201000036],[109.07048907600006,33.198862090000034],[109.10063248600005,33.15095958400008],[109.14017604300005,33.144178416000045],[109.16168578900005,33.170358828000076],[109.19164392200008,33.187635484000054],[109.24217365400006,33.18334484700006],[109.28086981500007,33.16689215900004],[109.31406753700008,33.13309990600004],[109.36582832200008,33.13423578600003],[109.43453038800004,33.15591443400007],[109.43416585200004,33.153954010000064],[109.46193576700006,33.12418749200003],[109.50333560600006,33.12200086900003],[109.57299604900004,33.121874406000074],[109.63640354600005,33.10482753800005],[109.69441134100003,33.08326966200008],[109.76116998000003,33.05645653700003],[109.73573945300006,33.012854692000076],[109.74955613000009,32.96075977900006],[109.73034521700004,32.93845412200005],[109.73106838300004,32.890657773000044],[109.75827547900008,32.87139548500005],[109.78430150100007,32.852142495000066],[109.80652086400005,32.85217848900004],[109.85092062300004,32.86585927800007],[109.89534327600006,32.87951917500004],[109.93982092600004,32.86591905600005],[109.98426812000008,32.852302429000076],[110.02870007100006,32.838669313000025],[110.07313876800004,32.83864341200007],[110.10230844300008,32.81251373400005],[110.10044432800004,32.80813753100006],[110.10707344100007,32.80823940200003],[110.12014235800007,32.73342170400008],[110.10415679900007,32.70764432200008],[110.14626977300009,32.61227307200005],[110.13658880700007,32.60615506200003],[110.11939761000008,32.59528886800007],[110.08032981800005,32.60920808100008],[110.05449009100005,32.59841496200005],[110.03104741400006,32.56814406500007],[109.99766408200009,32.557287952000024],[109.93902316200007,32.57987577700004],[109.88168967000007,32.58296706300007],[109.85703424300004,32.566826036000066],[109.80530186100009,32.556646286000046],[109.74042586700006,32.545370054000045],[109.66588243300004,32.55535117800002],[109.59782294400009,32.553769369000065],[109.53736960700007,32.54958505900004],[109.51798639500004,32.48471812400004],[109.51858152500006,32.483536135000065],[109.54482545000008,32.43186341400008],[109.52589237100005,32.40331114700007],[109.48966006300009,32.37810148700004],[109.44180638000006,32.34211282000007],[109.48114875500005,32.253090763000046],[109.50865343400005,32.220620791000044],[109.54379801800007,32.20529428800006],[109.56612258600006,32.19555358300005],[109.56326288700006,32.17425800900003],[109.58061116100004,32.10266526600003],[109.55673786300008,32.05278047200005],[109.58074732200004,31.96618228400007],[109.55674495000005,31.864869428000077],[109.56444854000006,31.852541417000054],[109.58614425100006,31.836814394000044],[109.59749845900006,31.797928180000042],[109.55440606100007,31.750472109000043],[109.53883234800008,31.722817125000063],[109.54600341600008,31.72160671300003],[109.53688860900007,31.711267072000055],[109.48413220600008,31.73017813000007],[109.39856933800007,31.72827426200007],[109.35615364700004,31.70824506100007],[109.29869312800008,31.69331531800003],[109.25699451300005,31.72266454000004],[109.24551407200005,31.730742788000043],[109.22513715300005,31.78366555200006],[109.18146718400004,31.82207400200008],[109.15297542900004,31.84888303500003],[109.15083303700004,31.85089713600007],[109.09514992200008,31.89619005700007],[109.04027061300008,31.935186147000024],[109.02426195700008,31.946543530000042],[108.96881646200006,31.976708943000062],[108.89781798200005,31.982659397000077],[108.85424746200005,32.007644105000054],[108.76798818200007,32.061128144000065],[108.70156088800007,32.09363408000007],[108.63943209000007,32.13737180800007],[108.62915614600007,32.14460389100003],[108.55941533400005,32.175198634000026],[108.50206629400009,32.20283413100003],[108.44800989900006,32.22884618000006],[108.45448899600007,32.26353783600007],[108.36870334900004,32.251161514000046],[108.29466547600003,32.24251616600003],[108.26528063100005,32.28442342300008],[108.19336054700005,32.276651866000066],[108.19222054100004,32.27156965900008],[108.10801548000006,32.34275190100004],[108.10381033900006,32.37910276800005],[108.13732019500009,32.38374299000003],[108.12214910600005,32.40874421600006],[108.13830917700005,32.43702842000005],[108.18134365700007,32.42958703900007],[108.20915518100009,32.44438518700008],[108.23984180700006,32.46786851400003],[108.27030664500006,32.47986164500003],[108.25969327400009,32.51584208300005],[108.23362813900007,32.53686689600005],[108.21964208100007,32.56783813100003],[108.19480598500007,32.59756486200007],[108.22444881300004,32.620605270000055],[108.25249041600006,32.67075706000003],[108.23968917000008,32.70813713000007],[108.22174483300006,32.732260171000064],[108.16519454600007,32.74953150300007],[108.17336708800008,32.78066153100008],[108.12107743800004,32.79601745900004],[108.09528841900004,32.839046506000045],[108.07997037000007,32.89250111900003],[108.10278821000009,32.92390723300008],[108.12233778800004,32.953971995000074],[108.13506802000006,32.996058437000045],[108.12325689700003,33.03385514200005],[108.09359624400008,33.077832699000055],[108.09545269600005,33.12004731600007],[108.09484940300007,33.14714053600005],[108.10213165500005,33.18836483200005],[108.07035934700008,33.208949037000025],[108.03963907800005,33.22859077700008],[108.02920586100004,33.25579430100004],[108.03572556900008,33.285551687000066],[108.03947275400009,33.31350651100007],[108.06233829500007,33.34123201800003],[108.08755998900006,33.37856235800007],[108.11193931000008,33.398002148000046],[108.15588236400004,33.411681230000056],[108.15263319800005,33.44155499100003],[108.11755880300007,33.46630898300003],[108.09110634900009,33.48498945500006],[108.06962033000008,33.506353398000044],[108.05331408900008,33.54279645400004],[108.05181175500007,33.58181553000003],[108.05746309200003,33.62304508100004],[108.05553739300007,33.66894489600003],[108.04039305500004,33.71179075200007],[108.09965113200008,33.71429744900007],[108.15873977300004,33.70760599000005],[108.19881829400003,33.710762534000025],[108.24028984200004,33.72857616300007],[108.27936655900004,33.76199523500003],[108.32359712600004,33.77836234400007],[108.36729460900006,33.794265360000054],[108.38259040500009,33.76560267000008],[108.42301857800004,33.757674691000034],[108.44653548400004,33.77888662100003],[108.47823014100004,33.797219476000066],[108.51962254200004,33.78282089100003],[108.55311784400004,33.76073223800006],[108.59065485900004,33.77022599800006],[108.61120786500004,33.80292923600007],[108.64242958600005,33.82214136700003],[108.70315359700004,33.855994278000026],[108.73233382800004,33.837600363000035],[108.76132037000008,33.811865701000045],[108.82082611200008,33.819989193000026]]]}},{"type":"Feature","properties":{"code":"CN061020","name":"Baoji","label":"Baoji · 宝鸡市","type":"Prefecture-level city","parentCode":"CN-SN"},"geometry":{"type":"Polygon","coordinates":[[[107.78421476000005,34.97113206000006],[107.81333999000009,34.943437053000025],[107.82575411100004,34.917198142000075],[107.84907374300008,34.87664039500004],[107.87035741700004,34.85030612700007],[107.94389138600008,34.85778927000007],[107.96032030300006,34.80903234700003],[107.97516041000006,34.76624954300007],[107.99387874600006,34.72387315100008],[108.00897506200005,34.697580827000024],[108.02222545400008,34.662140057000045],[108.02559712900006,34.63230048500003],[107.96891347500008,34.608226917000025],[107.98106851000006,34.557623686000056],[107.97368227200008,34.51370157300005],[107.98700597500005,34.48283556500007],[108.01848378800008,34.44626646800003],[108.01411994900008,34.41835354600005],[108.03103370500008,34.37368601400004],[108.03438236500006,34.34384782200004],[108.02215932700005,34.30868136700008],[108.03265670400003,34.27692663000005],[108.04767579300005,34.25199264200006],[107.99441255700003,34.21634101700005],[108.01971861700008,34.16702451300006],[108.01316767900005,34.13912728200006],[107.98442575000007,34.10230212500005],[107.95199895000007,34.07285190700003],[107.92832791100005,34.00568827800004],[107.91796734200005,33.97736329300005],[107.87950103300005,33.97914332600004],[107.84346299700007,33.96070100000003],[107.81172713400008,33.97156218500004],[107.76669146800003,33.93805290100005],[107.70918466600006,33.91289751800008],[107.69612123900004,33.88090556000003],[107.70104719300008,33.838204992000044],[107.67383621700009,33.81413103500006],[107.65244236500007,33.772572093000065],[107.67588573600005,33.715644318000045],[107.62961890900004,33.70120327300003],[107.57907431600006,33.69197703400005],[107.54667793900006,33.68626480800003],[107.48294629200007,33.67159286500004],[107.43607889800006,33.642559160000076],[107.39839134900006,33.653814960000034],[107.36790596700007,33.67556468600003],[107.32078423200005,33.67584730100003],[107.26657284000004,33.70589292600005],[107.31327256000009,33.76029857700007],[107.32019093200006,33.79833256200004],[107.28442946700005,33.78798302600006],[107.23709818300006,33.769426320000036],[107.18440796200008,33.76693072200004],[107.15987253700007,33.790436026000066],[107.12640557700007,33.79103543900004],[107.10072219000006,33.81040655000004],[107.05154038600006,33.85186908400004],[107.01567305800006,33.815305039000066],[106.98541595600005,33.800262203000045],[106.95031545200004,33.80494981000004],[106.90155374800008,33.83305370700003],[106.88240483900006,33.85786858100005],[106.84340860200007,33.85335693600007],[106.82413636400008,33.83045946500005],[106.79828519700004,33.812616397000056],[106.79549124100004,33.78372005700004],[106.80035194000004,33.74747950400007],[106.78820193900003,33.703456637000045],[106.76073855100009,33.667715206000025],[106.71637105300005,33.686569586000076],[106.69992306000006,33.655846981000025],[106.66321574600005,33.64623034700003],[106.64238321800008,33.620546825000076],[106.61776513700005,33.59210914800008],[106.56683401500004,33.57767242500006],[106.57288882400007,33.62081983400003],[106.55078653900006,33.67833798600003],[106.48758674000004,33.702976543000034],[106.46819082900004,33.771118459000036],[106.47434366300007,33.85319481600004],[106.45738915900006,33.86591952200007],[106.44031845700005,33.88128157500006],[106.43876624800004,33.91557798100007],[106.44739841200004,33.94224363300003],[106.44233789300006,33.98171852200005],[106.45271714400008,34.04277074700008],[106.51548836300009,34.10793438400003],[106.55159100400004,34.10894162300008],[106.59074636500009,34.11530445300008],[106.60307889300009,34.134131285000024],[106.59231453400008,34.15496330900004],[106.55785030100009,34.19098674300005],[106.50714437500005,34.220415236000065],[106.51888929700004,34.25328177800003],[106.59759098800004,34.26074134600003],[106.63671384800006,34.26972316400003],[106.65475598600005,34.309816298000044],[106.65351128600008,34.33882864100008],[106.64194307600008,34.37812259000003],[106.59387239500006,34.42170875800008],[106.54671390100003,34.44417574800008],[106.52245134300006,34.469904315000065],[106.48853789500004,34.49007625400003],[106.45814063800009,34.50506027000006],[106.43163711400007,34.506942937000076],[106.37812899300008,34.52124532300007],[106.34103341000008,34.56097845200003],[106.33494572300003,34.59655613600006],[106.35927848200004,34.64214573000004],[106.40028503000008,34.685571923000055],[106.40899317500003,34.71222015300003],[106.44085813300006,34.73952706100005],[106.49222368900007,34.752292182000076],[106.52935765900008,34.76048727700004],[106.53480483900006,34.78703343300003],[106.53682114500003,34.81612483400005],[106.51813836900004,34.86312137300007],[106.48640610800004,34.90446617500004],[106.46708240500004,34.96462742400007],[106.46481099200008,35.01471142500003],[106.48603080400005,35.041551163000065],[106.52304062600007,35.06569196200007],[106.55115348100009,35.06116050300005],[106.67032446900004,35.06706270900003],[106.75118498500007,35.08158572100007],[106.82367918500006,35.083456958000056],[106.88363696900007,35.09972553100005],[106.97558505700005,35.05272557200004],[107.03722301700009,35.01508908400007],[107.05783513400007,35.00248979600008],[107.04943424100009,34.95980915600006],[107.07475347800005,34.93828832600008],[107.11764736600009,34.92336053300005],[107.11832091100007,34.91872426400005],[107.12363988300007,34.88190411200003],[107.20425815600004,34.869585975000064],[107.23598820900008,34.91631488100006],[107.36093903100004,34.90301846800003],[107.42170220600008,34.89876146100005],[107.46417440200008,34.887803477000034],[107.47640100800004,34.89297498500002],[107.47610597400006,34.901833587000056],[107.47298453700006,34.92147585300006],[107.47827794600005,34.949163903000056],[107.48920029100009,34.956279134000056],[107.52265090700007,34.95694136800006],[107.56344504500004,34.96069076300006],[107.57833465300007,34.959993147000034],[107.58849673000009,34.95230653500005],[107.58547019800005,34.93057758100008],[107.59314060400004,34.922840517000054],[107.60178085900009,34.923994392000054],[107.64338149400004,34.941524902000026],[107.68398124200007,34.951141310000025],[107.73330640200004,34.95991684300003],[107.78421476000005,34.97113206000006]]]}},{"type":"Feature","properties":{"code":"CN061030","name":"Hanzhong","label":"Hanzhong · 汉中市","type":"Prefecture-level city","parentCode":"CN-SN"},"geometry":{"type":"Polygon","coordinates":[[[107.67588573600005,33.715644318000045],[107.74325479300006,33.71305691600003],[107.79020223300006,33.69884721500006],[107.81728144000004,33.67702176600005],[107.85544329700008,33.69958055300003],[107.86626233500004,33.72607814300005],[107.90487074100008,33.74081799000004],[107.95358876300008,33.73433275700006],[108.00379752500004,33.71954888600004],[108.04039305500004,33.71179075200007],[108.05553739300007,33.66894489600003],[108.05746309200003,33.62304508100004],[108.05181175500007,33.58181553000003],[108.05331408900008,33.54279645400004],[108.06962033000008,33.506353398000044],[108.09110634900009,33.48498945500006],[108.11755880300007,33.46630898300003],[108.15263319800005,33.44155499100003],[108.15588236400004,33.411681230000056],[108.11193931000008,33.398002148000046],[108.08755998900006,33.37856235800007],[108.06233829500007,33.34123201800003],[108.03947275400009,33.31350651100007],[108.03572556900008,33.285551687000066],[108.02920586100004,33.25579430100004],[108.03963907800005,33.22859077700008],[108.07035934700008,33.208949037000025],[108.10213165500005,33.18836483200005],[108.09484940300007,33.14714053600005],[108.09545269600005,33.12004731600007],[108.09359624400008,33.077832699000055],[108.12325689700003,33.03385514200005],[108.13506802000006,32.996058437000045],[108.12233778800004,32.953971995000074],[108.10278821000009,32.92390723300008],[108.07997037000007,32.89250111900003],[108.09528841900004,32.839046506000045],[108.12107743800004,32.79601745900004],[108.17336708800008,32.78066153100008],[108.16519454600007,32.74953150300007],[108.22174483300006,32.732260171000064],[108.23968917000008,32.70813713000007],[108.25249041600006,32.67075706000003],[108.22444881300004,32.620605270000055],[108.19480598500007,32.59756486200007],[108.21964208100007,32.56783813100003],[108.23362813900007,32.53686689600005],[108.25969327400009,32.51584208300005],[108.27030664500006,32.47986164500003],[108.23984180700006,32.46786851400003],[108.20915518100009,32.44438518700008],[108.18134365700007,32.42958703900007],[108.13830917700005,32.43702842000005],[108.12214910600005,32.40874421600006],[108.13732019500009,32.38374299000003],[108.10381033900006,32.37910276800005],[108.10801548000006,32.34275190100004],[108.19222054100004,32.27156965900008],[108.18680206200008,32.24726037200003],[108.10885386200005,32.22777610500003],[108.05899059700005,32.23726243500005],[108.01300189100004,32.228208246000065],[107.95790327200007,32.17459593600006],[107.95329833700004,32.15321012700008],[107.90519063900007,32.14494691300007],[107.88011377700008,32.18244451700008],[107.76908578800004,32.24169457000005],[107.71815184400003,32.32182093200004],[107.70589502300004,32.34109544800003],[107.64548245900005,32.39444523700007],[107.54775527000004,32.40864065900007],[107.44166501700005,32.390615479000076],[107.40533053200005,32.407307143000025],[107.39215319700008,32.437061361000076],[107.41399691700008,32.50592077300007],[107.39693232700006,32.53721524200006],[107.34248188300006,32.533622121000064],[107.28994735800006,32.524474428000076],[107.26304825300008,32.474050367000075],[107.23809657400005,32.428994128000056],[107.22369625200008,32.41349233600005],[107.12370742600007,32.45032088200003],[107.12581307700003,32.49735932800007],[107.10552886600004,32.49693635500006],[107.03835926900007,32.49551116900005],[107.04023227300007,32.52393031100007],[107.04634437500005,32.59944998100008],[107.08309115900005,32.64579309900006],[107.05715097000007,32.71232226500007],[106.83987466500008,32.69793850800005],[106.80529633800006,32.69614821000005],[106.76259374900008,32.70834915800003],[106.72710303900004,32.72871214400004],[106.63054207400006,32.702733505000026],[106.62430210600007,32.70105244900003],[106.56148974000007,32.676216758000066],[106.55326810800005,32.675520850000055],[106.48276328100008,32.66953283400005],[106.46235022100007,32.641413690000036],[106.40364823200008,32.62370635700006],[106.31381009900008,32.67165268600007],[106.30365937400006,32.67250099200004],[106.22795819400005,32.678801957000076],[106.13610426300005,32.72033463200006],[106.07570757200006,32.759265421000066],[106.08254883100005,32.77458506500005],[106.09934687300006,32.80798162000008],[106.06933241600007,32.84520598700004],[106.02518542800004,32.83844970300004],[105.95320700400003,32.82454524900004],[105.89487025900007,32.81993144200004],[105.84478874400008,32.82357132100003],[105.82299428500005,32.825493677000054],[105.82780481900005,32.795459881000056],[105.78750922300009,32.75765677700008],[105.73515205600006,32.74340265100005],[105.66575934300005,32.72407954600004],[105.63895572100006,32.71733287400008],[105.61231989500004,32.71062161300006],[105.57452514800008,32.708368077000046],[105.53221403700007,32.76812274800005],[105.50425876200006,32.80262820300004],[105.49621508400008,32.849408648000065],[105.50419954900008,32.90392201900005],[105.58154467400004,32.87650799600004],[105.62855658100005,32.870205164000026],[105.65579507300004,32.87604355700006],[105.72298813700007,32.89041954800007],[105.83308679800007,32.92352582400002],[105.87834597400007,32.930387676000066],[105.93798744700007,32.99631245100005],[105.94791072600003,33.057908603000044],[105.94327714900004,33.14919579000008],[105.94952502400008,33.16307855200006],[105.96222442200008,33.168786555000054],[105.99518655600008,33.15929248400005],[106.01372241800004,33.17840428000005],[105.99968166700006,33.19910396700004],[105.95211598400005,33.239849701000026],[105.85743260300006,33.24726167000006],[105.79098501500005,33.27408658200005],[105.77129484900007,33.31206383800003],[105.74439438400009,33.36616863800003],[105.80401672600004,33.37442975000005],[105.85596757900004,33.40458936400006],[105.85186421300006,33.46213512200006],[105.87157545200006,33.50362380800004],[105.88891347900005,33.52506824100004],[105.91979573800006,33.55337156000007],[105.96040429900006,33.58907093800008],[106.04003445200004,33.61295891700007],[106.13311081100005,33.59106727600005],[106.16254210900007,33.54850563100007],[106.23904407000003,33.566172305000066],[106.29335176400008,33.59159749600008],[106.34263429200007,33.58514361600004],[106.37173883200006,33.59129102600008],[106.40259362200004,33.61434032400007],[106.40572484200004,33.615260386000045],[106.42694444100005,33.606117047000055],[106.44196530300007,33.54001560000006],[106.47722166500006,33.529601282000044],[106.50544338800006,33.52115628200005],[106.52208230200006,33.513699451000036],[106.54151155200009,33.51688788400003],[106.55059250900007,33.53299690600005],[106.56271804200009,33.554475188000026],[106.56683401500004,33.57767242500006],[106.61776513700005,33.59210914800008],[106.64238321800008,33.620546825000076],[106.66321574600005,33.64623034700003],[106.69992306000006,33.655846981000025],[106.71637105300005,33.686569586000076],[106.76073855100009,33.667715206000025],[106.78820193900003,33.703456637000045],[106.80035194000004,33.74747950400007],[106.79549124100004,33.78372005700004],[106.79828519700004,33.812616397000056],[106.82413636400008,33.83045946500005],[106.84340860200007,33.85335693600007],[106.88240483900006,33.85786858100005],[106.90155374800008,33.83305370700003],[106.95031545200004,33.80494981000004],[106.98541595600005,33.800262203000045],[107.01567305800006,33.815305039000066],[107.05154038600006,33.85186908400004],[107.10072219000006,33.81040655000004],[107.12640557700007,33.79103543900004],[107.15987253700007,33.790436026000066],[107.18440796200008,33.76693072200004],[107.23709818300006,33.769426320000036],[107.28442946700005,33.78798302600006],[107.32019093200006,33.79833256200004],[107.31327256000009,33.76029857700007],[107.26657284000004,33.70589292600005],[107.32078423200005,33.67584730100003],[107.36790596700007,33.67556468600003],[107.39839134900006,33.653814960000034],[107.43607889800006,33.642559160000076],[107.48294629200007,33.67159286500004],[107.54667793900006,33.68626480800003],[107.57907431600006,33.69197703400005],[107.62961890900004,33.70120327300003],[107.67588573600005,33.715644318000045]]]}},{"type":"Feature","properties":{"code":"CN061040","name":"Shangluo","label":"Shangluo · 商洛市","type":"Prefecture-level city","parentCode":"CN-SN"},"geometry":{"type":"Polygon","coordinates":[[[110.39214314400004,34.40820192000007],[110.40554007900005,34.39415512200003],[110.44328819500004,34.370426821000024],[110.47002458500003,34.33692859700005],[110.48676056900007,34.30869900600004],[110.45150541000004,34.29532884900004],[110.41844236800006,34.28549302400006],[110.39312919400004,34.27479497000007],[110.39329710300007,34.25093107600003],[110.44421141300006,34.22813070400008],[110.49728682000006,34.209737620000055],[110.56802277900005,34.18252443700004],[110.61447656900003,34.15257020400003],[110.62038821400006,34.14272500900006],[110.63888595900005,34.11195453700003],[110.58611180700007,34.08886436900008],[110.54560553400006,34.041911758000026],[110.56567086100006,33.990686510000046],[110.61752987100004,33.956320247000065],[110.63844286000005,33.949289649000036],[110.62314037800007,33.92892451100005],[110.61987788600004,33.91919329500007],[110.59069786000003,33.87852547800003],[110.58493496300008,33.87049460900005],[110.60708933500007,33.82898145400003],[110.64439020000009,33.837011579000034],[110.66740946700008,33.84854508500007],[110.71910390700003,33.82120370200005],[110.76309827500006,33.78853025600006],[110.78546694000005,33.76911671900007],[110.79058263400009,33.76467432000004],[110.80057505300005,33.70100919400005],[110.80502087700006,33.67182926500004],[110.86203217400003,33.64707676300003],[110.88942873300005,33.629385410000054],[110.91682707700005,33.60903644800004],[110.96609453100007,33.56390012000003],[110.97960417900003,33.55228221300007],[111.00108834900004,33.53378997600004],[111.01091937000007,33.495744770000044],[111.01527183000007,33.45770364900005],[111.01960112900008,33.408159330000046],[111.01301870100008,33.34713139400003],[111.00764019400009,33.33375337200005],[110.99880778100004,33.31175667000008],[110.98680087000008,33.285229800000025],[110.96719302900004,33.26488442800007],[110.93665041100007,33.245456932000025],[110.92359156300006,33.207415069000035],[110.88763523800009,33.20565801300006],[110.84513556000007,33.21274226500003],[110.80382836800004,33.16583177900003],[110.75704627200008,33.14898567600005],[110.72338893900007,33.114443126000026],[110.69295258400007,33.10732545500008],[110.66027241700004,33.11789391700006],[110.64674469000005,33.12209691500004],[110.61777633900005,33.131093339000074],[110.57733122800005,33.166399409000064],[110.57283990100007,33.19558744900007],[110.55631087700004,33.234478582000065],[110.52901905000004,33.24325403100005],[110.50513588100006,33.22372418400005],[110.43801877700008,33.20338861100004],[110.40183948200007,33.19240941500004],[110.34095966500007,33.17712324900003],[110.24628992700008,33.16783204400008],[110.10568208900008,33.180315257000075],[110.07414675500007,33.17569279800006],[109.95732863200004,33.19877472400003],[109.85654654700005,33.23957716600006],[109.81950752300008,33.23837976200008],[109.73019100300007,33.23404662300004],[109.66559377800007,33.252895918000036],[109.60295180000008,33.252266607000024],[109.54088112200009,33.21533322200003],[109.49084493600009,33.21035712500003],[109.46387223900007,33.19589053800007],[109.43712762100006,33.16992106400005],[109.43453038800004,33.15591443400007],[109.36582832200008,33.13423578600003],[109.31406753700008,33.13309990600004],[109.28086981500007,33.16689215900004],[109.24217365400006,33.18334484700006],[109.19164392200008,33.187635484000054],[109.16168578900005,33.170358828000076],[109.14017604300005,33.144178416000045],[109.10063248600005,33.15095958400008],[109.07048907600006,33.198862090000034],[109.03596777700005,33.192205201000036],[109.00550643600008,33.17536036900003],[108.96543266200007,33.16466124200008],[108.95526444000006,33.133176529000025],[108.91720221500009,33.13482075600007],[108.87645999800009,33.15762449300007],[108.84309412100004,33.19221391800005],[108.81418305500006,33.23130265200007],[108.79306020000007,33.25693226200008],[108.75093567800008,33.272362230000056],[108.69323546600003,33.27658060700003],[108.66036133200004,33.29228018900005],[108.63593086100008,33.318851617000064],[108.58882161000008,33.311821844000065],[108.55256649800003,33.32387772000004],[108.55653375700007,33.35272833700003],[108.56968642200007,33.400712241000065],[108.58354408000008,33.45464575200003],[108.58914984800003,33.48300890000007],[108.61436506900009,33.53032604200007],[108.67050741500009,33.543623955000044],[108.71167439300007,33.54843124900003],[108.74619324400004,33.571240733000025],[108.77698426000006,33.59685820400006],[108.77915353700007,33.63720435000005],[108.82162770100007,33.64745688200003],[108.84547376200004,33.67822875300004],[108.88745165800009,33.68984398900005],[108.92915423100004,33.690900889000034],[108.93774453800006,33.722859173000074],[108.92284097900006,33.75801076100004],[108.89358772600008,33.771407786000054],[108.85585899300008,33.776230586000054],[108.82082611200008,33.819989193000026],[108.86791943200006,33.81546139900007],[108.89379770100004,33.837465612000074],[108.93979705100008,33.85174390800006],[108.98685643400006,33.86460722700008],[109.01666590500008,33.88742834000004],[109.04457562300007,33.90202180600005],[109.10108984800007,33.88070425700005],[109.13367980700008,33.86856876100006],[109.21781625100004,33.87048869700004],[109.27662823200006,33.854549220000024],[109.31879875200008,33.850418787000024],[109.37193419900007,33.84602522200004],[109.42359078700008,33.830635276000066],[109.47049413800005,33.83689189100005],[109.51610357700008,33.85280368100007],[109.54317210500005,33.87189080200005],[109.57601173100005,33.89817735100007],[109.59424798900005,33.93077244400007],[109.56083866400007,33.94947287700006],[109.52863122400004,33.97134084400005],[109.53911917000005,34.00229267900005],[109.55407841300007,34.03542984500007],[109.57329981300006,34.06433021200007],[109.62541906000007,34.08784026500007],[109.67084396500007,34.094065209000064],[109.70479219800006,34.10239331500003],[109.74163207500004,34.128534357000035],[109.77348305700008,34.13965035500007],[109.80984378200009,34.152477532000034],[109.80839024000005,34.185085979000064],[109.76705990700009,34.186604283000065],[109.72769043100004,34.19586186300006],[109.72211660000005,34.23728625200005],[109.76168887000006,34.23261487100007],[109.79394564600005,34.252432190000036],[109.80490893200005,34.278296571000055],[109.84717339700006,34.257934317000036],[109.87929915800004,34.23277980000006],[109.92295175800007,34.23390987600004],[109.95921764500008,34.21642286200006],[110.00335811600007,34.228983020000044],[110.00319052500004,34.264309050000065],[110.00142945600004,34.30105510100003],[109.99905964200008,34.33644119100006],[109.99791456000008,34.37500387400007],[110.02638470700003,34.39394424300008],[110.07486300800008,34.41462340600003],[110.15846450200007,34.440697026000066],[110.20985423200005,34.40160730800005],[110.25092289600008,34.392148044000066],[110.28828589300008,34.38645974600007],[110.34383024300007,34.391217777000065],[110.39214314400004,34.40820192000007]]]}},{"type":"Feature","properties":{"code":"CN061050","name":"Tongchuan","label":"Tongchuan · 铜川市","type":"Prefecture-level city","parentCode":"CN-SN"},"geometry":{"type":"Polygon","coordinates":[[[109.46376620300003,35.38921857100007],[109.44715513100005,35.33184783300004],[109.40555799700007,35.31078323600008],[109.35551170900004,35.28805271700003],[109.32029630300008,35.272322873000064],[109.28619693300004,35.23959483800007],[109.29127714600008,35.207867597000075],[109.32049428500005,35.17973685900006],[109.36362249300004,35.166880572000025],[109.40721705300007,35.15170910100005],[109.39088399200006,35.099819757000034],[109.35633081200007,35.08499668600007],[109.30783812300007,35.08651300300005],[109.27524221600004,35.09637562900008],[109.24631211100007,35.08186102500008],[109.23643286700008,35.05319392100006],[109.20413493700005,35.003447460000075],[109.15793881700006,34.98835385000007],[109.11462943200007,34.975023726000074],[109.10093954900009,34.947332344000074],[109.08443154200006,34.91786665200004],[109.04407564100006,34.90903400800005],[108.99884790600004,34.90440852200004],[108.97644621500007,34.88053757200004],[108.97209431300007,34.84670117300004],[108.94134183000006,34.82206915300003],[108.89507718500005,34.81833915900006],[108.84417678400007,34.80734187000007],[108.79827724500007,34.816404454000065],[108.77789922300008,34.84426490300007],[108.72994524000006,34.86067181900006],[108.68478702900006,34.87793225100006],[108.66710723900007,34.90480635000006],[108.64044635300007,34.951075839000055],[108.61355453300007,34.989088991000074],[108.56167027900005,35.038499226000056],[108.60892188700006,35.07120278000008],[108.59623942400009,35.099815242000034],[108.63567743700008,35.114304246000074],[108.62120712300003,35.13837355800007],[108.63915805000005,35.163745309000035],[108.66377709000005,35.18762919200003],[108.67341384700006,35.21450880400005],[108.69994806200003,35.246147921000045],[108.74890614500003,35.27876998900007],[108.80546771100006,35.30162568500003],[108.85014130400003,35.302805283000055],[108.84376057900005,35.33073823400008],[108.89305389000003,35.351844036000045],[108.93102038500007,35.367187683000054],[108.95255084900003,35.39473988300006],[108.95766740600004,35.43542871300008],[108.96483055400006,35.46919789100008],[108.97904013800007,35.494132458000024],[109.01699591800008,35.52548703900004],[109.04822856300007,35.537716214000056],[109.08004031300004,35.54992615400005],[109.11466397400005,35.56161433800003],[109.17212713900005,35.568251546000056],[109.20395395300005,35.54606032700008],[109.25758205400007,35.52157977000007],[109.29384055600008,35.51531231200005],[109.35426014400008,35.510344291000024],[109.43690992300009,35.49981300200005],[109.44972566200005,35.46607209200005],[109.45200383200006,35.420189210000046],[109.46376620300003,35.38921857100007]]]}},{"type":"Feature","properties":{"code":"CN061060","name":"Weinan","label":"Weinan · 渭南市","type":"Prefecture-level city","parentCode":"CN-SN"},"geometry":{"type":"Polygon","coordinates":[[[110.55145545000005,35.690498674000025],[110.56083856200007,35.66285692500003],[110.55735647100005,35.61771261300004],[110.56019010300008,35.562501533000045],[110.52808104300004,35.51748488900006],[110.50242659300005,35.48246748200006],[110.47672125000008,35.43238727900007],[110.44776218400006,35.35973598800007],[110.40307615200004,35.309706712000036],[110.37125809300005,35.28471992300007],[110.36168862600005,35.27219874800005],[110.33616847300004,35.22961640700004],[110.31694611500006,35.169441332000076],[110.31349943400005,35.081612171000074],[110.31029060900005,35.07158332300003],[110.30385244900003,35.03646446300007],[110.28163232000009,35.003894057000025],[110.26576025100007,34.98134269900004],[110.24673107000007,34.95126603700004],[110.23715250900005,34.90610910400005],[110.24958409800007,34.83078094000007],[110.23045887300009,34.73794411400007],[110.23990725600004,34.737924778000036],[110.23668866400004,34.70780740200007],[110.23967596900007,34.63751051700007],[110.25849452900007,34.61738860000003],[110.26791140600005,34.60732642800008],[110.34018462500006,34.59458385800008],[110.36331604200006,34.56257057300007],[110.35362986100006,34.53004433500007],[110.33163819200007,34.508746452000025],[110.33849739800007,34.48314679900005],[110.35426272100005,34.447864856000024],[110.39214314400004,34.40820192000007],[110.34383024300007,34.391217777000065],[110.28828589300008,34.38645974600007],[110.25092289600008,34.392148044000066],[110.20985423200005,34.40160730800005],[110.15846450200007,34.440697026000066],[110.07486300800008,34.41462340600003],[110.02638470700003,34.39394424300008],[109.99791456000008,34.37500387400007],[109.99905964200008,34.33644119100006],[110.00142945600004,34.30105510100003],[110.00319052500004,34.264309050000065],[110.00335811600007,34.228983020000044],[109.95921764500008,34.21642286200006],[109.92295175800007,34.23390987600004],[109.87929915800004,34.23277980000006],[109.84717339700006,34.257934317000036],[109.80490893200005,34.278296571000055],[109.79394564600005,34.252432190000036],[109.76168887000006,34.23261487100007],[109.72211660000005,34.23728625200005],[109.68023297700006,34.25783733900005],[109.60526471100007,34.24246771400004],[109.55340982400008,34.25838156800006],[109.50284642100007,34.28021885800007],[109.45319250000006,34.29787604300003],[109.41916366200007,34.320212585000036],[109.43601133400006,34.343213570000046],[109.45601386800007,34.377613524000026],[109.43153463000004,34.420369211000036],[109.39433937400008,34.44917995600008],[109.38414058700005,34.49022463000006],[109.38771934100004,34.529581036000025],[109.40990251300008,34.56163674700008],[109.42318627600008,34.59297541400008],[109.42751116000005,34.62130527100004],[109.41748910200005,34.68343079500005],[109.41342570300009,34.71011471500003],[109.41064150400007,34.77344738600004],[109.37475665700003,34.73207047400007],[109.33035421800008,34.700494227000036],[109.29092552700007,34.68346954700007],[109.25483101200007,34.68332210300008],[109.21680298300004,34.69192057400005],[109.16306985400007,34.67836202400008],[109.11502997900004,34.68621514700004],[109.05546985800004,34.680977108000036],[109.02420565100005,34.69350750800004],[109.02560487600005,34.72144468300007],[109.03348819400009,34.76163224600003],[109.01940244900004,34.792164108000065],[108.98339941400008,34.815317219000065],[108.94134183000006,34.82206915300003],[108.97209431300007,34.84670117300004],[108.97644621500007,34.88053757200004],[108.99884790600004,34.90440852200004],[109.04407564100006,34.90903400800005],[109.08443154200006,34.91786665200004],[109.10093954900009,34.947332344000074],[109.11462943200007,34.975023726000074],[109.15793881700006,34.98835385000007],[109.20413493700005,35.003447460000075],[109.23643286700008,35.05319392100006],[109.24631211100007,35.08186102500008],[109.27524221600004,35.09637562900008],[109.30783812300007,35.08651300300005],[109.35633081200007,35.08499668600007],[109.39088399200006,35.099819757000034],[109.40721705300007,35.15170910100005],[109.36362249300004,35.166880572000025],[109.32049428500005,35.17973685900006],[109.29127714600008,35.207867597000075],[109.28619693300004,35.23959483800007],[109.32029630300008,35.272322873000064],[109.35551170900004,35.28805271700003],[109.40555799700007,35.31078323600008],[109.44715513100005,35.33184783300004],[109.46376620300003,35.38921857100007],[109.51734401200008,35.42923682700007],[109.56019212100006,35.43649007000005],[109.60799735900008,35.42573410700004],[109.64454144000007,35.41385788600007],[109.68927038500004,35.411397442000066],[109.77314696500008,35.43498178800007],[109.81604991300009,35.428393312000026],[109.87170380100008,35.405422190000024],[109.92177812500006,35.396784541000045],[109.97148032700005,35.38628257600004],[110.04228194000007,35.39767389700006],[110.10574196600004,35.42617978000004],[110.14565022900007,35.453941203000056],[110.16950213800004,35.472975715000075],[110.19623335900008,35.493305269000075],[110.22494903100005,35.519984658000055],[110.24181719700005,35.54516984800006],[110.22975002900006,35.575768588000074],[110.20134675900005,35.60591335300006],[110.16093818200005,35.63135269300005],[110.12161134000007,35.657199829000035],[110.11754182900006,35.69214799700006],[110.15576140400009,35.70390977200003],[110.22218182900008,35.71456098800007],[110.28680310500005,35.71528729500005],[110.31567838900008,35.73094086900005],[110.34272621700006,35.767270187000065],[110.38196879600008,35.78718509600003],[110.42507582200005,35.805144003000066],[110.46641657300006,35.82085084000005],[110.52093238500004,35.835358678000034],[110.53309103500004,35.81601345000007],[110.53276869400008,35.763333954000075],[110.55145545000005,35.690498674000025]]]}},{"type":"Feature","properties":{"code":"CN061070","name":"Xi'an","label":"Xi'an · 西安市","type":"Prefecture-level city","parentCode":"CN-SN"},"geometry":{"type":"Polygon","coordinates":[[[109.72211660000005,34.23728625200005],[109.72769043100004,34.19586186300006],[109.76705990700009,34.186604283000065],[109.80839024000005,34.185085979000064],[109.80984378200009,34.152477532000034],[109.77348305700008,34.13965035500007],[109.74163207500004,34.128534357000035],[109.70479219800006,34.10239331500003],[109.67084396500007,34.094065209000064],[109.62541906000007,34.08784026500007],[109.57329981300006,34.06433021200007],[109.55407841300007,34.03542984500007],[109.53911917000005,34.00229267900005],[109.52863122400004,33.97134084400005],[109.56083866400007,33.94947287700006],[109.59424798900005,33.93077244400007],[109.57601173100005,33.89817735100007],[109.54317210500005,33.87189080200005],[109.51610357700008,33.85280368100007],[109.47049413800005,33.83689189100005],[109.42359078700008,33.830635276000066],[109.37193419900007,33.84602522200004],[109.31879875200008,33.850418787000024],[109.27662823200006,33.854549220000024],[109.21781625100004,33.87048869700004],[109.13367980700008,33.86856876100006],[109.10108984800007,33.88070425700005],[109.04457562300007,33.90202180600005],[109.01666590500008,33.88742834000004],[108.98685643400006,33.86460722700008],[108.93979705100008,33.85174390800006],[108.89379770100004,33.837465612000074],[108.86791943200006,33.81546139900007],[108.82082611200008,33.819989193000026],[108.76132037000008,33.811865701000045],[108.73233382800004,33.837600363000035],[108.70315359700004,33.855994278000026],[108.64242958600005,33.82214136700003],[108.61120786500004,33.80292923600007],[108.59065485900004,33.77022599800006],[108.55311784400004,33.76073223800006],[108.51962254200004,33.78282089100003],[108.47823014100004,33.797219476000066],[108.44653548400004,33.77888662100003],[108.42301857800004,33.757674691000034],[108.38259040500009,33.76560267000008],[108.36729460900006,33.794265360000054],[108.32359712600004,33.77836234400007],[108.27936655900004,33.76199523500003],[108.24028984200004,33.72857616300007],[108.19881829400003,33.710762534000025],[108.15873977300004,33.70760599000005],[108.09965113200008,33.71429744900007],[108.04039305500004,33.71179075200007],[108.00379752500004,33.71954888600004],[107.95358876300008,33.73433275700006],[107.90487074100008,33.74081799000004],[107.86626233500004,33.72607814300005],[107.85544329700008,33.69958055300003],[107.81728144000004,33.67702176600005],[107.79020223300006,33.69884721500006],[107.74325479300006,33.71305691600003],[107.67588573600005,33.715644318000045],[107.65244236500007,33.772572093000065],[107.67383621700009,33.81413103500006],[107.70104719300008,33.838204992000044],[107.69612123900004,33.88090556000003],[107.70918466600006,33.91289751800008],[107.76669146800003,33.93805290100005],[107.81172713400008,33.97156218500004],[107.84346299700007,33.96070100000003],[107.87950103300005,33.97914332600004],[107.91796734200005,33.97736329300005],[107.92832791100005,34.00568827800004],[107.95199895000007,34.07285190700003],[107.98442575000007,34.10230212500005],[108.01316767900005,34.13912728200006],[108.01971861700008,34.16702451300006],[107.99441255700003,34.21634101700005],[108.04767579300005,34.25199264200006],[108.10619940500004,34.222412063000036],[108.14650718700005,34.22420899200006],[108.18421461000008,34.20493603600005],[108.21799929500008,34.18341073500005],[108.26485979900008,34.20984571500003],[108.32727020600004,34.239717831000064],[108.35576788000009,34.20401090300004],[108.38524265900008,34.18983733600004],[108.45059072500004,34.201263625000024],[108.51527933900007,34.23100873100003],[108.55016749300006,34.23551170400003],[108.60905967700006,34.27355675700005],[108.63776107000007,34.22906624800004],[108.67600988000004,34.257322765000026],[108.72534511600008,34.28583862500005],[108.75755727900008,34.292619288000026],[108.78032434600004,34.31790767000007],[108.80584308400006,34.341758739000056],[108.83607694300008,34.355893958000024],[108.87031624700006,34.374074334000056],[108.91940070700008,34.389221176000035],[108.96024757500004,34.405424965000066],[108.96204141800007,34.44803183000005],[108.97029333900008,34.48410191900007],[108.96710406600005,34.52634218000003],[108.95464265500004,34.555004559000054],[108.98455367100007,34.57323536900003],[109.02247267700005,34.580301957000074],[109.06972007100006,34.584420640000076],[109.11015856100005,34.58361034200004],[109.13401576600006,34.61935266300003],[109.14497582600006,34.65030385500006],[109.16306985400007,34.67836202400008],[109.21680298300004,34.69192057400005],[109.25483101200007,34.68332210300008],[109.29092552700007,34.68346954700007],[109.33035421800008,34.700494227000036],[109.37475665700003,34.73207047400007],[109.41064150400007,34.77344738600004],[109.41342570300009,34.71011471500003],[109.41748910200005,34.68343079500005],[109.42751116000005,34.62130527100004],[109.42318627600008,34.59297541400008],[109.40990251300008,34.56163674700008],[109.38771934100004,34.529581036000025],[109.38414058700005,34.49022463000006],[109.39433937400008,34.44917995600008],[109.43153463000004,34.420369211000036],[109.45601386800007,34.377613524000026],[109.43601133400006,34.343213570000046],[109.41916366200007,34.320212585000036],[109.45319250000006,34.29787604300003],[109.50284642100007,34.28021885800007],[109.55340982400008,34.25838156800006],[109.60526471100007,34.24246771400004],[109.68023297700006,34.25783733900005],[109.72211660000005,34.23728625200005]]]}},{"type":"Feature","properties":{"code":"CN061080","name":"Xianyang","label":"Xianyang · 咸阳市","type":"Prefecture-level city","parentCode":"CN-SN"},"geometry":{"type":"Polygon","coordinates":[[[108.84376057900005,35.33073823400008],[108.85014130400003,35.302805283000055],[108.80546771100006,35.30162568500003],[108.74890614500003,35.27876998900007],[108.69994806200003,35.246147921000045],[108.67341384700006,35.21450880400005],[108.66377709000005,35.18762919200003],[108.63915805000005,35.163745309000035],[108.62120712300003,35.13837355800007],[108.63567743700008,35.114304246000074],[108.59623942400009,35.099815242000034],[108.60892188700006,35.07120278000008],[108.56167027900005,35.038499226000056],[108.61355453300007,34.989088991000074],[108.64044635300007,34.951075839000055],[108.66710723900007,34.90480635000006],[108.68478702900006,34.87793225100006],[108.72994524000006,34.86067181900006],[108.77789922300008,34.84426490300007],[108.79827724500007,34.816404454000065],[108.84417678400007,34.80734187000007],[108.89507718500005,34.81833915900006],[108.94134183000006,34.82206915300003],[108.98339941400008,34.815317219000065],[109.01940244900004,34.792164108000065],[109.03348819400009,34.76163224600003],[109.02560487600005,34.72144468300007],[109.02420565100005,34.69350750800004],[109.05546985800004,34.680977108000036],[109.11502997900004,34.68621514700004],[109.16306985400007,34.67836202400008],[109.14497582600006,34.65030385500006],[109.13401576600006,34.61935266300003],[109.11015856100005,34.58361034200004],[109.06972007100006,34.584420640000076],[109.02247267700005,34.580301957000074],[108.98455367100007,34.57323536900003],[108.95464265500004,34.555004559000054],[108.96710406600005,34.52634218000003],[108.97029333900008,34.48410191900007],[108.96204141800007,34.44803183000005],[108.96024757500004,34.405424965000066],[108.91940070700008,34.389221176000035],[108.87031624700006,34.374074334000056],[108.83607694300008,34.355893958000024],[108.80584308400006,34.341758739000056],[108.78032434600004,34.31790767000007],[108.75755727900008,34.292619288000026],[108.72534511600008,34.28583862500005],[108.67600988000004,34.257322765000026],[108.63776107000007,34.22906624800004],[108.60905967700006,34.27355675700005],[108.55016749300006,34.23551170400003],[108.51527933900007,34.23100873100003],[108.45059072500004,34.201263625000024],[108.38524265900008,34.18983733600004],[108.35576788000009,34.20401090300004],[108.32727020600004,34.239717831000064],[108.26485979900008,34.20984571500003],[108.21799929500008,34.18341073500005],[108.18421461000008,34.20493603600005],[108.14650718700005,34.22420899200006],[108.10619940500004,34.222412063000036],[108.04767579300005,34.25199264200006],[108.03265670400003,34.27692663000005],[108.02215932700005,34.30868136700008],[108.03438236500006,34.34384782200004],[108.03103370500008,34.37368601400004],[108.01411994900008,34.41835354600005],[108.01848378800008,34.44626646800003],[107.98700597500005,34.48283556500007],[107.97368227200008,34.51370157300005],[107.98106851000006,34.557623686000056],[107.96891347500008,34.608226917000025],[108.02559712900006,34.63230048500003],[108.02222545400008,34.662140057000045],[108.00897506200005,34.697580827000024],[107.99387874600006,34.72387315100008],[107.97516041000006,34.76624954300007],[107.96032030300006,34.80903234700003],[107.94389138600008,34.85778927000007],[107.87035741700004,34.85030612700007],[107.84907374300008,34.87664039500004],[107.82575411100004,34.917198142000075],[107.81333999000009,34.943437053000025],[107.78421476000005,34.97113206000006],[107.80808323900004,34.98980223900003],[107.80781090300007,34.99866515000008],[107.79269532500007,35.00726485400003],[107.77321134800007,35.01943630900007],[107.73230733500009,35.04493451400003],[107.69005649100006,35.114930310000034],[107.66483533700006,35.173735083000054],[107.65083603600004,35.20050979800004],[107.63871323400008,35.22366752900007],[107.65326745000004,35.22306012200005],[107.69358394200009,35.25830945100006],[107.70529498000008,35.31859448000006],[107.75049676700007,35.30494044900007],[107.76586745100008,35.29044022900007],[107.79108859700005,35.27906341700003],[107.82244179400004,35.27074028900006],[107.86373104000006,35.262583997000036],[107.88886645100007,35.254139413000075],[107.90378581800007,35.254389382000056],[107.92906980700008,35.24003305600007],[107.92951498100007,35.22329707800003],[107.93472484500006,35.214520478000054],[107.94459054200007,35.21763413800005],[107.97524962800009,35.233888970000066],[108.01079039100006,35.254145623000056],[108.05766424000007,35.27062624200005],[108.07730900800004,35.28077323400004],[108.11557439100005,35.29414784700003],[108.16013548000006,35.30464903600006],[108.20479830000005,35.31119630100005],[108.21646140000007,35.29166839900006],[108.23696737100005,35.26635439700004],[108.26682120900006,35.266763268000034],[108.29636917700009,35.280947525000045],[108.32601090900005,35.29119094400005],[108.36733244100009,35.279912954000054],[108.42094828700004,35.27468256000003],[108.45561208100008,35.28396883800008],[108.49863827600007,35.31107161400007],[108.52969414600005,35.31438458200006],[108.57304235000004,35.32669489700004],[108.58025684500006,35.34055877900005],[108.57951492600006,35.379937951000045],[108.56398140900006,35.41028426100007],[108.56302661600006,35.460484965000035],[108.56827941800009,35.50277058200004],[108.67388813400004,35.49171651200004],[108.72263846600003,35.469372890000045],[108.75858504300004,35.450893955000026],[108.78148082400008,35.40651678000006],[108.79643286500004,35.38013746100006],[108.82719971900008,35.35898217700003],[108.84376057900005,35.33073823400008]]]}},{"type":"Feature","properties":{"code":"CN061090","name":"Yan'an","label":"Yan'an · 延安市","type":"Prefecture-level city","parentCode":"CN-SN"},"geometry":{"type":"Polygon","coordinates":[[[110.34409080900008,36.96480913600004],[110.36233285600008,36.93064154800004],[110.36956834800009,36.90218975800008],[110.36949639100004,36.88512925400005],[110.35103125500007,36.85675601200006],[110.39115506200005,36.80261740800006],[110.35798645200003,36.76007033600007],[110.39090501300007,36.74575245700004],[110.40914274700003,36.72863366300004],[110.42003715200008,36.70869299800006],[110.41258218700006,36.680291726000064],[110.36124229000006,36.65770874200007],[110.36117030100007,36.640649729000074],[110.37940606500007,36.626381672000036],[110.41584143200004,36.59498411800007],[110.44840111700006,36.52663261300006],[110.45904871800008,36.466885647000026],[110.44067844100005,36.44420359800006],[110.42962853500006,36.42434246000005],[110.43319860700007,36.40726956800006],[110.44762870800008,36.375943766000034],[110.42914267900005,36.32198142000004],[110.43269748600005,36.304910275000054],[110.44254000100005,36.28552612300007],[110.45072023200004,36.26788251500005],[110.44691667600006,36.23661709300006],[110.41754975500004,36.18269471000008],[110.41749660400006,36.171319072000074],[110.43183527600007,36.12861686700006],[110.42803355000007,36.09450647500006],[110.43154079400006,36.06889865200003],[110.44597057600004,36.04894343700005],[110.45308949500009,36.02332564100004],[110.48175509700008,35.95496654100003],[110.46680250500009,35.869706079000025],[110.48117130700007,35.84974306100003],[110.49201783600006,35.84401537700006],[110.52093238500004,35.835358678000034],[110.46641657300006,35.82085084000005],[110.42507582200005,35.805144003000066],[110.38196879600008,35.78718509600003],[110.34272621700006,35.767270187000065],[110.31567838900008,35.73094086900005],[110.28680310500005,35.71528729500005],[110.22218182900008,35.71456098800007],[110.15576140400009,35.70390977200003],[110.11754182900006,35.69214799700006],[110.12161134000007,35.657199829000035],[110.16093818200005,35.63135269300005],[110.20134675900005,35.60591335300006],[110.22975002900006,35.575768588000074],[110.24181719700005,35.54516984800006],[110.22494903100005,35.519984658000055],[110.19623335900008,35.493305269000075],[110.16950213800004,35.472975715000075],[110.14565022900007,35.453941203000056],[110.10574196600004,35.42617978000004],[110.04228194000007,35.39767389700006],[109.97148032700005,35.38628257600004],[109.92177812500006,35.396784541000045],[109.87170380100008,35.405422190000024],[109.81604991300009,35.428393312000026],[109.77314696500008,35.43498178800007],[109.68927038500004,35.411397442000066],[109.64454144000007,35.41385788600007],[109.60799735900008,35.42573410700004],[109.56019212100006,35.43649007000005],[109.51734401200008,35.42923682700007],[109.46376620300003,35.38921857100007],[109.45200383200006,35.420189210000046],[109.44972566200005,35.46607209200005],[109.43690992300009,35.49981300200005],[109.35426014400008,35.510344291000024],[109.29384055600008,35.51531231200005],[109.25758205400007,35.52157977000007],[109.20395395300005,35.54606032700008],[109.17212713900005,35.568251546000056],[109.11466397400005,35.56161433800003],[109.08004031300004,35.54992615400005],[109.04822856300007,35.537716214000056],[109.01699591800008,35.52548703900004],[108.97904013800007,35.494132458000024],[108.96483055400006,35.46919789100008],[108.95766740600004,35.43542871300008],[108.95255084900003,35.39473988300006],[108.93102038500007,35.367187683000054],[108.89305389000003,35.351844036000045],[108.84376057900005,35.33073823400008],[108.82719971900008,35.35898217700003],[108.79643286500004,35.38013746100006],[108.78148082400008,35.40651678000006],[108.75858504300004,35.450893955000026],[108.72263846600003,35.469372890000045],[108.67388813400004,35.49171651200004],[108.56827941800009,35.50277058200004],[108.54465392800006,35.55594780700005],[108.50805692600005,35.601901112000064],[108.49860062000005,35.61376719900005],[108.46993321700006,35.698311595000064],[108.47376186800005,35.72753291300006],[108.48163915400005,35.78776091800006],[108.47141998500007,35.835858409000025],[108.46421980800005,35.86978178000004],[108.50466141700008,35.933047739000074],[108.63175919000008,35.953952548000075],[108.66701396000008,36.00207508400007],[108.66307261900005,36.09663161000003],[108.61049639700008,36.188892374000034],[108.60924715900006,36.256952898000065],[108.67409665600007,36.30450681000008],[108.67953176400005,36.369224494000036],[108.59836021900009,36.41418780400005],[108.55492836200006,36.42536405300007],[108.45344015500007,36.451391185000034],[108.38845134000007,36.463838457000065],[108.32462708500009,36.52400547600007],[108.23756078500008,36.552883086000065],[108.19797528800007,36.56623532000003],[108.14696551600008,36.58341334900007],[108.11843511900008,36.541438895000056],[108.02539795900009,36.57715811500003],[107.96665757200009,36.646068358000036],[107.91297289300007,36.652270448000024],[107.90186571500004,36.68302796200004],[107.88622546900007,36.71282826000004],[107.87415541600006,36.73649534800006],[107.85930739300005,36.77779693800005],[107.81666534300007,36.792985592000036],[107.71426851000007,36.821244266000065],[107.65615896100007,36.82415408500003],[107.68353151200006,36.83169356800005],[107.71576434200006,36.852025163000064],[107.72370898300005,36.88996307900004],[107.70308196300005,36.924935635000054],[107.68227195800006,36.94892082000007],[107.71621388600005,36.96557204000004],[107.67670403400007,37.00253853800007],[107.65702868500006,37.027426813000034],[107.68983621400008,37.04272189900007],[107.69192805600005,37.07063457600003],[107.66778162400004,37.10426143300003],[107.69735031900007,37.13148445400003],[107.73824165700006,37.14761673500004],[107.75361116400006,37.180449545000045],[107.78515996700008,37.22045437300005],[107.81470562400006,37.20278502700006],[107.85521205500004,37.19094978900006],[107.87315788600006,37.16605000000004],[107.87376007100005,37.13170856000005],[107.88067036600006,37.09912819600004],[107.91755463500004,37.07998633700004],[107.95306144000006,37.08099103700005],[108.00196968100005,37.09558243400005],[108.04391008900006,37.10382301200008],[108.08664071700008,37.092811839000035],[108.10883596100007,37.11636525900008],[108.12049760000008,37.15606331600003],[108.15277507100006,37.166212235000046],[108.17565465300004,37.135713803000044],[108.23542801800005,37.17297828200003],[108.26858780500004,37.19636823500008],[108.23619204000005,37.23707510000003],[108.20556491700006,37.25394513900005],[108.19464270500004,37.28109613700008],[108.23544775600004,37.311726315000044],[108.27310806800006,37.32773015500004],[108.31548904500005,37.34869099300005],[108.35884141500009,37.38657733900004],[108.37569461400005,37.34422389000008],[108.40539865000005,37.36212956900005],[108.41946707700004,37.32484060500008],[108.43428419800006,37.295786391000036],[108.45837925800004,37.27071310900004],[108.46978879200009,37.24398876400005],[108.45759551300006,37.213487549000035],[108.48824256600005,37.20067888600005],[108.52239288100009,37.19055963900007],[108.52781198000008,37.154766202000076],[108.52963181800004,37.11214386600005],[108.53445659300007,37.07590128700008],[108.53873253200004,37.04057626600007],[108.50038856000003,36.987779948000025],[108.55184089700003,36.969399432000046],[108.58060718200005,36.99964289800005],[108.62205085000005,37.03242573400007],[108.66379834700007,37.01024593900007],[108.69796021400003,36.98313655100003],[108.72934570900009,36.960177643000065],[108.77163465200005,36.95993732100004],[108.80723816300008,36.98635180000008],[108.78912327100005,37.013219710000044],[108.75180713700007,37.028959600000064],[108.74584120400004,37.06202879800003],[108.79375970000007,37.09694776200007],[108.83429226400006,37.11319415400004],[108.85311794700004,37.14996522400003],[108.85261666800005,37.192102275000025],[108.92061656700008,37.16571443300006],[108.95195144300004,37.21643557500005],[108.96880336000004,37.242236742000046],[109.01144775700004,37.26755127200005],[109.05881949300004,37.27719265400003],[109.10521964400004,37.292333307000035],[109.14308166900008,37.291592293000065],[109.19287449400008,37.30388971600007],[109.22984715500007,37.310930831000064],[109.27500087000004,37.32145862100003],[109.31265009500004,37.33074947000006],[109.34638507900007,37.35889173100003],[109.37453224900008,37.39080931800004],[109.38998670100005,37.420707288000074],[109.42623990800007,37.42129663500003],[109.44882538400009,37.441413503000035],[109.50131052000006,37.460402944000066],[109.52746064400009,37.48226074100006],[109.56178262100008,37.47690180200004],[109.57044898300006,37.41807290300005],[109.60262194400008,37.402218032000064],[109.64471753500004,37.40535773800008],[109.68476915300005,37.40028380800004],[109.72310302300008,37.367306401000064],[109.76221028600008,37.33978468300006],[109.79680277800009,37.32886068700003],[109.80868864900003,37.29695812700004],[109.78968318100004,37.26765365500006],[109.83056728500009,37.27075757800003],[109.88003897300007,37.27317696700004],[109.90277552600008,37.29504871300003],[109.94259350200008,37.286234723000064],[109.98766219800007,37.25439402200004],[110.01326177000004,37.23537169300005],[110.02394307600008,37.20439552000005],[109.98208904500007,37.20458640500004],[109.94336389000006,37.19780044500004],[109.96226389800006,37.17074339000004],[109.96429782000007,37.138623514000074],[109.96763245500006,37.10967304400003],[110.00610048900006,37.12470009500004],[110.01792437800009,37.09414835100006],[110.01044545200006,37.06732116000006],[110.02939977800008,37.01688582400004],[110.07799383600008,36.97755654900004],[110.11027611000009,36.95790140300005],[110.14954872600003,36.96643995800008],[110.16774339700004,36.989305579000074],[110.21367110900007,36.99306272700005],[110.24125366400006,36.971212696000066],[110.27091067300006,36.957538552000074],[110.30678489700006,36.96613172700006],[110.34409080900008,36.96480913600004]]]}},{"type":"Feature","properties":{"code":"CN061100","name":"Yulin","label":"Yulin · 榆林市","type":"Prefecture-level city","parentCode":"CN-SN"},"geometry":{"type":"Polygon","coordinates":[[[111.13582294800005,39.40165625900005],[111.08602416000008,39.34994183800006],[111.09801551300006,39.33143989700005],[111.11432323400004,39.32823578800003],[111.20451437400004,39.34583365800006],[111.17502575100008,39.28782105200003],[111.24032545200004,39.28414980100007],[111.25223533100007,39.262569685000074],[111.17424182800005,39.23569193700007],[111.16158400800003,39.20820563800004],[111.13598695800005,39.13176049000003],[111.12744349700006,39.10423678300003],[111.11043558200004,39.05531380600007],[111.06902513200004,39.00353140300007],[110.97093597800006,38.97057333300006],[110.95842795300007,38.946133933000056],[110.97004566400005,38.896986697000045],[110.98606755700007,38.87846674700006],[110.97760001500006,38.85093048300007],[110.95270883000006,38.80819208200006],[110.93996732900007,38.759228679000046],[110.91117572300004,38.725708190000034],[110.90294068400004,38.71350244400003],[110.89042929000004,38.68293153800005],[110.86976977700004,38.64627814800008],[110.85725300300004,38.612638781000044],[110.86917020500005,38.591094043000055],[110.86469642800006,38.55126879100004],[110.83555727700008,38.471753223000064],[110.81906843200005,38.441202589000056],[110.80282301100004,38.43211169600005],[110.77447030500008,38.42309069600003],[110.73812582700003,38.423306307000075],[110.68087521900009,38.33778231500003],[110.61604020200008,38.29826485600006],[110.55541518300004,38.27402055400006],[110.53921757400008,38.26182940600006],[110.51690080100008,38.19808532800005],[110.50188554700009,38.183928810000054],[110.46808758200007,38.149939827000026],[110.47878772800004,38.06176075500008],[110.45599425900008,37.982238890000076],[110.45959374600005,37.95663477700003],[110.47067495500005,37.942379034000055],[110.52257805300007,37.91089942200006],[110.56340550200008,37.89650382100007],[110.58924816900009,37.867956578000076],[110.61485210800004,37.81097473500006],[110.63697234000006,37.78811666300004],[110.65540834100005,37.770961045000035],[110.71457083000007,37.74221122200004],[110.72555498000008,37.72509199900003],[110.68807494700008,37.68265763900007],[110.74348659300006,37.65675065100004],[110.75815855800005,37.63960913600005],[110.74302026800007,37.60558202500005],[110.74295013900007,37.597053162000066],[110.74278704800008,37.57999779800008],[110.76115444500005,37.562825290000035],[110.76088518900008,37.534396800000025],[110.70834105200004,37.44941358800003],[110.67850255200005,37.418306235000045],[110.61931097700005,37.41292596200003],[110.61553213000008,37.40157319700006],[110.60783617200008,37.35896752200006],[110.65181543400007,37.316100445000075],[110.65903754900006,37.29616205200006],[110.64777116400006,37.270635706000064],[110.64075811400005,37.26430428100008],[110.59946726500004,37.222546719000036],[110.55108022400009,37.151692945000036],[110.51782547300007,37.13478018600006],[110.50670904900005,37.12345033300005],[110.45480157400004,37.05258155900003],[110.43631897300008,37.03843032200007],[110.41056143300005,37.03283678100007],[110.41397459700005,36.97880803000004],[110.34409080900008,36.96480913600004],[110.30678489700006,36.96613172700006],[110.27091067300006,36.957538552000074],[110.24125366400006,36.971212696000066],[110.21367110900007,36.99306272700005],[110.16774339700004,36.989305579000074],[110.14954872600003,36.96643995800008],[110.11027611000009,36.95790140300005],[110.07799383600008,36.97755654900004],[110.02939977800008,37.01688582400004],[110.01044545200006,37.06732116000006],[110.01792437800009,37.09414835100006],[110.00610048900006,37.12470009500004],[109.96763245500006,37.10967304400003],[109.96429782000007,37.138623514000074],[109.96226389800006,37.17074339000004],[109.94336389000006,37.19780044500004],[109.98208904500007,37.20458640500004],[110.02394307600008,37.20439552000005],[110.01326177000004,37.23537169300005],[109.98766219800007,37.25439402200004],[109.94259350200008,37.286234723000064],[109.90277552600008,37.29504871300003],[109.88003897300007,37.27317696700004],[109.83056728500009,37.27075757800003],[109.78968318100004,37.26765365500006],[109.80868864900003,37.29695812700004],[109.79680277800009,37.32886068700003],[109.76221028600008,37.33978468300006],[109.72310302300008,37.367306401000064],[109.68476915300005,37.40028380800004],[109.64471753500004,37.40535773800008],[109.60262194400008,37.402218032000064],[109.57044898300006,37.41807290300005],[109.56178262100008,37.47690180200004],[109.52746064400009,37.48226074100006],[109.50131052000006,37.460402944000066],[109.44882538400009,37.441413503000035],[109.42623990800007,37.42129663500003],[109.38998670100005,37.420707288000074],[109.37453224900008,37.39080931800004],[109.34638507900007,37.35889173100003],[109.31265009500004,37.33074947000006],[109.27500087000004,37.32145862100003],[109.22984715500007,37.310930831000064],[109.19287449400008,37.30388971600007],[109.14308166900008,37.291592293000065],[109.10521964400004,37.292333307000035],[109.05881949300004,37.27719265400003],[109.01144775700004,37.26755127200005],[108.96880336000004,37.242236742000046],[108.95195144300004,37.21643557500005],[108.92061656700008,37.16571443300006],[108.85261666800005,37.192102275000025],[108.85311794700004,37.14996522400003],[108.83429226400006,37.11319415400004],[108.79375970000007,37.09694776200007],[108.74584120400004,37.06202879800003],[108.75180713700007,37.028959600000064],[108.78912327100005,37.013219710000044],[108.80723816300008,36.98635180000008],[108.77163465200005,36.95993732100004],[108.72934570900009,36.960177643000065],[108.69796021400003,36.98313655100003],[108.66379834700007,37.01024593900007],[108.62205085000005,37.03242573400007],[108.58060718200005,36.99964289800005],[108.55184089700003,36.969399432000046],[108.50038856000003,36.987779948000025],[108.53873253200004,37.04057626600007],[108.53445659300007,37.07590128700008],[108.52963181800004,37.11214386600005],[108.52781198000008,37.154766202000076],[108.52239288100009,37.19055963900007],[108.48824256600005,37.20067888600005],[108.45759551300006,37.213487549000035],[108.46978879200009,37.24398876400005],[108.45837925800004,37.27071310900004],[108.43428419800006,37.295786391000036],[108.41946707700004,37.32484060500008],[108.40539865000005,37.36212956900005],[108.37569461400005,37.34422389000008],[108.35884141500009,37.38657733900004],[108.31548904500005,37.34869099300005],[108.27310806800006,37.32773015500004],[108.23544775600004,37.311726315000044],[108.19464270500004,37.28109613700008],[108.20556491700006,37.25394513900005],[108.23619204000005,37.23707510000003],[108.26858780500004,37.19636823500008],[108.23542801800005,37.17297828200003],[108.17565465300004,37.135713803000044],[108.15277507100006,37.166212235000046],[108.12049760000008,37.15606331600003],[108.10883596100007,37.11636525900008],[108.08664071700008,37.092811839000035],[108.04391008900006,37.10382301200008],[108.00196968100005,37.09558243400005],[107.95306144000006,37.08099103700005],[107.91755463500004,37.07998633700004],[107.88067036600006,37.09912819600004],[107.87376007100005,37.13170856000005],[107.87315788600006,37.16605000000004],[107.85521205500004,37.19094978900006],[107.81470562400006,37.20278502700006],[107.78515996700008,37.22045437300005],[107.75361116400006,37.180449545000045],[107.73824165700006,37.14761673500004],[107.69735031900007,37.13148445400003],[107.66778162400004,37.10426143300003],[107.69192805600005,37.07063457600003],[107.68983621400008,37.04272189900007],[107.65702868500006,37.027426813000034],[107.67670403400007,37.00253853800007],[107.71621388600005,36.96557204000004],[107.68227195800006,36.94892082000007],[107.70308196300005,36.924935635000054],[107.72370898300005,36.88996307900004],[107.71576434200006,36.852025163000064],[107.68353151200006,36.83169356800005],[107.65615896100007,36.82415408500003],[107.56949068400007,36.815908913000044],[107.51426965000007,36.81777181500007],[107.50108332000008,36.824121330000025],[107.49384487600008,36.846618662000026],[107.49305954700009,36.870182802000045],[107.48619434300008,36.88136928600005],[107.46659439100006,36.88475614300006],[107.41493859200006,36.876187085000026],[107.34299948100005,36.89013801800007],[107.28388917100006,36.90808704600005],[107.26373047300007,36.92652614800005],[107.26837485800007,36.97755958600004],[107.27332195700006,37.020431399000074],[107.27153642900004,37.06975416800003],[107.28361901800008,37.09579045700008],[107.29608979500006,37.11114347300003],[107.30206112000008,37.12636220400003],[107.30761302900004,37.15320371000007],[107.30056259100007,37.16814684800005],[107.25398113600005,37.19421101100005],[107.22041461500004,37.21990619300004],[107.21258841800005,37.254952881000065],[107.23825879800006,37.266822010000055],[107.25741433500008,37.27854395800006],[107.25672364300004,37.297395599000026],[107.22991277000006,37.31600670300003],[107.18886269800004,37.36543177400006],[107.20714877700004,37.40104295800006],[107.24209053800007,37.43787875700008],[107.30342257900008,37.49222952900004],[107.32665301500003,37.551068609000026],[107.27882151600005,37.56686194900004],[107.33349610400006,37.617521762000024],[107.36115636700004,37.68351499800008],[107.44935476700005,37.703861509000035],[107.45267383400005,37.74194063400006],[107.49253591700005,37.75863437700008],[107.58360067800004,37.76568165700007],[107.62404354300008,37.80179812200004],[107.63373007600006,37.87662722400006],[107.67616643300005,37.872591562000025],[107.79357395800008,37.85431954200004],[107.92537350200007,37.815841410000075],[107.98495914800009,37.79291796500007],[108.00911601200005,37.71108246600005],[108.05154924700008,37.633938715000056],[108.08521824400009,37.62560455100004],[108.17047921800008,37.62861480400005],[108.22298529900007,37.651454210000054],[108.28925119100006,37.63166812400004],[108.32635870400009,37.620135627000025],[108.42494444300007,37.64790253600006],[108.50074793000005,37.66383687600006],[108.52975646900006,37.662427508000064],[108.69128879300007,37.654436186000055],[108.78209254900008,37.67389456400008],[108.74315086200005,37.79195784900003],[108.74111117000007,37.84320622000007],[108.73545366100007,37.90325766400008],[108.76941264000004,37.94866670600004],[108.76403285600009,37.992812128000025],[108.80182130800006,38.02057384900007],[108.88288983300004,37.94882053500004],[108.93382567600008,37.89522306900005],[108.97618255700007,37.94955880100008],[109.01960727700003,38.00199883000005],[109.01039594100007,38.08776105800007],[108.95071866300009,38.14385797400007],[108.86385970700007,38.20411597300006],[108.89297640800004,38.27597054700004],[108.89767139600008,38.34938380400007],[108.93920192400009,38.37536659400007],[109.00943440500004,38.43426995900006],[109.06519913700004,38.447946727000044],[109.12138444000004,38.52348392500005],[109.16050714700003,38.57059964600006],[109.22905197900008,38.60197177500004],[109.25810981300003,38.61628826100008],[109.33055700800008,38.61403182400005],[109.30533168500006,38.68462540200005],[109.35540502200007,38.707872449000035],[109.39325790600009,38.79293133600004],[109.46567048400004,38.81712583900003],[109.54299258800006,38.81654111700004],[109.58302153600005,38.87372605500008],[109.58827349100005,38.88123924300004],[109.61236847100008,38.94074758100004],[109.63453919100004,38.995436797000025],[109.67175957300009,39.06892837500004],[109.76335089100007,39.091240406000054],[109.84319995000004,39.124971490000064],[109.89836688300005,39.18339536900004],[109.95836801100006,39.21615133100005],[110.06199557300005,39.24091747400007],[110.11977040600004,39.275376298000026],[110.16193558300006,39.29616157000004],[110.12932296200006,39.36061103700007],[110.11297881300004,39.38209417000007],[110.07617459200009,39.406666174000065],[110.08028150600006,39.437334529000054],[110.09666771100007,39.46185782900005],[110.16623809200007,39.44337253100008],[110.21536212000007,39.440229042000055],[110.27249694400007,39.38184254300006],[110.33365783300007,39.329557571000066],[110.37098298400008,39.30120697700005],[110.38384316300005,39.29258773000004],[110.43594174100008,39.33664917600004],[110.48497624800007,39.34108017900007],[110.49259504100007,39.34176303400005],[110.52070353700009,39.309822490000045],[110.66293475700007,39.25614169900007],[110.71413053600008,39.31513204700008],[110.72785248800005,39.397310266000034],[110.81477261300006,39.469336930000054],[110.89074427000008,39.49981619700003],[110.93832407900004,39.52337404800005],[110.97654896900008,39.55494469000007],[111.09167941400005,39.58060147000003],[111.12706236800005,39.57146122300003],[111.10173770600005,39.53894421600006],[111.07492300200005,39.48166666100008],[111.13582294800005,39.40165625900005]]]}}]}
