{"type":"FeatureCollection","name":"admin2_chn_cn-sh","adm0A3":"CHN","parentCode":"CN-SH","parentName":"Shanghai","bbox":[120.8291450590001,30.691142004000028,121.88009382700011,31.834698213000024],"features":[{"type":"Feature","properties":{"code":"CN031010","name":"Shanghai Municipality","label":"Shanghai Municipality · 上海市","type":"Municipality","parentCode":"CN-SH"},"geometry":{"type":"MultiPolygon","coordinates":[[[[121.4881965400001,31.410621639000055],[121.50715352100008,31.377703671000063],[121.50992985800008,31.379672498000048],[121.51214890400001,31.381478273000027],[121.55678837500011,31.36151572500006],[121.62532446300008,31.328720606000047],[121.66040383400002,31.30632294000003],[121.70771497500004,31.270024120000073],[121.7512539060001,31.22224959400006],[121.7810056190001,31.16941376300008],[121.79433796600006,31.128035775000058],[121.79550679300007,31.12438927200003],[121.80793903300003,31.104104111000026],[121.837737145,31.052137538000068],[121.85201359700011,31.02166638800003],[121.86705110500009,30.98111072200004],[121.88009382700011,30.91801171800006],[121.87532374400007,30.876887140000065],[121.87261845300009,30.87339451200006],[121.86493722500006,30.866885440000033],[121.86032063000005,30.866148750000036],[121.85218101600003,30.860693964000063],[121.84587166900008,30.859783742000047],[121.81883348200006,30.861617283000044],[121.80944967900007,30.863486840000064],[121.80724288100009,30.86228194200004],[121.80859511800008,30.858916084000043],[121.80612311100003,30.856879543000048],[121.79503673400006,30.858785117000025],[121.78105925600005,30.86033380400005],[121.77394118600012,30.865281092000032],[121.76361769300001,30.86663005400004],[121.7513886270001,30.872016082000073],[121.74196553400009,30.87263162800008],[121.71936713700006,30.868509434000032],[121.6998366470001,30.87079153800005],[121.6668623700001,30.86791680700003],[121.6447387290001,30.863771694000036],[121.62169504300005,30.861312784000063],[121.62056872500011,30.861054124000077],[121.55284229000006,30.845557425000038],[121.52942534800002,30.83787619700007],[121.48349841100003,30.818745157000023],[121.45662065900001,30.80754418400005],[121.43981101300005,30.802223639000033],[121.42563708400007,30.786000073000025],[121.40685310700007,30.768820445000074],[121.39864473500006,30.75895533700003],[121.38828195200006,30.740361263000068],[121.38115078600003,30.735066913000026],[121.36921639600007,30.721298981000075],[121.3638238200001,30.71743544800006],[121.34702399700006,30.711476438000034],[121.32792570000004,30.711404406000042],[121.31601095500002,30.70785846800004],[121.3017257030001,30.70686311700007],[121.29931590600006,30.706696134000026],[121.27953985200008,30.697233751000056],[121.2708141600001,30.695301984000025],[121.26111319900008,30.691142004000028],[121.2587676600001,30.692400117000034],[121.23333938600001,30.718755686000065],[121.21667306000006,30.755944201000034],[121.1980618880001,30.786152886000025],[121.12479154000005,30.778279731000055],[121.10239279900009,30.786482182000043],[121.10716799400006,30.834273127000074],[121.07877091700004,30.845666711000035],[121.04399988000011,30.839751130000025],[121.0363522990001,30.836742333000075],[121.01048370800004,30.826577945000054],[120.9844743640001,30.82256718900004],[120.9647460010001,30.87959872500005],[120.97714904300005,30.93832707400003],[120.97197676200005,30.958622252000055],[120.96413132500004,30.989415333000068],[120.95034472700002,31.02538964200005],[120.90092776400002,31.02425888700003],[120.89219323100008,31.038376549000077],[120.86264557700008,31.049804608000045],[120.8534554360001,31.062180098000056],[120.8291450590001,31.090991316000043],[120.84760525800004,31.104712823000057],[120.85608233300002,31.111018112000068],[120.9179957240001,31.111121121000053],[120.95318190100011,31.110801354000046],[120.988377248,31.119387864000032],[121.00762763500006,31.137364629000047],[121.03515433200005,31.161764988000073],[121.03289716000006,31.186936384000035],[121.03033281400008,31.227300752000076],[121.03620087400009,31.258015072000035],[121.06206775900012,31.259520327000075],[121.11900576800008,31.305287375000034],[121.09704034300012,31.326809524000055],[121.0792138270001,31.35599484100004],[121.09632239000007,31.373249973000043],[121.10658103200001,31.378546973000027],[121.11814640300008,31.391656153000042],[121.1049096270001,31.41579706300007],[121.11154818900002,31.424332321000065],[121.11758741000006,31.428347907000045],[121.18152705900002,31.454384407000077],[121.21111602400003,31.46990730300007],[121.28860693000001,31.488502991000075],[121.30367557600005,31.482153260000075],[121.30844546600008,31.480318915000055],[121.35659824800007,31.461857456000075],[121.4145189410001,31.430177568000033],[121.4881965400001,31.410621639000055]]],[[[121.37500594700009,31.796692521000068],[121.37503134200006,31.788315285000067],[121.37943184100004,31.768431183000075],[121.3827911510001,31.756071150000025],[121.38542031800012,31.753939658000036],[121.38671034600009,31.756834034000065],[121.38546615700011,31.76602793400008],[121.37839774200006,31.793869564000033],[121.39536443100008,31.779825061000054],[121.40486800800011,31.765224378000028],[121.41171696800006,31.75471871600007],[121.42351018800002,31.736382383000034],[121.43816370800005,31.723231175000024],[121.45269017200008,31.717347079000035],[121.47284645200011,31.712755101000027],[121.49379949000001,31.71246795600007],[121.49578060200008,31.712439575000076],[121.51100466100002,31.711929852000026],[121.53307997800005,31.69716276500003],[121.54854941000008,31.682102714000052],[121.56028821600012,31.663749921000033],[121.58246263100011,31.649870761000045],[121.59469681900009,31.643861363000042],[121.6121726990001,31.635274405000075],[121.63099759800002,31.628962554000054],[121.65482910600008,31.619448265000074],[121.67568135700003,31.612028348000024],[121.70634610200011,31.604582851000032],[121.72523712400005,31.590982361000044],[121.74030681200009,31.581376799000054],[121.75993209,31.57314897300006],[121.76744680200011,31.570053331000054],[121.78576811800008,31.562504586000045],[121.81713941300006,31.56040544600006],[121.84383175300002,31.556027501000074],[121.8614891090001,31.54160940500003],[121.87149486400006,31.527019177000057],[121.85130815600007,31.499999767000077],[121.83485116000008,31.477955377000058],[121.82680757500009,31.467172178000055],[121.81582778400002,31.466699032000065],[121.80043913300005,31.472861040000055],[121.78510941700006,31.472975637000047],[121.76989102400012,31.476629623000065],[121.76174158800006,31.481180734000077],[121.74069842600011,31.48558123400005],[121.7331481650001,31.485525573000075],[121.72264131800011,31.49262727100006],[121.7134998040001,31.496359838000046],[121.70778635900001,31.501271109000072],[121.68894999500003,31.50624459000005],[121.67385929500006,31.515101250000043],[121.66372570500005,31.51864063900007],[121.64063945400005,31.519937215000027],[121.60839204500007,31.524540714000068],[121.5963201400001,31.528325667000047],[121.57132831600006,31.54090834400006],[121.54457170900002,31.550809468000068],[121.53337073600005,31.560409367000034],[121.52543739500004,31.564105917000063],[121.5186401950001,31.564862253000058],[121.50524224700007,31.574291894000055],[121.49658203800004,31.57841736200004],[121.47000223600003,31.586845104000076],[121.45426324800007,31.590266623000048],[121.44080963800002,31.59781361100005],[121.43520424100006,31.59749928900004],[121.42465810400006,31.604784342000073],[121.39882808900006,31.614014258000054],[121.3827976990001,31.616181766000068],[121.36911817100008,31.624769943000047],[121.36804096500009,31.63041790500006],[121.35108070800004,31.634477890000028],[121.34249253100006,31.639189436000038],[121.33496846300011,31.643311630000028],[121.31363062500009,31.65807818600007],[121.29627091700002,31.676518374000068],[121.28491278400008,31.680470310000032],[121.27895377400012,31.68599385400006],[121.27153120600008,31.69216895900007],[121.26217687100007,31.70921762000006],[121.26172503400005,31.711100274000046],[121.26516619800009,31.71187625500005],[121.26644967700008,31.71456435700003],[121.2605659730001,31.72384011200006],[121.26737954400005,31.723303146000035],[121.26580793700009,31.729167205000067],[121.25248856900009,31.743783149000024],[121.24405755300006,31.74809524500006],[121.22924843200008,31.772530458000062],[121.22158684800002,31.779121384000064],[121.21740571900011,31.78141985900004],[121.20398812600001,31.788799863000065],[121.18920192400003,31.792797638000025],[121.18135698600008,31.79105577400003],[121.17067006000002,31.793318233000036],[121.15878150800006,31.78496579700004],[121.15387678500008,31.78421601000008],[121.15457706000007,31.787286120000033],[121.15924103000009,31.792958689000045],[121.16070227800003,31.79474278200007],[121.1710957030001,31.80164775000003],[121.18508309600008,31.815349516000026],[121.19911007500002,31.818593315000044],[121.21901145700008,31.828589838000028],[121.24170621200005,31.834698213000024],[121.26790143500011,31.834135265000043],[121.30360762300006,31.830885718000047],[121.33330494100005,31.823632372000077],[121.3589225500001,31.810398701000054],[121.37500594700009,31.796692521000068]]],[[[121.22405885500007,31.759067026000025],[121.2270416340001,31.75047230000007],[121.22657409100009,31.744924808000064],[121.22326575200009,31.74775806400004],[121.20671440900003,31.752830781000057],[121.20525951100001,31.739997407000033],[121.20964478500002,31.723266291000073],[121.20889463800006,31.72111559500007],[121.19756418200006,31.73054236100006],[121.19161827000005,31.737519640000073],[121.18866823300004,31.74736510300005],[121.20001327000011,31.774275596000052],[121.20471172000009,31.777323859000035],[121.2102974720001,31.775978171000077],[121.22405885500007,31.759067026000025]]],[[[121.18789552600003,31.767183720000048],[121.18443144200012,31.764531634000036],[121.17639987600012,31.765707065000072],[121.17233989200008,31.76973430700008],[121.1590205230001,31.77391871100008],[121.15953784400006,31.77557544600006],[121.17434696500004,31.783043853000038],[121.18340334900006,31.783934430000045],[121.1948007740001,31.781239779000032],[121.19862501700004,31.77763490600006],[121.19071132200008,31.77297247200005],[121.18789552600003,31.767183720000048]]],[[[121.24730554000007,31.730738811000037],[121.2456577580001,31.725325402000067],[121.23552583900005,31.737258544000042],[121.23493544200005,31.73776415900005],[121.23650401700002,31.73780122000005],[121.24640514100008,31.734088299000064],[121.24730554000007,31.730738811000037]]]]}}]}
