{"type":"FeatureCollection","name":"admin2_chn_cn-sx","adm0A3":"CHN","parentCode":"CN-SX","parentName":"Shanxi","bbox":[110.23045887300009,34.57348444400003,114.50190356400003,40.759349057000065],"features":[{"type":"Feature","properties":{"code":"CN014010","name":"Changzhi","label":"Changzhi · 长治市","type":"Prefecture-level city","parentCode":"CN-SX"},"geometry":{"type":"Polygon","coordinates":[[[112.51625159700006,37.10308192600007],[112.54803290100006,37.091069427000036],[112.59272793200012,37.091298675000075],[112.65703072000008,37.10803495300007],[112.68431358300006,37.08977623800007],[112.72845196600008,37.05874389600007],[112.73773002700011,37.03030373100006],[112.75539094800001,36.999627704000034],[112.80021482900008,37.000663118000034],[112.83037680200005,36.98359965900005],[112.85217828600003,36.94857837500007],[112.85244246000002,36.909572679000064],[112.86646678300008,36.87127258500004],[112.91135503200007,36.86769560600004],[112.93649194300008,36.88800520600006],[112.971854527,36.90735113100004],[113.02493175000006,36.906086403000074],[113.087209443,36.89931199700004],[113.128751222,36.918837318000044],[113.1678763330001,36.92976119700006],[113.17728738400001,36.95956581200005],[113.21412269100006,36.95491219100006],[113.24294959400004,36.92951657500004],[113.28376070800005,36.958518483000034],[113.3103099970001,36.880099932000064],[113.36252526500004,36.86954839900005],[113.40428273900011,36.85386998600006],[113.43075496600011,36.82898749300006],[113.4588557510001,36.78626907100005],[113.47741679900003,36.753789948000076],[113.49242790900007,36.742203388000064],[113.47201843100004,36.73857983200003],[113.44164869800011,36.716240689000074],[113.44766357900005,36.690513585000076],[113.4859006800001,36.67560595700007],[113.43986781500007,36.660644363000074],[113.44990948200007,36.61894341000004],[113.50696911000011,36.58951973000006],[113.5502100650001,36.55594440200008],[113.53647618100001,36.51914566600004],[113.55368039200005,36.45609037100007],[113.56709544900002,36.44889885500004],[113.59881091200009,36.433072104000075],[113.69568302200003,36.370049548000054],[113.71116723400007,36.35704348500008],[113.70676590100004,36.33207692900004],[113.6962644460001,36.31346891700008],[113.66359650900006,36.28681289700006],[113.65082552100012,36.24559140900004],[113.6503113340001,36.197909597000034],[113.6482054810001,36.16969761000007],[113.64062544100011,36.146899338000026],[113.65226134800002,36.12368532700003],[113.63291161900008,36.08701776500004],[113.65368854000008,36.067127440000036],[113.62074673200004,36.028990382000075],[113.64695308900002,36.00280083800004],[113.65849894400003,35.97781707900003],[113.63100887300004,35.966057887000034],[113.62418302600008,35.964442647000055],[113.60428841700002,35.94367637400006],[113.60452620000001,35.93094458500008],[113.60508106500004,35.90038358600003],[113.6222054430001,35.87351195900004],[113.63085393300003,35.83004389400003],[113.62246071200002,35.82533910800004],[113.58836974600001,35.80623734400007],[113.51753759100006,35.80950758700004],[113.51919356600001,35.80600778000007],[113.45413604900011,35.842737886000066],[113.41534180800011,35.83745986500003],[113.37210285300011,35.846668591000025],[113.3112719080001,35.875685015000045],[113.26847628300004,35.87205101700005],[113.22267556000008,35.873171454000044],[113.178378038,35.89208366300005],[113.14381543200011,35.904437065000025],[113.08684840700005,35.87798259900006],[113.04970893600012,35.89222477800007],[113.00503703900006,35.89125906100003],[112.98535854300007,35.92025628400006],[112.95331650900005,35.92780896800008],[112.93125403200008,35.92283058100003],[112.90448954600004,35.92267518400007],[112.87319124400005,35.92646175700003],[112.86784161800006,35.93005275200005],[112.8679076950001,35.93839671200004],[112.8734408150001,35.95454465200004],[112.87369218800006,35.964709511000024],[112.87141439200002,35.97299571600007],[112.87007017500002,35.97511547700003],[112.86373735000006,35.97673112600006],[112.86038025200003,35.97693985800004],[112.85231339000006,35.97683024300005],[112.84526666400006,35.979100078000045],[112.84288860200002,35.981283629000075],[112.835188947,35.98481496100004],[112.81751069800009,35.98733418900008],[112.81581837500005,35.98601359600008],[112.81253573000004,35.984384042000045],[112.807302875,35.98144964200003],[112.80286552200005,35.978669559000025],[112.78607862400008,35.979704268000035],[112.783025511,35.982946120000065],[112.76811111800009,35.98712057900008],[112.74072999900011,35.991984985000045],[112.7282430570001,35.99648486900003],[112.71548999900006,36.01188298500006],[112.7081799990001,36.01474398500005],[112.70234999900003,36.01247798500003],[112.69830902700005,36.01174636800005],[112.692049999,36.00914798500003],[112.67479999900002,36.008555985000044],[112.67054092300009,36.01221148600007],[112.66443999900002,36.02287698500004],[112.65218186900006,36.03164446200003],[112.65201999900012,36.04377698500008],[112.64365769900007,36.05068416600005],[112.63006999900006,36.05701098500003],[112.62382999900001,36.062522985000044],[112.61587999900007,36.06293498500003],[112.59757999900012,36.055415985000025],[112.57485999900007,36.05117798500004],[112.53600999900004,36.04131698500004],[112.52596999900004,36.03843698500003],[112.51592999900004,36.03114698500008],[112.48133543400002,36.007265397000026],[112.47474459300008,36.01549642900005],[112.4747433010001,36.016472290000024],[112.47469599600004,36.05219349400005],[112.50756188100002,36.09106697000004],[112.53792176800005,36.15027836500008],[112.53276754300009,36.18770933600007],[112.56371197100009,36.22796884700006],[112.56246624000005,36.25507143600004],[112.5195265970001,36.25020466500007],[112.47644623000008,36.25035682600003],[112.45180885100001,36.27764911700007],[112.41275548400006,36.326262694000036],[112.35805985400009,36.352556063000065],[112.30384019900009,36.36321953400005],[112.25256700700004,36.37696664200007],[112.20868586100005,36.40002890400007],[112.19041332800009,36.42331927500004],[112.15369853800007,36.472582517000035],[112.11284912500003,36.528900340000064],[112.07189956000002,36.554527474000054],[112.03004441600001,36.56779035900007],[112.00277905100006,36.593715608000025],[111.98229929400009,36.63492197700003],[111.99570039700006,36.68021525100005],[111.98967691000007,36.707515338000064],[111.97214318100004,36.74170632700003],[111.95769056900008,36.77211969100006],[111.99658907600008,36.823705274000076],[112.04180401300005,36.83233251900003],[112.06172074100004,36.85440057400007],[112.05465989000004,36.88312369400006],[112.0450789460001,36.909200844000054],[112.05019335500003,36.94933726600004],[112.10441086800006,36.973659790000056],[112.13501521100011,37.00949364100006],[112.17308270600006,36.99730711500007],[112.20438371000012,36.985852127000044],[112.2341623320001,36.96160473800006],[112.27630380400001,36.942322527000044],[112.3316692730001,36.948588965000056],[112.37281697600008,36.93346231500004],[112.40510821900011,36.92238541100005],[112.45785972600004,36.940200814000036],[112.49640436700008,36.942561427000044],[112.5006774530001,36.97630877600005],[112.48114092300011,37.01938301700005],[112.45611092000001,37.051713181000025],[112.45484885000008,37.11140391200007],[112.51625159700006,37.10308192600007]]]}},{"type":"Feature","properties":{"code":"CN014020","name":"Datong","label":"Datong · 大同市","type":"Prefecture-level city","parentCode":"CN-SX"},"geometry":{"type":"Polygon","coordinates":[[[114.49763989500002,39.53883545600007],[114.48513100700006,39.49830463200004],[114.48143947200003,39.445373345000064],[114.4539385060001,39.36304500700004],[114.42688325900008,39.31428880000004],[114.3954341330001,39.27183051700007],[114.41397135000011,39.21389503800003],[114.4369490900001,39.17615943200008],[114.3634416210001,39.16487464000005],[114.31263052100007,39.13440461500005],[114.31077343200002,39.09292102500007],[114.27530967400003,39.088543067000046],[114.25790342000005,39.09429670500003],[114.25428654600012,39.09119144500005],[114.21271371600005,39.055691129000024],[114.1579226980001,39.038516661000074],[114.08356727500006,39.05891100800005],[114.04481663100012,39.08812414600004],[114.00338942700012,39.11031644800005],[113.94587484800002,39.097646765000036],[113.92560754300007,39.12747039900006],[113.90624488700007,39.15051432200005],[113.89510706300007,39.197943062000036],[113.89654912900005,39.22499739800003],[113.91662423500009,39.27541417400005],[113.89971281200008,39.31090296000008],[113.85515981100002,39.36483740700004],[113.8115710730001,39.36488457100006],[113.76170482700002,39.37304666500006],[113.72037813400004,39.40374905700003],[113.6724186990001,39.42882462100005],[113.61413329600009,39.427829107000036],[113.57495541000003,39.42854386500005],[113.53434020300006,39.43519456400003],[113.49177959500003,39.474669153000036],[113.46180866100008,39.520297939000045],[113.4457055800001,39.56429752200006],[113.39552373700008,39.58709311800004],[113.38043436700002,39.61129490900004],[113.36990710000009,39.64720227500004],[113.37569101200006,39.67548268100006],[113.4087744850001,39.722390189000066],[113.35244148400011,39.74820950900005],[113.32855456900006,39.778809919000025],[113.33920343700004,39.81134621100006],[113.36707614300008,39.83796046600003],[113.36091297200005,39.875957475000064],[113.3321693800001,39.91073497700006],[113.28051668900002,39.92406640200005],[113.22290302500005,39.93106300200003],[113.18454089300008,39.92147991400003],[113.14021802500008,39.90528491300006],[113.08560311800011,39.88728848300008],[113.0399616630001,39.890876400000025],[112.98408030500002,39.89448056100008],[112.93438759500009,39.88582558200005],[112.92417828200007,39.855993770000055],[112.89612241600003,39.83940886000005],[112.86096498200004,39.823614200000065],[112.84257095100008,39.796013618000075],[112.78797338100003,39.78477385300005],[112.7662789100001,39.739281618000064],[112.69737803900011,39.73063320600005],[112.64628150100009,39.72423163000008],[112.60755823600005,39.73745659000008],[112.58757806100004,39.760851159000026],[112.57958595800005,39.79976608700008],[112.58016816200006,39.83509303500006],[112.57468433000008,39.86196991000003],[112.58141468400004,39.90758096900004],[112.5926880180001,39.950696598000036],[112.59699161700007,39.98172758100003],[112.604062537,40.01033215000007],[112.60621493400004,40.044678419000036],[112.59081642500007,40.08394306900004],[112.59633372700011,40.23836746100005],[112.61661646000005,40.218323514000076],[112.64491347100011,40.19934376700007],[112.67742909800006,40.18334146400008],[112.72256503200003,40.17321422800006],[112.76768556900004,40.16307192900007],[112.79247867800007,40.16255289900005],[112.81347750600003,40.17131945500006],[112.83494697200001,40.19235577400008],[112.86002891900011,40.221507932000065],[112.90039466400003,40.279984841000044],[112.94109456900003,40.32011242300007],[112.98231940300002,40.36108207400008],[113.01620284700005,40.37874774000005],[113.05449267200004,40.40244331800005],[113.09671156500008,40.41989896700005],[113.13440391400002,40.42823110900008],[113.18415747200004,40.42704791400007],[113.23726253500001,40.40734739700008],[113.27777570400008,40.384852944000045],[113.32971951900004,40.34057025300007],[113.37831928100002,40.31477791900005],[113.42355921900003,40.30747955800007],[113.47322154800008,40.30619391500005],[113.54446165000002,40.32274392200003],[113.59118616700005,40.34606830700005],[113.63009295900008,40.378796014000045],[113.66655799800003,40.445383581000044],[113.7147762400001,40.49627166300007],[113.76094280100006,40.53081074200003],[113.76226741000005,40.53181025900005],[113.79454957100006,40.51246103100004],[113.82249884200007,40.49015754100003],[113.86397773100009,40.48896413600005],[113.89748962400006,40.49413612600006],[113.93110607500012,40.501813613000024],[113.97862273400006,40.53476141200008],[113.99984879700003,40.62016380700004],[114.00432266500002,40.70299821100008],[114.04443620600011,40.75096860200006],[114.07972819500003,40.759349057000065],[114.1304266510001,40.66314937400006],[114.15032959100006,40.65116572300008],[114.16433292300007,40.64197319300007],[114.19725985200012,40.62612416800005],[114.22018228400009,40.60166566800007],[114.2350292530001,40.55795052000008],[114.24950100300009,40.50627475600004],[114.25805929300009,40.45652973400007],[114.26845677400001,40.42176690200006],[114.27687237400005,40.36937023100006],[114.2893787480001,40.354900454000074],[114.32912097200006,40.334426215000065],[114.38586357000008,40.32055997500004],[114.45014196700004,40.31442927000006],[114.47248724000008,40.306751477000034],[114.47475846900011,40.30565612700008],[114.4900176640001,40.29831928200008],[114.47731407600008,40.282746031000045],[114.4221536450001,40.253270247000046],[114.36776458400004,40.23966775100007],[114.32233132400006,40.21255102900005],[114.25539943000001,40.21072827100005],[114.24239910200004,40.21371262300005],[114.20058638800003,40.21299141900005],[114.17073412700006,40.18543573800008],[114.0987194600001,40.17570333000003],[114.06266334000009,40.169499848000044],[114.06205516800003,40.167790826000044],[114.04915443200002,40.131799159000025],[114.06921891000002,40.09860776700003],[114.06300656700012,40.06427529500007],[114.03767875200003,40.05691960100006],[114.0251797620001,40.07136604300007],[113.94989231500006,40.09522609600003],[113.93966642500004,40.04860762700008],[113.92194226700008,40.02249204300006],[113.90441871200005,39.99326905800007],[113.957989526,39.991682688000026],[113.98252449400002,39.96097477700005],[114.00534715900005,39.937453307000055],[114.06331832100011,39.90159367100006],[114.08955091700011,39.89157120700003],[114.12997474600002,39.87611101500005],[114.18171825800005,39.86333747300006],[114.26185927900008,39.848942513000054],[114.343161097,39.860104438000064],[114.36926410000001,39.85941950200004],[114.39863625800001,39.80117618200006],[114.3949828320001,39.748235358000045],[114.36777920800012,39.72420222400007],[114.36199130000011,39.70137338600006],[114.3901663370001,39.64405357700008],[114.39405451400012,39.641130100000055],[114.4485249380001,39.600059427000076],[114.48269609800002,39.57173656400005],[114.50190356400003,39.55264375100006],[114.49763989500002,39.53883545600007]]]}},{"type":"Feature","properties":{"code":"CN014030","name":"Jincheng","label":"Jincheng · 晋城市","type":"Prefecture-level city","parentCode":"CN-SX"},"geometry":{"type":"Polygon","coordinates":[[[112.67054092300009,36.01221148600007],[112.67479999900002,36.008555985000044],[112.692049999,36.00914798500003],[112.69830902700005,36.01174636800005],[112.70234999900003,36.01247798500003],[112.7081799990001,36.01474398500005],[112.71548999900006,36.01188298500006],[112.7282430570001,35.99648486900003],[112.74072999900011,35.991984985000045],[112.76811111800009,35.98712057900008],[112.783025511,35.982946120000065],[112.78607862400008,35.979704268000035],[112.80286552200005,35.978669559000025],[112.807302875,35.98144964200003],[112.81253573000004,35.984384042000045],[112.81581837500005,35.98601359600008],[112.81751069800009,35.98733418900008],[112.835188947,35.98481496100004],[112.84288860200002,35.981283629000075],[112.84526666400006,35.979100078000045],[112.85231339000006,35.97683024300005],[112.86038025200003,35.97693985800004],[112.86373735000006,35.97673112600006],[112.87007017500002,35.97511547700003],[112.87141439200002,35.97299571600007],[112.87369218800006,35.964709511000024],[112.8734408150001,35.95454465200004],[112.8679076950001,35.93839671200004],[112.86784161800006,35.93005275200005],[112.87319124400005,35.92646175700003],[112.90448954600004,35.92267518400007],[112.93125403200008,35.92283058100003],[112.95331650900005,35.92780896800008],[112.98535854300007,35.92025628400006],[113.00503703900006,35.89125906100003],[113.04970893600012,35.89222477800007],[113.08684840700005,35.87798259900006],[113.14381543200011,35.904437065000025],[113.178378038,35.89208366300005],[113.22267556000008,35.873171454000044],[113.26847628300004,35.87205101700005],[113.3112719080001,35.875685015000045],[113.37210285300011,35.846668591000025],[113.41534180800011,35.83745986500003],[113.45413604900011,35.842737886000066],[113.51919356600001,35.80600778000007],[113.53438666900001,35.77382739700005],[113.53503024800011,35.725229392000074],[113.56931554800008,35.67415314500005],[113.5639480100001,35.61420215600003],[113.50591790400006,35.62602954600004],[113.49483731200007,35.596228764000045],[113.48132294700008,35.56029705800006],[113.45114151700011,35.529121006000025],[113.38827702100002,35.49153006900008],[113.37481335300004,35.49179882400006],[113.35638759900007,35.483504002000075],[113.33160950400008,35.47233586400006],[113.33221559700007,35.45554180500005],[113.29647751400012,35.459770296000045],[113.25392960200008,35.46147108200006],[113.27341328200009,35.43812908900003],[113.26482113800012,35.41267474600005],[113.23307991200011,35.40003214700005],[113.2139077700001,35.43484332300005],[113.20923705900009,35.43506511600003],[113.15349132900008,35.43772532700007],[113.13103596300004,35.406100640000034],[113.12316518800003,35.39499181700006],[113.10457557200004,35.370588937000036],[113.09208984000009,35.323110059000044],[113.08237082100004,35.30716331700006],[113.08208293400003,35.30668938600007],[113.08037667500002,35.30388041600003],[113.01288664300012,35.332439857000054],[112.96933849700008,35.336709677000044],[112.98585869700003,35.30205032200007],[112.97008743900005,35.27839880300007],[112.93825262600001,35.25772692700008],[112.89700472800007,35.26281898800005],[112.8807687420001,35.23923367700007],[112.84148015200003,35.231905436000034],[112.80175247000011,35.253728943000056],[112.77891599200007,35.232881218000045],[112.75443157200004,35.22626115700007],[112.74179330300001,35.222843031000025],[112.72885203800001,35.21256449900005],[112.71449232900011,35.20115937600008],[112.65788265000003,35.218768752000074],[112.61470516200006,35.23793327900006],[112.59909201800008,35.23903233500005],[112.57720773000005,35.207531705000065],[112.55828002800001,35.20894442200006],[112.51919000900011,35.21184598000008],[112.44793105100007,35.22513316000004],[112.38541070300005,35.22856216400004],[112.34746402100006,35.230779562000066],[112.31933229600008,35.22051163300006],[112.26596218500003,35.236138236000045],[112.22352007600011,35.23836886700008],[112.19777598000007,35.23511459700006],[112.143086831,35.24098702200007],[112.09997641200005,35.273216244000025],[112.0820417970001,35.27073953400003],[112.04619219300002,35.27033937600004],[112.03366576600001,35.32598858500006],[112.01426230900006,35.35438919200004],[111.98590404900006,35.374413627000024],[111.94289673700007,35.400990999000044],[111.94726747400006,35.449451587000055],[111.94516643300005,35.49123973700006],[111.94266406100007,35.528963660000045],[111.93579224900009,35.56093806700005],[111.92983086700008,35.59837326000007],[111.93990698500005,35.63828820900005],[111.95749007000006,35.66411864400004],[111.99451340000007,35.68591132000006],[112.0030920050001,35.720397207000076],[112.01388954800007,35.76354393200006],[112.0176865950001,35.80379459400007],[112.03984051400005,35.83083907200006],[112.08590668800002,35.843507868000074],[112.12021467400007,35.85807558500005],[112.11606059700011,35.904155391000074],[112.189246217,35.89220271800008],[112.23446597700001,35.88373827300006],[112.28194052600008,35.876098830000046],[112.32223740900008,35.87933991800003],[112.37914385900001,35.89516949100005],[112.44043292700007,35.90846931500005],[112.46770656000001,35.925077642000076],[112.5006922980001,35.95606742900003],[112.501047072,35.98263572700006],[112.47474459300008,36.01549642900005],[112.48133543400002,36.007265397000026],[112.51592999900004,36.03114698500008],[112.52596999900004,36.03843698500003],[112.53600999900004,36.04131698500004],[112.57485999900007,36.05117798500004],[112.59757999900012,36.055415985000025],[112.61587999900007,36.06293498500003],[112.62382999900001,36.062522985000044],[112.63006999900006,36.05701098500003],[112.64365769900007,36.05068416600005],[112.65201999900012,36.04377698500008],[112.65218186900006,36.03164446200003],[112.66443999900002,36.02287698500004],[112.67054092300009,36.01221148600007]]]}},{"type":"Feature","properties":{"code":"CN014040","name":"Jinzhong","label":"Jinzhong · 晋中市","type":"Prefecture-level city","parentCode":"CN-SX"},"geometry":{"type":"Polygon","coordinates":[[[113.96155269600001,37.718450794000034],[113.98084343900007,37.71004389700005],[114.03310565400011,37.71760612400004],[114.0828497010001,37.71990952500005],[114.09976444800009,37.699738324000066],[114.11914182300006,37.676610261000064],[114.11375973200006,37.62994333000006],[114.09005055500006,37.58637975100004],[114.07356703300002,37.54970479000008],[114.04442017800011,37.51312194900004],[114.03838390100009,37.505532052000035],[114.00138356600007,37.45599062800005],[113.99823212000001,37.451764351000065],[113.96835555400003,37.42334712300004],[113.93773214500004,37.404652415000044],[113.93500638300009,37.38155309000007],[113.93256081800007,37.36062389400007],[113.94148701800009,37.32420757500006],[113.89064944500001,37.316580498000064],[113.88778507200004,37.31599717100005],[113.85939995600006,37.31024558800004],[113.85815897100008,37.27760316400003],[113.82288289900009,37.22455508500008],[113.79476444300008,37.17751949500007],[113.76273928900002,37.148223588000064],[113.74749975100008,37.138852917000065],[113.73054296200007,37.08183453200007],[113.72912382200002,37.07392030900007],[113.72624798600009,37.058088499000064],[113.72425372700002,37.03429078200003],[113.73799097200003,37.013875367000026],[113.74596178400009,37.00202120100005],[113.72925948400007,36.95117949200005],[113.75116158800006,36.89329188900007],[113.75253563000001,36.868536720000066],[113.73217874200009,36.85546544300007],[113.71398458500005,36.84379229900003],[113.69915726900001,36.844121846000064],[113.6651768910001,36.88372295600004],[113.63944383,36.86662047200008],[113.63680856000008,36.82341227500007],[113.60033520000002,36.79152714700007],[113.56625998700008,36.762230232000036],[113.51213627700008,36.745701550000035],[113.49242790900007,36.742203388000064],[113.47741679900003,36.753789948000076],[113.4588557510001,36.78626907100005],[113.43075496600011,36.82898749300006],[113.40428273900011,36.85386998600006],[113.36252526500004,36.86954839900005],[113.3103099970001,36.880099932000064],[113.28376070800005,36.958518483000034],[113.24294959400004,36.92951657500004],[113.21412269100006,36.95491219100006],[113.17728738400001,36.95956581200005],[113.1678763330001,36.92976119700006],[113.128751222,36.918837318000044],[113.087209443,36.89931199700004],[113.02493175000006,36.906086403000074],[112.971854527,36.90735113100004],[112.93649194300008,36.88800520600006],[112.91135503200007,36.86769560600004],[112.86646678300008,36.87127258500004],[112.85244246000002,36.909572679000064],[112.85217828600003,36.94857837500007],[112.83037680200005,36.98359965900005],[112.80021482900008,37.000663118000034],[112.75539094800001,36.999627704000034],[112.73773002700011,37.03030373100006],[112.72845196600008,37.05874389600007],[112.68431358300006,37.08977623800007],[112.65703072000008,37.10803495300007],[112.59272793200012,37.091298675000075],[112.54803290100006,37.091069427000036],[112.51625159700006,37.10308192600007],[112.45484885000008,37.11140391200007],[112.45611092000001,37.051713181000025],[112.48114092300011,37.01938301700005],[112.5006774530001,36.97630877600005],[112.49640436700008,36.942561427000044],[112.45785972600004,36.940200814000036],[112.40510821900011,36.92238541100005],[112.37281697600008,36.93346231500004],[112.3316692730001,36.948588965000056],[112.27630380400001,36.942322527000044],[112.2341623320001,36.96160473800006],[112.20438371000012,36.985852127000044],[112.17308270600006,36.99730711500007],[112.13501521100011,37.00949364100006],[112.10441086800006,36.973659790000056],[112.05019335500003,36.94933726600004],[112.0450789460001,36.909200844000054],[112.05465989000004,36.88312369400006],[112.06172074100004,36.85440057400007],[112.04180401300005,36.83233251900003],[111.99658907600008,36.823705274000076],[111.95769056900008,36.77211969100006],[111.97214318100004,36.74170632700003],[111.98967691000007,36.707515338000064],[111.99570039700006,36.68021525100005],[111.92794073100004,36.68027710600006],[111.88454368700008,36.686636544000066],[111.82792813100008,36.69122740900008],[111.77408624800006,36.69568792300004],[111.71929344300008,36.68688816000008],[111.66879869000007,36.66646237800006],[111.62489780600004,36.64162156800006],[111.58812264600004,36.67924502000005],[111.56956399100005,36.70836026000006],[111.55430539400004,36.73644381100007],[111.52760817500007,36.756266260000075],[111.48859208700009,36.76281527700007],[111.45228093300005,36.758251087000076],[111.39004791800005,36.78719701800003],[111.36912506200008,36.80859739700003],[111.36697157200007,36.83707580200007],[111.40954854900008,36.85931371500004],[111.46853825200009,36.869924559000026],[111.50572200900007,36.87951418800003],[111.51884601700004,36.906992701000036],[111.49156046500008,36.92913653700003],[111.47656607300007,36.98196943000005],[111.52482155400008,36.95813954000005],[111.56076974600006,36.937018486000056],[111.59664419700005,36.933790765000026],[111.63752762800004,36.94780102500005],[111.71596436600004,36.97636521900006],[111.77865285000007,37.00362705800006],[111.83839080000007,37.02229142500005],[111.86361134200007,37.034481320000054],[111.85905821600005,37.03507418700008],[111.86724172700008,37.06234609400008],[111.87947481300006,37.07471456300004],[111.88917172500004,37.08278458700005],[111.89620281000003,37.09709344500004],[111.90468328900005,37.103565238000044],[111.92080035500004,37.107131243000026],[111.92212262100009,37.12174660200003],[111.93978286300006,37.233299686000066],[111.94209132600008,37.24287390500007],[111.94461466200005,37.246894336000025],[111.93721695400006,37.25255852200007],[111.93676941400008,37.25951033500007],[111.94779054600008,37.25808433700007],[111.97719600600004,37.27284281800007],[111.99587926500004,37.28041912900005],[112.00866351800005,37.282494747000044],[112.01817221900001,37.288073274000055],[112.02177529300002,37.29203361000003],[112.02333164000004,37.29721405400005],[112.02626724100003,37.30564471100007],[112.02707978000001,37.31446835400004],[112.02861154100003,37.31937299400005],[112.03382748900003,37.325184937000074],[112.0421158370001,37.32916596900003],[112.0540412900001,37.32574196000007],[112.05954333400007,37.322946253000055],[112.06770684000003,37.313907303000065],[112.07394969000006,37.30746749200006],[112.08712395000009,37.30591148600007],[112.09814895400007,37.304472632000056],[112.10791943000004,37.30116210400007],[112.11566358100004,37.28770855100004],[112.12166819000004,37.28104917700006],[112.13537387500003,37.29494111200006],[112.18527050500006,37.340904099000056],[112.22137146000011,37.361155343000064],[112.25168446000009,37.398819822000064],[112.26611560800006,37.43029123300005],[112.29232165700012,37.457578357000045],[112.32862033300012,37.45735023800006],[112.38517281000009,37.46537842300006],[112.43251597800008,37.45959366100004],[112.46887181600005,37.42263398100005],[112.49447291700005,37.464133154000024],[112.51037282300001,37.49780373200008],[112.56119131700007,37.52208932800005],[112.59853688100009,37.54879581900008],[112.57411989800005,37.57607084800003],[112.57422635000012,37.607717998000055],[112.582583623,37.64035377300007],[112.63308268300011,37.663691577000066],[112.64086955100004,37.69497191000005],[112.64680532500006,37.72542339900008],[112.66451628900006,37.75166285300003],[112.69682046800006,37.795111259000066],[112.72798667300003,37.83219560300006],[112.76192243900005,37.894823108000026],[112.76224081600003,37.92784381700005],[112.78788363800004,37.963776376000055],[112.81918946300004,37.97649636400007],[112.87055921000001,37.98594545100008],[112.90223455000012,38.00368609000003],[112.94423729300001,38.006700668000065],[112.99464751500011,38.035930310000026],[113.020559047,38.06862388700006],[113.05759328400006,38.07274709600006],[113.10185913900011,38.06499714100005],[113.14512744100011,38.046269761000076],[113.17452305000006,38.07642369200005],[113.20704025700002,38.088983761000065],[113.22643590100006,38.05222414000008],[113.24636120200012,38.009963662000075],[113.28833362800003,37.98174565700003],[113.31274003600004,37.948821001000056],[113.32309414300005,37.89813486500003],[113.3339701000001,37.86264738600005],[113.34606399200004,37.82945384900006],[113.36096403500005,37.803028349000044],[113.38846049200004,37.763618517000054],[113.42617877600003,37.73915949800005],[113.42879051800003,37.71059010400006],[113.47493241100005,37.68048865900005],[113.50987118600005,37.67436838800006],[113.55619349300002,37.67814900400003],[113.60180284300009,37.66722343600003],[113.65541567500009,37.66179608300007],[113.68704240600005,37.68337229400004],[113.73112528800004,37.676215486000046],[113.7657046060001,37.66135696200007],[113.79989520200002,37.66766956300006],[113.83991470100011,37.69390325400008],[113.89006341900006,37.69541854300007],[113.92198981900003,37.682871539000075],[113.96155269600001,37.718450794000034]]]}},{"type":"Feature","properties":{"code":"CN014050","name":"Lüliang","label":"Lüliang · 吕梁市","type":"Prefecture-level city","parentCode":"CN-SX"},"geometry":{"type":"Polygon","coordinates":[[[111.77834719800006,38.20534534700005],[111.73792726400006,38.173453659000074],[111.67755106600004,38.153782455000055],[111.64159257200004,38.13682776300004],[111.60582082000008,38.11481861500005],[111.57659136300003,38.096234905000074],[111.54594127600006,38.08227330500006],[111.50923240800006,38.080910000000074],[111.47600248300006,38.04181063400006],[111.48558104500006,38.00889333500004],[111.52552086100008,37.93680341000004],[111.54831010200007,37.90570020400003],[111.55039626500007,37.86573091100007],[111.53866068900004,37.83684171400006],[111.59561921200009,37.83145920000004],[111.64351111200006,37.84657576400008],[111.68179484600006,37.861882980000075],[111.76707455500008,37.81421366100005],[111.82339986800008,37.78902984800004],[111.85546479000004,37.77489557700005],[111.89503295200007,37.752662368000074],[111.91717585300006,37.73020967100007],[111.92923307800004,37.70449856400006],[111.97332389200005,37.707736397000076],[112.02464033500007,37.70744995100006],[112.05955255200001,37.696373949000076],[112.1108948100001,37.68138266100004],[112.1746860180001,37.668114693000064],[112.17197269300004,37.606313800000066],[112.17759984700001,37.57992869100008],[112.19668789400009,37.55664046700008],[112.23460849300011,37.547206311000025],[112.27042762500002,37.525473230000046],[112.28741076200004,37.48392537600006],[112.29232165700012,37.457578357000045],[112.26611560800006,37.43029123300005],[112.25168446000009,37.398819822000064],[112.22137146000011,37.361155343000064],[112.18527050500006,37.340904099000056],[112.13537387500003,37.29494111200006],[112.12166819000004,37.28104917700006],[112.11566358100004,37.28770855100004],[112.10791943000004,37.30116210400007],[112.09814895400007,37.304472632000056],[112.08712395000009,37.30591148600007],[112.07394969000006,37.30746749200006],[112.06770684000003,37.313907303000065],[112.05954333400007,37.322946253000055],[112.0540412900001,37.32574196000007],[112.0421158370001,37.32916596900003],[112.03382748900003,37.325184937000074],[112.02861154100003,37.31937299400005],[112.02707978000001,37.31446835400004],[112.02626724100003,37.30564471100007],[112.02333164000004,37.29721405400005],[112.02177529300002,37.29203361000003],[112.01817221900001,37.288073274000055],[112.00866351800005,37.282494747000044],[111.99587926500004,37.28041912900005],[111.97719600600004,37.27284281800007],[111.94779054600008,37.25808433700007],[111.93676941400008,37.25951033500007],[111.93721695400006,37.25255852200007],[111.94461466200005,37.246894336000025],[111.94209132600008,37.24287390500007],[111.93978286300006,37.233299686000066],[111.92212262100009,37.12174660200003],[111.92080035500004,37.107131243000026],[111.90468328900005,37.103565238000044],[111.89620281000003,37.09709344500004],[111.88917172500004,37.08278458700005],[111.87947481300006,37.07471456300004],[111.86724172700008,37.06234609400008],[111.85905821600005,37.03507418700008],[111.86361134200007,37.034481320000054],[111.83839080000007,37.02229142500005],[111.77865285000007,37.00362705800006],[111.71596436600004,36.97636521900006],[111.63752762800004,36.94780102500005],[111.59664419700005,36.933790765000026],[111.56076974600006,36.937018486000056],[111.52482155400008,36.95813954000005],[111.47656607300007,36.98196943000005],[111.49156046500008,36.92913653700003],[111.51884601700004,36.906992701000036],[111.50572200900007,36.87951418800003],[111.46853825200009,36.869924559000026],[111.40954854900008,36.85931371500004],[111.36697157200007,36.83707580200007],[111.36912506200008,36.80859739700003],[111.39004791800005,36.78719701800003],[111.34850191000004,36.750668881000024],[111.31188289500005,36.718050679000044],[111.27796541200007,36.71193139800005],[111.23833683300006,36.74422837800006],[111.20168785100009,36.79760465800007],[111.17748059600007,36.83052275600005],[111.14197800300008,36.84641504200005],[111.10735458700009,36.85814074900003],[111.07736568900009,36.91049436800006],[111.00805452900005,36.895419412000024],[110.97816568700006,36.88129723900005],[110.92467553200004,36.88352591300003],[110.88861384700004,36.87096227700005],[110.84310767000005,36.84219569600003],[110.80422660200009,36.829702577000035],[110.77351180700003,36.84168393700003],[110.74451129100004,36.86460623100004],[110.71244274000009,36.90549555000007],[110.68548687600008,36.92467029300008],[110.63911632800006,36.92244799200006],[110.62064934200004,36.89689599800005],[110.60943845300005,36.867908740000075],[110.56291806700006,36.85100136900007],[110.52639045800004,36.85072682200007],[110.47986199200005,36.85625220700007],[110.43861936800005,36.86480527100008],[110.36949639100004,36.88512925400005],[110.36956834800009,36.90218975800008],[110.36233285600008,36.93064154800004],[110.34409080900008,36.96480913600004],[110.41397459700005,36.97880803000004],[110.41056143300005,37.03283678100007],[110.43631897300008,37.03843032200007],[110.45480157400004,37.05258155900003],[110.50670904900005,37.12345033300005],[110.51782547300007,37.13478018600006],[110.55108022400009,37.151692945000036],[110.59946726500004,37.222546719000036],[110.64075811400005,37.26430428100008],[110.64777116400006,37.270635706000064],[110.65903754900006,37.29616205200006],[110.65181543400007,37.316100445000075],[110.60783617200008,37.35896752200006],[110.61553213000008,37.40157319700006],[110.61931097700005,37.41292596200003],[110.67850255200005,37.418306235000045],[110.70834105200004,37.44941358800003],[110.76088518900008,37.534396800000025],[110.76115444500005,37.562825290000035],[110.74278704800008,37.57999779800008],[110.74295013900007,37.597053162000066],[110.74302026800007,37.60558202500005],[110.75815855800005,37.63960913600005],[110.74348659300006,37.65675065100004],[110.68807494700008,37.68265763900007],[110.72555498000008,37.72509199900003],[110.71457083000007,37.74221122200004],[110.65540834100005,37.770961045000035],[110.63697234000006,37.78811666300004],[110.61485210800004,37.81097473500006],[110.58924816900009,37.867956578000076],[110.56340550200008,37.89650382100007],[110.52257805300007,37.91089942200006],[110.47067495500005,37.942379034000055],[110.45959374600005,37.95663477700003],[110.45599425900008,37.982238890000076],[110.47878772800004,38.06176075500008],[110.46808758200007,38.149939827000026],[110.50188554700009,38.183928810000054],[110.51690080100008,38.19808532800005],[110.53921757400008,38.26182940600006],[110.55541518300004,38.27402055400006],[110.61604020200008,38.29826485600006],[110.68087521900009,38.33778231500003],[110.73812582700003,38.423306307000075],[110.77447030500008,38.42309069600003],[110.80282301100004,38.43211169600005],[110.81906843200005,38.441202589000056],[110.83555727700008,38.471753223000064],[110.86469642800006,38.55126879100004],[110.86917020500005,38.591094043000055],[110.85725300300004,38.612638781000044],[110.86976977700004,38.64627814800008],[110.89042929000004,38.68293153800005],[110.90294068400004,38.71350244400003],[110.95226198300008,38.67012502600005],[110.99143224300008,38.63995595200004],[111.03613114100006,38.644889953000074],[111.09742301200004,38.67308407000007],[111.14671094300007,38.69570634200005],[111.20411188300005,38.70995295300003],[111.21395719100008,38.66726253600007],[111.22673335400009,38.62784950500003],[111.23559099800008,38.59132311700006],[111.27725016800008,38.58527767000004],[111.32081963000007,38.582360968000046],[111.36926131300004,38.56412753300003],[111.41015991300009,38.556232572000056],[111.43048574300008,38.518358001000024],[111.44921071500005,38.49199934500007],[111.48107046200005,38.50779500500005],[111.53216731100008,38.50545065500006],[111.56388413100007,38.51894434700006],[111.60645393300007,38.53843826700006],[111.64851249900005,38.55886052400007],[111.68046353200003,38.575065462000055],[111.73940789300008,38.56277486700003],[111.70810269400005,38.50796345300006],[111.72106563500006,38.463422698000045],[111.73905302000009,38.43474101100003],[111.74186155700005,38.397489507000046],[111.77521238900005,38.36499594000003],[111.80497628100005,38.34043672100006],[111.78248329500008,38.31060845800005],[111.75069581700006,38.28939709500003],[111.73635528400007,38.25970527100003],[111.75182546100007,38.224725170000056],[111.77834719800006,38.20534534700005]]]}},{"type":"Feature","properties":{"code":"CN014060","name":"Linfen","label":"Linfen · 临汾市","type":"Prefecture-level city","parentCode":"CN-SX"},"geometry":{"type":"Polygon","coordinates":[[[111.39004791800005,36.78719701800003],[111.45228093300005,36.758251087000076],[111.48859208700009,36.76281527700007],[111.52760817500007,36.756266260000075],[111.55430539400004,36.73644381100007],[111.56956399100005,36.70836026000006],[111.58812264600004,36.67924502000005],[111.62489780600004,36.64162156800006],[111.66879869000007,36.66646237800006],[111.71929344300008,36.68688816000008],[111.77408624800006,36.69568792300004],[111.82792813100008,36.69122740900008],[111.88454368700008,36.686636544000066],[111.92794073100004,36.68027710600006],[111.99570039700006,36.68021525100005],[111.98229929400009,36.63492197700003],[112.00277905100006,36.593715608000025],[112.03004441600001,36.56779035900007],[112.07189956000002,36.554527474000054],[112.11284912500003,36.528900340000064],[112.15369853800007,36.472582517000035],[112.19041332800009,36.42331927500004],[112.20868586100005,36.40002890400007],[112.25256700700004,36.37696664200007],[112.30384019900009,36.36321953400005],[112.35805985400009,36.352556063000065],[112.41275548400006,36.326262694000036],[112.45180885100001,36.27764911700007],[112.47644623000008,36.25035682600003],[112.5195265970001,36.25020466500007],[112.56246624000005,36.25507143600004],[112.56371197100009,36.22796884700006],[112.53276754300009,36.18770933600007],[112.53792176800005,36.15027836500008],[112.50756188100002,36.09106697000004],[112.47469599600004,36.05219349400005],[112.4747433010001,36.016472290000024],[112.47474459300008,36.01549642900005],[112.501047072,35.98263572700006],[112.5006922980001,35.95606742900003],[112.46770656000001,35.925077642000076],[112.44043292700007,35.90846931500005],[112.37914385900001,35.89516949100005],[112.32223740900008,35.87933991800003],[112.28194052600008,35.876098830000046],[112.23446597700001,35.88373827300006],[112.189246217,35.89220271800008],[112.11606059700011,35.904155391000074],[112.12021467400007,35.85807558500005],[112.08590668800002,35.843507868000074],[112.03984051400005,35.83083907200006],[112.0176865950001,35.80379459400007],[112.01388954800007,35.76354393200006],[112.0030920050001,35.720397207000076],[111.99451340000007,35.68591132000006],[111.95749007000006,35.66411864400004],[111.93990698500005,35.63828820900005],[111.92983086700008,35.59837326000007],[111.88638644200006,35.59558988400005],[111.83349919000005,35.584891809000055],[111.79431302100005,35.594732660000034],[111.73104426000003,35.58949263400007],[111.68973434500003,35.62925788100006],[111.64938482500008,35.62449539200003],[111.59438074200006,35.645060983000064],[111.57829381100004,35.603481317000046],[111.55231700500008,35.57278589300006],[111.51539782800006,35.565481102000035],[111.45776035800009,35.55942969800003],[111.42558700200004,35.57580913400005],[111.39520527800005,35.55759356800007],[111.30086259300003,35.531499316000065],[111.24345061600008,35.541015651000066],[111.22228423400009,35.56240227200004],[111.22271177600004,35.605892863000065],[111.26846696300004,35.63956736000006],[111.29432877400006,35.67142379500007],[111.24923315700005,35.676053574000036],[111.20009245600005,35.67960736300006],[111.18371642800008,35.715464428000075],[111.16322944700005,35.75739799000007],[111.13677845300003,35.784883799000056],[111.11151241900006,35.80667715200008],[111.05425061000005,35.78587525800003],[111.03812076600008,35.740135536000025],[111.04101875600008,35.70291545900005],[111.00243873600004,35.69504365200004],[110.96216625900007,35.73331075600004],[110.91006351400006,35.688936589000036],[110.80661275600005,35.70023212500007],[110.76371968500007,35.692771194000045],[110.72820683500004,35.70123847800005],[110.70115167300008,35.720897636000075],[110.64413795700005,35.73828626300008],[110.62547117700007,35.714107857000045],[110.55145545000005,35.690498674000025],[110.53276869400008,35.763333954000075],[110.53309103500004,35.81601345000007],[110.52093238500004,35.835358678000034],[110.49201783600006,35.84401537700006],[110.48117130700007,35.84974306100003],[110.46680250500009,35.869706079000025],[110.48175509700008,35.95496654100003],[110.45308949500009,36.02332564100004],[110.44597057600004,36.04894343700005],[110.43154079400006,36.06889865200003],[110.42803355000007,36.09450647500006],[110.43183527600007,36.12861686700006],[110.41749660400006,36.171319072000074],[110.41754975500004,36.18269471000008],[110.44691667600006,36.23661709300006],[110.45072023200004,36.26788251500005],[110.44254000100005,36.28552612300007],[110.43269748600005,36.304910275000054],[110.42914267900005,36.32198142000004],[110.44762870800008,36.375943766000034],[110.43319860700007,36.40726956800006],[110.42962853500006,36.42434246000005],[110.44067844100005,36.44420359800006],[110.45904871800008,36.466885647000026],[110.44840111700006,36.52663261300006],[110.41584143200004,36.59498411800007],[110.37940606500007,36.626381672000036],[110.36117030100007,36.640649729000074],[110.36124229000006,36.65770874200007],[110.41258218700006,36.680291726000064],[110.42003715200008,36.70869299800006],[110.40914274700003,36.72863366300004],[110.39090501300007,36.74575245700004],[110.35798645200003,36.76007033600007],[110.39115506200005,36.80261740800006],[110.35103125500007,36.85675601200006],[110.36949639100004,36.88512925400005],[110.43861936800005,36.86480527100008],[110.47986199200005,36.85625220700007],[110.52639045800004,36.85072682200007],[110.56291806700006,36.85100136900007],[110.60943845300005,36.867908740000075],[110.62064934200004,36.89689599800005],[110.63911632800006,36.92244799200006],[110.68548687600008,36.92467029300008],[110.71244274000009,36.90549555000007],[110.74451129100004,36.86460623100004],[110.77351180700003,36.84168393700003],[110.80422660200009,36.829702577000035],[110.84310767000005,36.84219569600003],[110.88861384700004,36.87096227700005],[110.92467553200004,36.88352591300003],[110.97816568700006,36.88129723900005],[111.00805452900005,36.895419412000024],[111.07736568900009,36.91049436800006],[111.10735458700009,36.85814074900003],[111.14197800300008,36.84641504200005],[111.17748059600007,36.83052275600005],[111.20168785100009,36.79760465800007],[111.23833683300006,36.74422837800006],[111.27796541200007,36.71193139800005],[111.31188289500005,36.718050679000044],[111.34850191000004,36.750668881000024],[111.39004791800005,36.78719701800003]]]}},{"type":"Feature","properties":{"code":"CN014070","name":"Shuozhou","label":"Shuozhou · 朔州市","type":"Prefecture-level city","parentCode":"CN-SX"},"geometry":{"type":"Polygon","coordinates":[[[112.59633372700011,40.23836746100005],[112.59081642500007,40.08394306900004],[112.60621493400004,40.044678419000036],[112.604062537,40.01033215000007],[112.59699161700007,39.98172758100003],[112.5926880180001,39.950696598000036],[112.58141468400004,39.90758096900004],[112.57468433000008,39.86196991000003],[112.58016816200006,39.83509303500006],[112.57958595800005,39.79976608700008],[112.58757806100004,39.760851159000026],[112.60755823600005,39.73745659000008],[112.64628150100009,39.72423163000008],[112.69737803900011,39.73063320600005],[112.7662789100001,39.739281618000064],[112.78797338100003,39.78477385300005],[112.84257095100008,39.796013618000075],[112.86096498200004,39.823614200000065],[112.89612241600003,39.83940886000005],[112.92417828200007,39.855993770000055],[112.93438759500009,39.88582558200005],[112.98408030500002,39.89448056100008],[113.0399616630001,39.890876400000025],[113.08560311800011,39.88728848300008],[113.14021802500008,39.90528491300006],[113.18454089300008,39.92147991400003],[113.22290302500005,39.93106300200003],[113.28051668900002,39.92406640200005],[113.3321693800001,39.91073497700006],[113.36091297200005,39.875957475000064],[113.36707614300008,39.83796046600003],[113.33920343700004,39.81134621100006],[113.32855456900006,39.778809919000025],[113.35244148400011,39.74820950900005],[113.4087744850001,39.722390189000066],[113.37569101200006,39.67548268100006],[113.36990710000009,39.64720227500004],[113.38043436700002,39.61129490900004],[113.39552373700008,39.58709311800004],[113.4457055800001,39.56429752200006],[113.46180866100008,39.520297939000045],[113.49177959500003,39.474669153000036],[113.53434020300006,39.43519456400003],[113.50995495000006,39.41128583700004],[113.49003304200005,39.379235308000034],[113.45081538200009,39.342202318000034],[113.42035205100001,39.32493630000005],[113.37852962400007,39.30641602500003],[113.32002222500012,39.306658148000054],[113.25873146200001,39.30976239700004],[113.20448892200011,39.29274375500006],[113.15055286500001,39.29268020200004],[113.10232369700009,39.302394562000075],[113.01553072800004,39.31626047900005],[112.96992818800004,39.29917396500008],[112.92755541600002,39.292478602000074],[112.891629222,39.26480494200007],[112.87568887100008,39.236642034000056],[112.84865853500003,39.20349818100004],[112.80260845600003,39.18317279200005],[112.73952143000008,39.16362281100004],[112.69643131700002,39.14816411900006],[112.66245177100006,39.10567481600003],[112.60381436000011,39.06567099600005],[112.55337727200003,39.10327683600008],[112.50767827400011,39.11174704500007],[112.46362379300001,39.112331235000056],[112.410954489,39.10914016800007],[112.3566804840001,39.102334048000046],[112.31308956700002,39.10422664400005],[112.2660252180001,39.10487331400003],[112.23491941500004,39.12041779800006],[112.20763024400003,39.14680814600007],[112.19039141400003,39.18240348200004],[112.16799042600007,39.21316330700006],[112.12925984500009,39.25607744300004],[112.09106252400011,39.25903739600005],[112.04767498700005,39.264040556000054],[112.018545001,39.29642860800004],[112.0061751390001,39.33163411100003],[112.00328568200007,39.364044540000066],[111.98906499000009,39.38848302000008],[111.96467676200007,39.417452859000036],[111.92024096000006,39.43803749800003],[111.87779690700006,39.45486230900008],[111.85586730800009,39.486914109000054],[111.88386056600007,39.506460299000025],[111.92215665500004,39.50402480500003],[111.95613103100004,39.52330494100005],[111.93646523400008,39.55437793900006],[111.86575027900005,39.63564267600003],[111.88223613000008,39.638478527000075],[111.91142655200008,39.656460534000075],[111.92939930300008,39.71756882100004],[111.95174578900009,39.78781364400004],[111.98276629600008,39.873273088000076],[112.02712800100005,39.96829680500008],[112.04387226100005,40.00123979800003],[112.07425326200007,40.05601249700004],[112.14718459500011,40.15307473300004],[112.2190442210001,40.20714625000005],[112.28780716200004,40.245904593000034],[112.30488093600002,40.25658066600005],[112.36633659000006,40.28595770700008],[112.41076194200002,40.29782700800007],[112.48098240400009,40.284623701000044],[112.5534027330001,40.264274158000035],[112.58414901900005,40.25062651700006],[112.59633372700011,40.23836746100005]]]}},{"type":"Feature","properties":{"code":"CN014080","name":"Taiyuan","label":"Taiyuan · 太原市","type":"Prefecture-level city","parentCode":"CN-SX"},"geometry":{"type":"Polygon","coordinates":[[[113.112031161,38.410551155000064],[113.12023207200002,38.37663594800006],[113.09323270800007,38.33205260400007],[113.06598594000002,38.29161972600008],[113.03411378500005,38.27253858300003],[112.99104987600003,38.25216744000005],[112.94668470900001,38.22955228500007],[112.90862692400003,38.19836047700005],[112.8857891350001,38.16137813600005],[112.88897966700006,38.12314414300005],[112.93609345200002,38.09748499900007],[112.99183991500001,38.092041719000065],[113.020559047,38.06862388700006],[112.99464751500011,38.035930310000026],[112.94423729300001,38.006700668000065],[112.90223455000012,38.00368609000003],[112.87055921000001,37.98594545100008],[112.81918946300004,37.97649636400007],[112.78788363800004,37.963776376000055],[112.76224081600003,37.92784381700005],[112.76192243900005,37.894823108000026],[112.72798667300003,37.83219560300006],[112.69682046800006,37.795111259000066],[112.66451628900006,37.75166285300003],[112.64680532500006,37.72542339900008],[112.64086955100004,37.69497191000005],[112.63308268300011,37.663691577000066],[112.582583623,37.64035377300007],[112.57422635000012,37.607717998000055],[112.57411989800005,37.57607084800003],[112.59853688100009,37.54879581900008],[112.56119131700007,37.52208932800005],[112.51037282300001,37.49780373200008],[112.49447291700005,37.464133154000024],[112.46887181600005,37.42263398100005],[112.43251597800008,37.45959366100004],[112.38517281000009,37.46537842300006],[112.32862033300012,37.45735023800006],[112.29232165700012,37.457578357000045],[112.28741076200004,37.48392537600006],[112.27042762500002,37.525473230000046],[112.23460849300011,37.547206311000025],[112.19668789400009,37.55664046700008],[112.17759984700001,37.57992869100008],[112.17197269300004,37.606313800000066],[112.1746860180001,37.668114693000064],[112.1108948100001,37.68138266100004],[112.05955255200001,37.696373949000076],[112.02464033500007,37.70744995100006],[111.97332389200005,37.707736397000076],[111.92923307800004,37.70449856400006],[111.91717585300006,37.73020967100007],[111.89503295200007,37.752662368000074],[111.85546479000004,37.77489557700005],[111.82339986800008,37.78902984800004],[111.76707455500008,37.81421366100005],[111.68179484600006,37.861882980000075],[111.64351111200006,37.84657576400008],[111.59561921200009,37.83145920000004],[111.53866068900004,37.83684171400006],[111.55039626500007,37.86573091100007],[111.54831010200007,37.90570020400003],[111.52552086100008,37.93680341000004],[111.48558104500006,38.00889333500004],[111.47600248300006,38.04181063400006],[111.50923240800006,38.080910000000074],[111.54594127600006,38.08227330500006],[111.57659136300003,38.096234905000074],[111.60582082000008,38.11481861500005],[111.64159257200004,38.13682776300004],[111.67755106600004,38.153782455000055],[111.73792726400006,38.173453659000074],[111.77834719800006,38.20534534700005],[111.82042321500006,38.18166042400003],[111.85537215200009,38.17245874300005],[111.91052206800003,38.170690069000045],[111.96153343200007,38.170457714000065],[112.01606310500006,38.16226001800004],[112.0856198140001,38.141471953000064],[112.126410297,38.13562878300007],[112.1735057950001,38.14509887500003],[112.22569446700004,38.149744197000075],[112.21952839100004,38.18348309100003],[112.20418560600001,38.21119902200007],[112.19349753000006,38.239628045000075],[112.22149639300005,38.27329016500005],[112.25782114800006,38.30934483100003],[112.30014906600002,38.30567465000007],[112.31373927200002,38.267924089000076],[112.3554639890001,38.255543585000055],[112.40448632300001,38.25567044500008],[112.43528084800005,38.23870616800008],[112.48237098100003,38.24485417400007],[112.5338007250001,38.22464087900005],[112.56891759400003,38.20468965400005],[112.60591580200003,38.21629511300006],[112.65925344200002,38.24319585600006],[112.72139184000002,38.24901904400008],[112.77667362300008,38.26385385000003],[112.82440881900004,38.29371727000006],[112.85133763800002,38.31079471800007],[112.89081005500009,38.324978617000056],[112.9182151650001,38.34707011900008],[112.961106717,38.34315298000007],[113.00668478600005,38.36385997200006],[113.02997909800001,38.39117304300004],[113.05731700700005,38.41140770900006],[113.112031161,38.410551155000064]]]}},{"type":"Feature","properties":{"code":"CN014090","name":"Xinzhou","label":"Xinzhou · 忻州市","type":"Prefecture-level city","parentCode":"CN-SX"},"geometry":{"type":"Polygon","coordinates":[[[111.86575027900005,39.63564267600003],[111.93646523400008,39.55437793900006],[111.95613103100004,39.52330494100005],[111.92215665500004,39.50402480500003],[111.88386056600007,39.506460299000025],[111.85586730800009,39.486914109000054],[111.87779690700006,39.45486230900008],[111.92024096000006,39.43803749800003],[111.96467676200007,39.417452859000036],[111.98906499000009,39.38848302000008],[112.00328568200007,39.364044540000066],[112.0061751390001,39.33163411100003],[112.018545001,39.29642860800004],[112.04767498700005,39.264040556000054],[112.09106252400011,39.25903739600005],[112.12925984500009,39.25607744300004],[112.16799042600007,39.21316330700006],[112.19039141400003,39.18240348200004],[112.20763024400003,39.14680814600007],[112.23491941500004,39.12041779800006],[112.2660252180001,39.10487331400003],[112.31308956700002,39.10422664400005],[112.3566804840001,39.102334048000046],[112.410954489,39.10914016800007],[112.46362379300001,39.112331235000056],[112.50767827400011,39.11174704500007],[112.55337727200003,39.10327683600008],[112.60381436000011,39.06567099600005],[112.66245177100006,39.10567481600003],[112.69643131700002,39.14816411900006],[112.73952143000008,39.16362281100004],[112.80260845600003,39.18317279200005],[112.84865853500003,39.20349818100004],[112.87568887100008,39.236642034000056],[112.891629222,39.26480494200007],[112.92755541600002,39.292478602000074],[112.96992818800004,39.29917396500008],[113.01553072800004,39.31626047900005],[113.10232369700009,39.302394562000075],[113.15055286500001,39.29268020200004],[113.20448892200011,39.29274375500006],[113.25873146200001,39.30976239700004],[113.32002222500012,39.306658148000054],[113.37852962400007,39.30641602500003],[113.42035205100001,39.32493630000005],[113.45081538200009,39.342202318000034],[113.49003304200005,39.379235308000034],[113.50995495000006,39.41128583700004],[113.53434020300006,39.43519456400003],[113.57495541000003,39.42854386500005],[113.61413329600009,39.427829107000036],[113.6724186990001,39.42882462100005],[113.72037813400004,39.40374905700003],[113.76170482700002,39.37304666500006],[113.8115710730001,39.36488457100006],[113.85515981100002,39.36483740700004],[113.89971281200008,39.31090296000008],[113.91662423500009,39.27541417400005],[113.89654912900005,39.22499739800003],[113.89510706300007,39.197943062000036],[113.90624488700007,39.15051432200005],[113.92560754300007,39.12747039900006],[113.94587484800002,39.097646765000036],[113.9345699380001,39.095153538000034],[113.89461521500004,39.06604593900005],[113.85301637700002,39.05374044200005],[113.7742216580001,39.021052078000025],[113.75112882100007,39.00035776800007],[113.7474583710001,38.98771546100005],[113.74169821900011,38.967879770000025],[113.7206245540001,38.937423644000035],[113.75410935000002,38.85984164300004],[113.81231301900004,38.818799056000046],[113.80311479400007,38.761590193000075],[113.75842614700002,38.724603814000034],[113.68986265500007,38.673104755000054],[113.67337726000005,38.669926202000056],[113.66564375400003,38.649777501000074],[113.60327490300006,38.637848115000054],[113.57466926300003,38.62166129800005],[113.53101657900004,38.57486570300006],[113.52109714500011,38.52384537700004],[113.52198366300001,38.52010518600008],[113.47600542100008,38.51537274400005],[113.42223399800002,38.518976044000055],[113.38533538600007,38.517671309000036],[113.33138648300007,38.503993550000075],[113.2779724080001,38.47790776900007],[113.244950345,38.448394508000035],[113.21195987800002,38.41698206800004],[113.16490348600007,38.406976290000046],[113.112031161,38.410551155000064],[113.05731700700005,38.41140770900006],[113.02997909800001,38.39117304300004],[113.00668478600005,38.36385997200006],[112.961106717,38.34315298000007],[112.9182151650001,38.34707011900008],[112.89081005500009,38.324978617000056],[112.85133763800002,38.31079471800007],[112.82440881900004,38.29371727000006],[112.77667362300008,38.26385385000003],[112.72139184000002,38.24901904400008],[112.65925344200002,38.24319585600006],[112.60591580200003,38.21629511300006],[112.56891759400003,38.20468965400005],[112.5338007250001,38.22464087900005],[112.48237098100003,38.24485417400007],[112.43528084800005,38.23870616800008],[112.40448632300001,38.25567044500008],[112.3554639890001,38.255543585000055],[112.31373927200002,38.267924089000076],[112.30014906600002,38.30567465000007],[112.25782114800006,38.30934483100003],[112.22149639300005,38.27329016500005],[112.19349753000006,38.239628045000075],[112.20418560600001,38.21119902200007],[112.21952839100004,38.18348309100003],[112.22569446700004,38.149744197000075],[112.1735057950001,38.14509887500003],[112.126410297,38.13562878300007],[112.0856198140001,38.141471953000064],[112.01606310500006,38.16226001800004],[111.96153343200007,38.170457714000065],[111.91052206800003,38.170690069000045],[111.85537215200009,38.17245874300005],[111.82042321500006,38.18166042400003],[111.77834719800006,38.20534534700005],[111.75182546100007,38.224725170000056],[111.73635528400007,38.25970527100003],[111.75069581700006,38.28939709500003],[111.78248329500008,38.31060845800005],[111.80497628100005,38.34043672100006],[111.77521238900005,38.36499594000003],[111.74186155700005,38.397489507000046],[111.73905302000009,38.43474101100003],[111.72106563500006,38.463422698000045],[111.70810269400005,38.50796345300006],[111.73940789300008,38.56277486700003],[111.68046353200003,38.575065462000055],[111.64851249900005,38.55886052400007],[111.60645393300007,38.53843826700006],[111.56388413100007,38.51894434700006],[111.53216731100008,38.50545065500006],[111.48107046200005,38.50779500500005],[111.44921071500005,38.49199934500007],[111.43048574300008,38.518358001000024],[111.41015991300009,38.556232572000056],[111.36926131300004,38.56412753300003],[111.32081963000007,38.582360968000046],[111.27725016800008,38.58527767000004],[111.23559099800008,38.59132311700006],[111.22673335400009,38.62784950500003],[111.21395719100008,38.66726253600007],[111.20411188300005,38.70995295300003],[111.14671094300007,38.69570634200005],[111.09742301200004,38.67308407000007],[111.03613114100006,38.644889953000074],[110.99143224300008,38.63995595200004],[110.95226198300008,38.67012502600005],[110.90294068400004,38.71350244400003],[110.91117572300004,38.725708190000034],[110.93996732900007,38.759228679000046],[110.95270883000006,38.80819208200006],[110.97760001500006,38.85093048300007],[110.98606755700007,38.87846674700006],[110.97004566400005,38.896986697000045],[110.95842795300007,38.946133933000056],[110.97093597800006,38.97057333300006],[111.06902513200004,39.00353140300007],[111.11043558200004,39.05531380600007],[111.12744349700006,39.10423678300003],[111.13598695800005,39.13176049000003],[111.16158400800003,39.20820563800004],[111.17424182800005,39.23569193700007],[111.25223533100007,39.262569685000074],[111.24032545200004,39.28414980100007],[111.17502575100008,39.28782105200003],[111.20451437400004,39.34583365800006],[111.11432323400004,39.32823578800003],[111.09801551300006,39.33143989700005],[111.08602416000008,39.34994183800006],[111.13582294800005,39.40165625900005],[111.18877340200004,39.38585168000003],[111.22962280800004,39.382407116000024],[111.32808843000004,39.39983959600005],[111.33674599600005,39.427359660000036],[111.34536778000006,39.451809955000044],[111.36212164600005,39.473109882000074],[111.39919560000004,39.48499037500005],[111.43315167900005,39.54904636600003],[111.43372267000007,39.57971339800008],[111.39720999400004,39.601583651000055],[111.37707881700004,39.623268333000055],[111.43492333500006,39.64412833400007],[111.57029743100009,39.639506777000065],[111.68103076900007,39.63506926100007],[111.79995492900008,39.63042296100008],[111.86575027900005,39.63564267600003]]]}},{"type":"Feature","properties":{"code":"CN014100","name":"Yangquan","label":"Yangquan · 阳泉市","type":"Prefecture-level city","parentCode":"CN-SX"},"geometry":{"type":"Polygon","coordinates":[[[113.96155269600001,37.718450794000034],[113.92198981900003,37.682871539000075],[113.89006341900006,37.69541854300007],[113.83991470100011,37.69390325400008],[113.79989520200002,37.66766956300006],[113.7657046060001,37.66135696200007],[113.73112528800004,37.676215486000046],[113.68704240600005,37.68337229400004],[113.65541567500009,37.66179608300007],[113.60180284300009,37.66722343600003],[113.55619349300002,37.67814900400003],[113.50987118600005,37.67436838800006],[113.47493241100005,37.68048865900005],[113.42879051800003,37.71059010400006],[113.42617877600003,37.73915949800005],[113.38846049200004,37.763618517000054],[113.36096403500005,37.803028349000044],[113.34606399200004,37.82945384900006],[113.3339701000001,37.86264738600005],[113.32309414300005,37.89813486500003],[113.31274003600004,37.948821001000056],[113.28833362800003,37.98174565700003],[113.24636120200012,38.009963662000075],[113.22643590100006,38.05222414000008],[113.20704025700002,38.088983761000065],[113.17452305000006,38.07642369200005],[113.14512744100011,38.046269761000076],[113.10185913900011,38.06499714100005],[113.05759328400006,38.07274709600006],[113.020559047,38.06862388700006],[112.99183991500001,38.092041719000065],[112.93609345200002,38.09748499900007],[112.88897966700006,38.12314414300005],[112.8857891350001,38.16137813600005],[112.90862692400003,38.19836047700005],[112.94668470900001,38.22955228500007],[112.99104987600003,38.25216744000005],[113.03411378500005,38.27253858300003],[113.06598594000002,38.29161972600008],[113.09323270800007,38.33205260400007],[113.12023207200002,38.37663594800006],[113.112031161,38.410551155000064],[113.16490348600007,38.406976290000046],[113.21195987800002,38.41698206800004],[113.244950345,38.448394508000035],[113.2779724080001,38.47790776900007],[113.33138648300007,38.503993550000075],[113.38533538600007,38.517671309000036],[113.42223399800002,38.518976044000055],[113.47600542100008,38.51537274400005],[113.52198366300001,38.52010518600008],[113.53333432800002,38.472374142000035],[113.52380300100003,38.43194764000003],[113.50839074600003,38.38987078400004],[113.50335846900009,38.34405428900004],[113.51447428900008,38.29437837300003],[113.50798252900006,38.274198316000025],[113.51557587200011,38.25814945900004],[113.57088955100005,38.210210000000075],[113.64768136500004,38.21300790600003],[113.66070506100004,38.21979661000006],[113.71860866600002,38.182333689000075],[113.7058474800001,38.15081838000003],[113.78015740500007,38.150944372000026],[113.79607340700011,38.141752945000064],[113.787398929,38.096026323000046],[113.78790286800006,38.09470431700004],[113.80429390200004,38.051493203000064],[113.83566091900002,38.02252209000005],[113.8290187770001,37.969689430000074],[113.84452273800002,37.95079069700006],[113.86320935800006,37.924752030000036],[113.90273419700009,37.89910469400007],[113.92668771600006,37.86057175800005],[113.93379979600002,37.83567624900007],[113.96180980400004,37.81293436000004],[113.99363035300007,37.79892505500004],[114.00954431600007,37.792359643000054],[114.00984961400002,37.77115448400008],[113.99389723800005,37.747697628000026],[113.96155269600001,37.718450794000034]]]}},{"type":"Feature","properties":{"code":"CN014110","name":"Yuncheng","label":"Yuncheng · 运城市","type":"Prefecture-level city","parentCode":"CN-SX"},"geometry":{"type":"Polygon","coordinates":[[[111.92983086700008,35.59837326000007],[111.93579224900009,35.56093806700005],[111.94266406100007,35.528963660000045],[111.94516643300005,35.49123973700006],[111.94726747400006,35.449451587000055],[111.94289673700007,35.400990999000044],[111.98590404900006,35.374413627000024],[112.01426230900006,35.35438919200004],[112.03366576600001,35.32598858500006],[112.04619219300002,35.27033937600004],[112.03954050300001,35.27026288600007],[112.01923570200006,35.25720718900004],[112.0175795340001,35.21658952100006],[112.02259860900006,35.17502825100007],[112.03715216900002,35.09627852600005],[112.02554044300007,35.061932558000024],[112.0020088980001,35.04313625000003],[111.97429118800005,35.07370601300005],[111.95556296200004,35.08404664900007],[111.89224568500003,35.08251658700004],[111.82247805800006,35.076030126000035],[111.79374534900006,35.063902023000026],[111.77438058400008,35.04660719800006],[111.75808224900004,35.02425277200007],[111.72594428000008,34.99960054500008],[111.65275205100005,34.97550256000005],[111.64577914000006,34.94295949600007],[111.60116903000005,34.91667714000005],[111.59146550800006,34.911043875000075],[111.55225644700005,34.84125056900007],[111.53310139200005,34.82893902100005],[111.46976184900007,34.814648721000026],[111.36870161500008,34.805772123000054],[111.34660637500008,34.80350940000005],[111.27387932100004,34.78922028900007],[111.21384321500005,34.77979070600003],[111.17585230800006,34.76760503000003],[111.12546949300008,34.77058918700004],[111.10964686800008,34.76571345800005],[111.05876509600006,34.72850759600004],[111.00461444600006,34.71408982200006],[110.93863738300007,34.689321207000035],[110.88512454600004,34.68972374800006],[110.86608532500009,34.674795379000045],[110.83440847500009,34.65493318500006],[110.70513948400009,34.62311733800004],[110.65457400200006,34.59076737600003],[110.59785710100005,34.57348444400003],[110.42507543400006,34.59430695900005],[110.38730964500007,34.58690448400006],[110.34018462500006,34.59458385800008],[110.26791140600005,34.60732642800008],[110.25849452900007,34.61738860000003],[110.23967596900007,34.63751051700007],[110.23668866400004,34.70780740200007],[110.23990725600004,34.737924778000036],[110.23045887300009,34.73794411400007],[110.24958409800007,34.83078094000007],[110.23715250900005,34.90610910400005],[110.24673107000007,34.95126603700004],[110.26576025100007,34.98134269900004],[110.28163232000009,35.003894057000025],[110.30385244900003,35.03646446300007],[110.31029060900005,35.07158332300003],[110.31349943400005,35.081612171000074],[110.31694611500006,35.169441332000076],[110.33616847300004,35.22961640700004],[110.36168862600005,35.27219874800005],[110.37125809300005,35.28471992300007],[110.40307615200004,35.309706712000036],[110.44776218400006,35.35973598800007],[110.47672125000008,35.43238727900007],[110.50242659300005,35.48246748200006],[110.52808104300004,35.51748488900006],[110.56019010300008,35.562501533000045],[110.55735647100005,35.61771261300004],[110.56083856200007,35.66285692500003],[110.55145545000005,35.690498674000025],[110.62547117700007,35.714107857000045],[110.64413795700005,35.73828626300008],[110.70115167300008,35.720897636000075],[110.72820683500004,35.70123847800005],[110.76371968500007,35.692771194000045],[110.80661275600005,35.70023212500007],[110.91006351400006,35.688936589000036],[110.96216625900007,35.73331075600004],[111.00243873600004,35.69504365200004],[111.04101875600008,35.70291545900005],[111.03812076600008,35.740135536000025],[111.05425061000005,35.78587525800003],[111.11151241900006,35.80667715200008],[111.13677845300003,35.784883799000056],[111.16322944700005,35.75739799000007],[111.18371642800008,35.715464428000075],[111.20009245600005,35.67960736300006],[111.24923315700005,35.676053574000036],[111.29432877400006,35.67142379500007],[111.26846696300004,35.63956736000006],[111.22271177600004,35.605892863000065],[111.22228423400009,35.56240227200004],[111.24345061600008,35.541015651000066],[111.30086259300003,35.531499316000065],[111.39520527800005,35.55759356800007],[111.42558700200004,35.57580913400005],[111.45776035800009,35.55942969800003],[111.51539782800006,35.565481102000035],[111.55231700500008,35.57278589300006],[111.57829381100004,35.603481317000046],[111.59438074200006,35.645060983000064],[111.64938482500008,35.62449539200003],[111.68973434500003,35.62925788100006],[111.73104426000003,35.58949263400007],[111.79431302100005,35.594732660000034],[111.83349919000005,35.584891809000055],[111.88638644200006,35.59558988400005],[111.92983086700008,35.59837326000007]]]}}]}
