{"type":"FeatureCollection","name":"admin2_chn_cn-tj","adm0A3":"CHN","parentCode":"CN-TJ","parentName":"Tianjin","bbox":[116.65788814000007,38.54897577300005,118.02628962500012,40.194066159000045],"features":[{"type":"Feature","properties":{"code":"CN012010","name":"Tianjin Municipality","label":"Tianjin Municipality · 天津市","type":"Municipality","parentCode":"CN-TJ"},"geometry":{"type":"Polygon","coordinates":[[[117.57477190300006,40.169988104000026],[117.59890247100009,40.12269266200008],[117.62303176600005,40.07664049600004],[117.65686194800003,40.055038040000056],[117.7018875770001,40.04886915000003],[117.73698754300005,40.03968031800008],[117.74945193700012,40.021083014000055],[117.7327163430001,39.99882898900006],[117.73820831600005,39.98242750500003],[117.75856865000003,39.970520374000046],[117.7725298360001,39.96612655300004],[117.77534223300006,39.94632911400004],[117.76560691300006,39.92665381300003],[117.70900835100008,39.93311666300008],[117.64071651500001,39.95520755900003],[117.50238589000003,39.967490551000026],[117.48755649600002,39.934577741000055],[117.48568432200011,39.91341788900007],[117.49472024600004,39.89437203700004],[117.49190126500002,39.875915605000046],[117.49388982100004,39.858106544000066],[117.51169804100005,39.81737082600006],[117.54818771400005,39.78632199800006],[117.54937599700008,39.75969673700007],[117.54692650900006,39.74565030400004],[117.55647052100005,39.73027248000005],[117.55628920900006,39.72849462100004],[117.55264965300012,39.71619820900003],[117.55394597000009,39.705408533000025],[117.56220015500003,39.69243348100008],[117.58251498900006,39.680555678000076],[117.6178098800001,39.67495258900004],[117.62586049400011,39.66020100000003],[117.61765879600011,39.626733640000054],[117.59539913700007,39.59585901100007],[117.59449246700001,39.58698405000007],[117.59815846100003,39.57605390300006],[117.60711562100005,39.57018341100007],[117.6658054940001,39.56810142300003],[117.68269413000007,39.56223553600006],[117.65988189600012,39.526053915000034],[117.67101966500002,39.51826413300006],[117.69163924000009,39.533140348000074],[117.70021432100009,39.54692827700006],[117.70736148100002,39.592960395000034],[117.75064224000005,39.59578616400006],[117.79500763600004,39.586028930000055],[117.85122820400011,39.57555704500004],[117.88096011700009,39.56307027400004],[117.88306587300008,39.54063595100007],[117.88548676800008,39.51564470900007],[117.87828424100007,39.46379106200004],[117.86029133200009,39.42312592600007],[117.85321840600011,39.39782003100004],[117.84662179700001,39.37780622100007],[117.84202853900001,39.36653419500004],[117.87243627100008,39.375552957000025],[117.92041480600005,39.38274325500004],[117.97808728100006,39.36725356800008],[118.00164095500008,39.35359141600003],[118.01088934400002,39.32651937600008],[118.0143568960001,39.28826117600005],[118.01822157600009,39.266797145000055],[118.02011695100009,39.26044267900005],[118.02628962500012,39.23980083200007],[118.01724744600006,39.22467116400003],[117.98087451000004,39.22003826000008],[117.9625685640001,39.21681646600007],[117.9406675670001,39.21088692400008],[117.93269493600008,39.210556231000055],[117.91425474900007,39.20975733100005],[117.8844531530001,39.20016398100006],[117.85508047500002,39.18845223500006],[117.8363259670001,39.17979530100007],[117.82514398800004,39.17216925400004],[117.82159451900009,39.17130309800007],[117.8090581460001,39.165699664000044],[117.79044495400001,39.14692020000007],[117.7756704300001,39.13062233100004],[117.76347672800011,39.11598526100005],[117.74772231200006,39.114155854000046],[117.69909076900001,39.094324725000035],[117.70146355100007,39.081579016000035],[117.71155163500009,39.062108256000045],[117.71765547100006,39.05095290600008],[117.71855224700005,39.03558787700007],[117.71413207600006,39.02682985000007],[117.70781354300004,39.01096200400008],[117.71621230500011,38.99878485100004],[117.73207775900005,38.98223731000007],[117.7296826170001,38.98013574200007],[117.72634950000008,38.97998840400004],[117.71856677200003,38.98588193000006],[117.70259859100008,38.986271558000055],[117.70040816400001,38.98463774100003],[117.70906439900011,38.973448337000036],[117.69696504800004,38.97282286900003],[117.69100122600003,38.96054038200003],[117.67200548800008,38.92465302700003],[117.66436306900005,38.907057304000034],[117.66338835600004,38.906224171000076],[117.6598443360001,38.90766174600003],[117.65794531100005,38.908427904000064],[117.6449959250001,38.894211410000025],[117.63182521200008,38.879712623000046],[117.6176828350001,38.86818673100004],[117.60028138500002,38.848419791000026],[117.58577921900007,38.83389826100006],[117.5773102490001,38.81994670200004],[117.57417267100004,38.79940022000005],[117.57331880400011,38.790444928000056],[117.5408998690001,38.76247900800007],[117.55479508100007,38.745515459000046],[117.55437250700004,38.73613478600004],[117.54871208400004,38.73623545000004],[117.54562453100004,38.69985275100004],[117.54242565600009,38.68782341000008],[117.53463637900006,38.68537759600008],[117.52546539800005,38.68502398500004],[117.52153638100003,38.68634348000006],[117.53187007000008,38.66270046400007],[117.53013188500006,38.66038947900006],[117.52515371800007,38.645349225000075],[117.51586952600007,38.62243564100004],[117.50794704000009,38.60125275300004],[117.52017765200003,38.58956091400006],[117.51232935500002,38.59057820800007],[117.46091518200001,38.59141211600007],[117.43444595900007,38.58300826800007],[117.39419525100004,38.56378913700007],[117.36774873400009,38.55537603600004],[117.32118711800001,38.557684497000025],[117.28304909200006,38.56309732200003],[117.2280743340001,38.54897577300005],[117.20952048900006,38.550760454000056],[117.18201462100001,38.571556548000046],[117.20328130700011,38.58822089100005],[117.22601572300005,38.60834774700004],[117.19440103000011,38.622266968000076],[117.16023952600005,38.61948988800003],[117.11982761400009,38.59181543200003],[117.11436751300005,38.58807040800008],[117.1081165700001,38.58306502500005],[117.0325729870001,38.60344900000007],[117.03245218600011,38.63087554500004],[117.02569098300012,38.66304133300008],[117.00262110100005,38.68181740700004],[116.94989802700002,38.681619914000066],[116.90033971600008,38.67683736400005],[116.86912082700007,38.68180622500006],[116.82943964700007,38.68361992500007],[116.81949839200001,38.69114612100003],[116.80425619700009,38.705987820000075],[116.78036285700011,38.715029525000034],[116.74863420800011,38.72884332600006],[116.73296933600011,38.73838826800005],[116.72513788800006,38.74730927600007],[116.71356907200004,38.76048121300005],[116.6790162750001,38.79916240500006],[116.67460631600011,38.82616913800007],[116.67103086500003,38.848160773000075],[116.66941657600012,38.90395083800007],[116.66166660800002,38.925521305000075],[116.65788814000007,38.95310357400007],[116.67946450900001,38.99210926000006],[116.72754871300003,39.00035253500005],[116.74484542100004,39.00838727300004],[116.83480503100009,39.03407559200008],[116.88765985700002,39.042018932000076],[116.907657545,39.05346084200005],[116.91555182900004,39.06196928400004],[116.91888787200003,39.07249973300003],[116.91816535100008,39.090381527000034],[116.91271817300003,39.108520971000075],[116.90216433,39.11991948300005],[116.89292873300008,39.130973073000064],[116.85503000900007,39.14331972700006],[116.83294230700005,39.16201152300005],[116.80524470800003,39.18449623400005],[116.81920761200001,39.19713475300006],[116.8259979390001,39.22337336100003],[116.83768080300001,39.26707870200005],[116.84592781300012,39.281746276000035],[116.83176311000011,39.31158347100006],[116.82456724200006,39.325181728000075],[116.80732083900011,39.33126546300008],[116.79002476200003,39.351510088000055],[116.79374954700006,39.39911714900006],[116.81101738000007,39.42311787700004],[116.83763211600001,39.43076427600005],[116.80387024000004,39.452639189000024],[116.79262897500007,39.475259067000025],[116.77507106400003,39.507899260000045],[116.76874238200003,39.53295655100004],[116.77200130200004,39.54431367600006],[116.78116608700009,39.55540787600006],[116.78749921600001,39.56226612900008],[116.80318026600003,39.579201383000054],[116.81041584200011,39.61073403700004],[116.84170080700005,39.646502663000035],[116.90120790900005,39.680328005000035],[116.92227754600003,39.67565769300006],[116.9206309540001,39.65788874100008],[116.92578394700001,39.63619421800007],[116.93971522600009,39.63189409000006],[116.97603024400007,39.63712439600005],[117.01968681900007,39.61875116700003],[117.12609910700007,39.582704972000045],[117.14960238900005,39.61191186000008],[117.14481413400006,39.62541499900004],[117.14250870500007,39.640571514000044],[117.13910838200002,39.670823933000065],[117.1470773530001,39.709397258000024],[117.16658802100005,39.72971933500003],[117.17161331400007,39.73302271500006],[117.15229758200007,39.771999067000024],[117.14345895800011,39.79238031300008],[117.17424756500009,39.81045865300007],[117.2031749030001,39.812465925000026],[117.23279707000006,39.82156292700006],[117.2198860310001,39.836560776000056],[117.19094364000011,39.83455737500003],[117.16268784200008,39.839657567000074],[117.13478026500002,39.84830402500006],[117.1165500300001,39.883216213000026],[117.11160866600005,39.90669649700004],[117.11314269600007,39.92269190800005],[117.1296726270001,39.94502178500005],[117.16173501800006,39.97901706300007],[117.18001046400002,40.01911699100003],[117.19727326700001,40.04855135200006],[117.22068632600008,40.06693062200003],[117.21415744800004,40.084914549000075],[117.21451475100002,40.086008965000076],[117.24440984600005,40.114688700000045],[117.26583086000005,40.12783713600004],[117.31889546800005,40.11996418600006],[117.36724735700011,40.135466214000076],[117.32554440000001,40.169237612000074],[117.31989510500011,40.173054310000055],[117.31470775600008,40.180915139000035],[117.3819517070001,40.190289911000036],[117.44251908400008,40.194066159000045],[117.52870020000012,40.18922826200003],[117.56423881900002,40.183632818000035],[117.57477190300006,40.169988104000026]]]}}]}
