{"type":"FeatureCollection","name":"admin2_aus_au-act","adm0A3":"AUS","parentCode":"AU-ACT","parentName":"Australian Capital Territory","bbox":[148.762796,-35.920517,149.399293,-35.124403],"features":[{"type":"Feature","properties":{"code":"AU-LGA-89399","name":"Unincorporated ACT","label":"Unincorporated ACT","type":"Unincorporated area","parentCode":"AU-ACT"},"geometry":{"type":"Polygon","coordinates":[[[148.803735,-35.316755],[148.801075,-35.321758],[148.801718,-35.329162],[148.793552,-35.339109],[148.7993,-35.350357],[148.79925,-35.35428],[148.796704,-35.358401],[148.799559,-35.358959],[148.801494,-35.362597],[148.805702,-35.365143],[148.80407,-35.376191],[148.805303,-35.378901],[148.808638,-35.380652],[148.808665,-35.382442],[148.804793,-35.385098],[148.803616,-35.388807],[148.795693,-35.39299],[148.795982,-35.406624],[148.7858,-35.408898],[148.786292,-35.412778],[148.790163,-35.415637],[148.787617,-35.423185],[148.788922,-35.426482],[148.784211,-35.432361],[148.781034,-35.433327],[148.777716,-35.440029],[148.774846,-35.441822],[148.773019,-35.449485],[148.775991,-35.454874],[148.772882,-35.462378],[148.767158,-35.465481],[148.766747,-35.467168],[148.766852,-35.471183],[148.770567,-35.475593],[148.770256,-35.478532],[148.774387,-35.486132],[148.765191,-35.490884],[148.762796,-35.495486],[148.765194,-35.505257],[148.768326,-35.508265],[148.766056,-35.510888],[148.767978,-35.524966],[148.772254,-35.529839],[148.769413,-35.543679],[148.777954,-35.558507],[148.77853,-35.563518],[148.772945,-35.567785],[148.782562,-35.58124],[148.78613,-35.582461],[148.788779,-35.588327],[148.783197,-35.595393],[148.774524,-35.597986],[148.772168,-35.601385],[148.768439,-35.603293],[148.772671,-35.609429],[148.77907,-35.614786],[148.780628,-35.620324],[148.779627,-35.623726],[148.783448,-35.628497],[148.780385,-35.632989],[148.770863,-35.640021],[148.771367,-35.645845],[148.767504,-35.6474],[148.770193,-35.649861],[148.772833,-35.650034],[148.77221,-35.653678],[148.773508,-35.655489],[148.783348,-35.656278],[148.786095,-35.65738],[148.787598,-35.660577],[148.79056,-35.659307],[148.798454,-35.666583],[148.797507,-35.680413],[148.791381,-35.689633],[148.791403,-35.693308],[148.788448,-35.697794],[148.791103,-35.703412],[148.796288,-35.709339],[148.81278,-35.71974],[148.818754,-35.718705],[148.8225,-35.720958],[148.823581,-35.7242],[148.828998,-35.727691],[148.835797,-35.74191],[148.847085,-35.750514],[148.854048,-35.751191],[148.856089,-35.753532],[148.855671,-35.760946],[148.859662,-35.760637],[148.862447,-35.757512],[148.860736,-35.752837],[148.861426,-35.75017],[148.863938,-35.74798],[148.864878,-35.742365],[148.867451,-35.738675],[148.864066,-35.73386],[148.868614,-35.731036],[148.872491,-35.721415],[148.87772,-35.714949],[148.885019,-35.717922],[148.889373,-35.722775],[148.892479,-35.730454],[148.888381,-35.733683],[148.888079,-35.737046],[148.890918,-35.740665],[148.894104,-35.751326],[148.898827,-35.751291],[148.903325,-35.757924],[148.902305,-35.763279],[148.894868,-35.771865],[148.895,-35.78465],[148.897783,-35.794646],[148.893159,-35.799308],[148.886684,-35.810051],[148.892521,-35.816597],[148.89661,-35.817892],[148.897641,-35.824692],[148.903612,-35.826083],[148.907069,-35.829566],[148.906602,-35.832053],[148.903154,-35.835262],[148.905317,-35.839645],[148.903994,-35.842513],[148.907912,-35.847863],[148.909451,-35.853061],[148.92005,-35.857232],[148.919818,-35.860735],[148.930351,-35.868123],[148.932166,-35.872889],[148.940555,-35.875789],[148.94456,-35.881408],[148.958372,-35.891703],[148.959184,-35.895401],[148.961605,-35.896708],[148.966301,-35.897167],[148.967764,-35.893993],[148.975662,-35.892163],[148.987979,-35.895625],[148.997668,-35.896414],[148.997403,-35.900982],[148.999423,-35.902664],[149.0124,-35.899611],[149.022888,-35.905967],[149.027774,-35.912723],[149.034038,-35.911016],[149.03632,-35.91375],[149.03997,-35.913858],[149.044073,-35.91628],[149.046386,-35.920517],[149.049049,-35.920196],[149.054876,-35.91393],[149.05725,-35.907319],[149.051786,-35.902089],[149.061743,-35.891435],[149.060145,-35.88828],[149.062382,-35.884503],[149.061524,-35.88006],[149.064289,-35.874934],[149.074323,-35.865761],[149.076835,-35.860559],[149.079762,-35.858945],[149.082199,-35.853106],[149.084537,-35.852207],[149.084209,-35.850189],[149.095693,-35.845624],[149.09539,-35.839106],[149.092993,-35.838228],[149.092052,-35.835367],[149.094564,-35.830751],[149.093577,-35.824099],[149.095926,-35.817573],[149.100605,-35.814691],[149.100483,-35.81001],[149.098268,-35.807923],[149.10151,-35.80364],[149.099837,-35.803259],[149.096765,-35.798167],[149.1002,-35.794049],[149.100329,-35.790296],[149.096129,-35.787202],[149.093481,-35.787217],[149.093148,-35.783177],[149.097376,-35.777429],[149.091636,-35.773934],[149.093277,-35.770765],[149.090715,-35.765604],[149.09331,-35.762646],[149.092931,-35.759106],[149.096405,-35.752811],[149.09507,-35.750388],[149.096988,-35.747359],[149.09562,-35.74598],[149.096234,-35.743638],[149.100692,-35.736291],[149.099104,-35.729275],[149.104104,-35.724969],[149.099355,-35.714646],[149.102259,-35.707225],[149.107482,-35.702294],[149.109423,-35.696573],[149.105939,-35.691135],[149.10376,-35.690712],[149.104387,-35.684856],[149.099425,-35.68387],[149.095304,-35.679267],[149.094966,-35.676811],[149.097276,-35.673592],[149.095898,-35.661428],[149.09854,-35.6572],[149.095394,-35.653009],[149.097485,-35.647282],[149.095634,-35.640322],[149.089048,-35.641045],[149.087568,-35.63964],[149.08651,-35.635865],[149.088591,-35.634079],[149.087879,-35.627892],[149.084195,-35.621664],[149.084531,-35.61463],[149.07924,-35.607736],[149.078153,-35.586404],[149.082928,-35.584581],[149.08462,-35.580802],[149.109153,-35.584073],[149.110458,-35.58712],[149.112477,-35.585172],[149.125623,-35.587476],[149.12604,-35.591839],[149.130061,-35.59239],[149.130351,-35.590966],[149.142687,-35.592776],[149.135853,-35.571243],[149.134758,-35.571168],[149.135755,-35.570889],[149.131459,-35.55359],[149.150657,-35.509806],[149.151616,-35.493187],[149.144674,-35.475901],[149.138607,-35.468298],[149.135098,-35.454021],[149.137299,-35.451704],[149.142423,-35.45104],[149.143414,-35.447106],[149.14629,-35.44507],[149.152446,-35.443402],[149.155102,-35.43616],[149.152356,-35.433403],[149.140597,-35.434092],[149.138469,-35.428488],[149.14407,-35.424228],[149.147194,-35.414212],[149.157329,-35.407159],[149.184398,-35.378331],[149.207167,-35.345286],[149.218761,-35.341329],[149.230535,-35.342711],[149.243075,-35.335685],[149.247551,-35.330662],[149.25475,-35.330108],[149.258581,-35.331956],[149.262494,-35.33131],[149.268379,-35.335054],[149.281725,-35.338063],[149.295424,-35.333158],[149.293668,-35.332122],[149.301788,-35.333298],[149.304826,-35.335741],[149.336419,-35.339714],[149.347881,-35.350465],[149.356044,-35.350636],[149.364463,-35.347719],[149.365053,-35.342194],[149.36686,-35.339991],[149.390185,-35.331043],[149.398041,-35.325239],[149.397182,-35.324238],[149.399293,-35.319077],[149.397207,-35.3173],[149.397286,-35.31099],[149.394503,-35.309178],[149.394791,-35.303176],[149.386585,-35.303405],[149.384181,-35.304336],[149.383702,-35.306458],[149.373798,-35.3048],[149.369897,-35.30825],[149.361671,-35.309012],[149.359664,-35.307525],[149.361931,-35.304281],[149.360959,-35.301592],[149.350558,-35.299345],[149.35051,-35.295939],[149.348085,-35.293466],[149.348875,-35.292056],[149.343216,-35.292035],[149.341504,-35.28669],[149.337704,-35.286958],[149.33633,-35.288724],[149.334777,-35.28629],[149.327567,-35.282389],[149.32544,-35.283449],[149.324586,-35.286375],[149.322482,-35.286727],[149.31627,-35.281775],[149.315306,-35.276218],[149.309774,-35.278256],[149.309066,-35.276194],[149.305422,-35.275519],[149.305772,-35.27398],[149.298468,-35.272144],[149.289299,-35.275686],[149.285439,-35.271618],[149.279633,-35.270639],[149.277027,-35.271325],[149.275383,-35.275038],[149.271813,-35.273472],[149.273184,-35.259166],[149.257335,-35.25719],[149.253017,-35.252218],[149.250659,-35.252227],[149.249435,-35.24717],[149.241873,-35.246347],[149.234379,-35.242779],[149.234556,-35.240457],[149.241248,-35.236742],[149.24294,-35.231317],[149.245959,-35.230702],[149.246799,-35.229137],[149.245537,-35.22671],[149.234398,-35.22099],[149.23172,-35.221989],[149.225805,-35.2193],[149.219994,-35.220694],[149.21379,-35.219593],[149.209768,-35.226478],[149.204992,-35.229087],[149.202461,-35.224613],[149.206104,-35.216256],[149.207561,-35.216034],[149.208523,-35.211499],[149.2059,-35.211554],[149.197774,-35.202523],[149.189548,-35.203311],[149.191502,-35.198491],[149.190292,-35.19434],[149.196394,-35.190929],[149.197041,-35.185355],[149.191421,-35.179242],[149.185885,-35.177888],[149.183646,-35.175656],[149.189078,-35.165511],[149.185612,-35.161109],[149.176544,-35.158234],[149.167584,-35.159739],[149.167632,-35.158227],[149.162435,-35.153751],[149.165221,-35.150128],[149.163184,-35.146753],[149.164284,-35.141892],[149.159176,-35.141587],[149.156078,-35.144419],[149.146732,-35.14454],[149.149298,-35.141812],[149.149618,-35.138393],[149.144881,-35.134416],[149.140722,-35.135799],[149.13883,-35.134777],[149.140138,-35.13038],[149.138992,-35.12797],[149.132059,-35.128511],[149.126454,-35.12531],[149.120953,-35.124403],[149.112658,-35.127699],[149.109684,-35.131096],[149.10415,-35.132118],[149.102579,-35.135211],[149.093158,-35.138724],[149.091344,-35.142071],[148.81014,-35.307436],[148.803735,-35.316755]]]}}]}
