{"type":"FeatureCollection","name":"admin2_usa_us-ks","adm0A3":"USA","parentCode":"US-KS","parentName":"Kansas","bbox":[-102.051744,36.993083,-94.589933,40.003162],"features":[{"type":"Feature","properties":{"code":"US-20001","name":"Allen","label":"Allen County","type":"County","parentCode":"US-KS"},"geometry":{"type":"Polygon","coordinates":[[[-95.524862,37.820285],[-95.525499,37.732759],[-95.460449,37.732948],[-95.361324,37.732811],[-95.124987,37.733924],[-95.088082,37.732476],[-95.087943,37.819697],[-95.080098,37.877909],[-95.077876,38.037706],[-95.280854,38.038026],[-95.51897,38.03823],[-95.519163,37.979165],[-95.519308,37.820259],[-95.524862,37.820285]]]}},{"type":"Feature","properties":{"code":"US-20003","name":"Anderson","label":"Anderson County","type":"County","parentCode":"US-KS"},"geometry":{"type":"Polygon","coordinates":[[[-95.516757,38.259296],[-95.51897,38.03823],[-95.280854,38.038026],[-95.077876,38.037706],[-95.076751,38.182665],[-95.075459,38.258714],[-95.065103,38.258648],[-95.065831,38.389945],[-95.304024,38.390097],[-95.508328,38.390278],[-95.507474,38.259248],[-95.516757,38.259296]]]}},{"type":"Feature","properties":{"code":"US-20005","name":"Atchison","label":"Atchison County","type":"County","parentCode":"US-KS"},"geometry":{"type":"Polygon","coordinates":[[[-95.570131,39.525528],[-95.570351,39.41905],[-95.180891,39.419218],[-94.9688486217732,39.4190729027552],[-94.972952,39.421705],[-94.976606,39.426701],[-94.978798,39.436241],[-94.982144,39.440552],[-94.990172,39.446192],[-94.995768,39.448174],[-95.015825,39.452809],[-95.028498,39.458287],[-95.033408,39.460876],[-95.0375,39.463689],[-95.04078,39.466387],[-95.045716,39.472459],[-95.047133,39.474971],[-95.04837,39.48042],[-95.049845,39.494415],[-95.050552,39.497514],[-95.052177,39.499996],[-95.05638,39.503972],[-95.059461,39.506143],[-95.077441,39.513552],[-95.082714,39.516712],[-95.092704,39.524241],[-95.102888,39.533347],[-95.106596,39.537657],[-95.109304,39.542285],[-95.113557,39.553941],[-95.113077,39.559133],[-95.1128916750452,39.559617817728],[-95.107454,39.573843],[-95.106406,39.575252],[-95.103228,39.577783],[-95.099095,39.579691],[-95.095736,39.580618],[-95.089515,39.581028],[-95.076688,39.576764],[-95.07216,39.576122],[-95.069315,39.576218],[-95.064519,39.577115],[-95.059519,39.579132],[-95.056897,39.580567],[-95.054804,39.582488],[-95.049277,39.589583],[-95.047165,39.595117],[-95.046361,39.599557],[-95.046445,39.601606],[-95.047911,39.606288],[-95.053012,39.613965],[-95.05338996101,39.6153235402286],[-95.08544,39.615074],[-95.098006,39.620871],[-95.115189,39.652549],[-95.227518,39.652959],[-95.33974,39.65298],[-95.564126,39.652872],[-95.564314,39.565858],[-95.570348,39.56587],[-95.570131,39.525528]]]}},{"type":"Feature","properties":{"code":"US-20007","name":"Barber","label":"Barber County","type":"County","parentCode":"US-KS"},"geometry":{"type":"Polygon","coordinates":[[[-99.012598,37.470421],[-99.011499,37.384263],[-99.001294,37.384296],[-99.002142,37.280412],[-99.0003029130325,36.9995103040991],[-98.994371,36.999493],[-98.88058,36.999309],[-98.880009,36.999263],[-98.869449,36.999286],[-98.797452,36.999229],[-98.793711,36.999227],[-98.791936,36.999255],[-98.761597,36.999425],[-98.718465,36.99918],[-98.714512,36.99906],[-98.6518419384536,36.9990367259262],[-98.544872,36.998997],[-98.5446600848551,36.9989961823461],[-98.420209,36.998516],[-98.418268,36.998538],[-98.408991,36.998513],[-98.354073,36.997961],[-98.3471489755077,36.9979618781261],[-98.348847,37.239091],[-98.349804,37.384056],[-98.464951,37.384086],[-98.464663,37.471013],[-99.012598,37.470421]]]}},{"type":"Feature","properties":{"code":"US-20009","name":"Barton","label":"Barton County","type":"County","parentCode":"US-KS"},"geometry":{"type":"Polygon","coordinates":[[[-99.032971,38.696759],[-99.032408,38.348334],[-99.032309,38.261227],[-99.022472,38.261208],[-98.932864,38.261253],[-98.912583,38.261088],[-98.802819,38.260942],[-98.66398,38.260965],[-98.479841,38.26079],[-98.480114,38.347451],[-98.480377,38.521841],[-98.479913,38.681528],[-98.479958,38.696916],[-98.486108,38.696878],[-98.719946,38.696725],[-99.032971,38.696759]]]}},{"type":"Feature","properties":{"code":"US-20011","name":"Bourbon","label":"Bourbon County","type":"County","parentCode":"US-KS"},"geometry":{"type":"Polygon","coordinates":[[[-95.088082,37.732476],[-95.088012,37.674519],[-94.739846,37.674028],[-94.6177338243197,37.6731053668666],[-94.617734,37.673127],[-94.617885,37.682214],[-94.617687,37.686653],[-94.617651,37.687671],[-94.617805,37.690178],[-94.617975,37.722176],[-94.617808,37.729707],[-94.617721,37.77297],[-94.6176675049556,37.7758649599915],[-94.616862,37.819456],[-94.61645,37.83756],[-94.616426,37.845282],[-94.6162739486859,37.8516510226485],[-94.616,37.863126],[-94.615834,37.87251],[-94.6159206194096,37.8783055354428],[-94.615921,37.878331],[-94.615706,37.886843],[-94.615469,37.901775],[-94.615393,37.906392],[-94.615181,37.915944],[-94.614778,37.9342],[-94.614835,37.9367],[-94.614754,37.940769],[-94.614612,37.944362],[-94.614594,37.949978],[-94.614562,37.951517],[-94.614557,37.971037],[-94.614465,37.987799],[-94.614212,37.992462],[-94.613981,38.036949],[-94.6139813464919,38.0370573442828],[-95.077876,38.037706],[-95.080098,37.877909],[-95.087943,37.819697],[-95.088082,37.732476]]]}},{"type":"Feature","properties":{"code":"US-20013","name":"Brown","label":"Brown County","type":"County","parentCode":"US-KS"},"geometry":{"type":"Polygon","coordinates":[[[-95.788925,39.776326],[-95.788941,39.653001],[-95.620418,39.652808],[-95.564126,39.652872],[-95.33974,39.65298],[-95.339657,39.900291],[-95.339896,39.999999],[-95.375257,40],[-95.5653760293498,40.0002150531142],[-95.6713680045858,40.0003349459225],[-95.784575,40.000463],[-95.788024,40.000452],[-95.7881114096839,40.0004520166495],[-95.788925,39.776326]]]}},{"type":"Feature","properties":{"code":"US-20015","name":"Butler","label":"Butler County","type":"County","parentCode":"US-KS"},"geometry":{"type":"Polygon","coordinates":[[[-97.153022,37.519258],[-97.153331,37.475544],[-96.751907,37.475667],[-96.715121,37.475375],[-96.52569,37.476405],[-96.5253,37.607015],[-96.525745,37.811582],[-96.522782,38.08637],[-96.840772,38.085622],[-97.152913,38.087704],[-97.152785,38.044044],[-97.152807,38.000371],[-97.152476,37.912733],[-97.153142,37.796199],[-97.152879,37.7379],[-97.152941,37.723292],[-97.153015,37.708678],[-97.153025,37.694059],[-97.15305,37.679386],[-97.152964,37.650313],[-97.152947,37.606686],[-97.152903,37.592153],[-97.152751,37.563043],[-97.152852,37.548419],[-97.153022,37.519258]]]}},{"type":"Feature","properties":{"code":"US-20017","name":"Chase","label":"Chase County","type":"County","parentCode":"US-KS"},"geometry":{"type":"Polygon","coordinates":[[[-96.840929,38.261284],[-96.840772,38.085622],[-96.522782,38.08637],[-96.358099,38.085817],[-96.357277,38.17266],[-96.355336,38.292658],[-96.35378,38.521657],[-96.819509,38.522449],[-96.819628,38.421045],[-96.819475,38.348502],[-96.837654,38.348636],[-96.837722,38.319323],[-96.840929,38.261284]]]}},{"type":"Feature","properties":{"code":"US-20019","name":"Chautauqua","label":"Chautauqua County","type":"County","parentCode":"US-KS"},"geometry":{"type":"Polygon","coordinates":[[[-96.524873,37.30273],[-96.5255776738603,36.9987120358304],[-96.500288,36.998643],[-96.4157735819161,36.9991109977438],[-96.415412,36.999113],[-96.394272,36.999221],[-96.279079,36.999272],[-96.276368,36.999271],[-96.217571,36.99907],[-96.200028,36.999028],[-96.184768,36.999211],[-96.154017,36.999161],[-96.152384,36.999051],[-96.149709,36.99904],[-96.147143,36.999022],[-96.143207,36.999134],[-96.14121,36.998973],[-96.00081,36.99886],[-95.9642699335572,36.9990936072442],[-95.964571,37.067579],[-95.964391,37.226758],[-95.964399,37.299232],[-96.524873,37.30273]]]}},{"type":"Feature","properties":{"code":"US-20021","name":"Cherokee","label":"Cherokee County","type":"County","parentCode":"US-KS"},"geometry":{"type":"Polygon","coordinates":[[[-95.075166,37.339937],[-95.074208,37.230215],[-95.073948,37.105856],[-95.073509,36.999509],[-95.049499,36.99958],[-95.037857,36.999497],[-95.030324,36.999517],[-95.011433,36.999535],[-95.00762,36.999514],[-94.995293,36.999529],[-94.853197,36.998874],[-94.849801,36.998876],[-94.840926,36.998833],[-94.83128,36.998812],[-94.777257,36.998764],[-94.7770423004622,36.9987635641825],[-94.739324,36.998687],[-94.737183,36.998665],[-94.71277,36.998794],[-94.7112698230604,36.9987967343059],[-94.701797,36.998814],[-94.699735,36.998805],[-94.625224,36.998672],[-94.617964,36.998905],[-94.617995,37.009016],[-94.6179724141127,37.0327469918284],[-94.617965,37.040537],[-94.617875,37.056798],[-94.617982,37.075077],[-94.6180312374199,37.0789507004915],[-94.61812,37.085934],[-94.618082,37.086432],[-94.61809,37.093494],[-94.618088,37.093671],[-94.618059,37.096676],[-94.618151,37.103968],[-94.618212,37.113169],[-94.6180755575272,37.129687502575],[-94.618075,37.129755],[-94.618072,37.132345],[-94.6182799572213,37.1531153796718],[-94.618351,37.160211],[-94.618473,37.174782],[-94.6185045609479,37.1810961621467],[-94.6185046748114,37.1811189419566],[-94.618505,37.181184],[-94.618319,37.188774],[-94.618305,37.207337],[-94.618219,37.207772],[-94.61815,37.228121],[-94.618123,37.229334],[-94.618158,37.237597],[-94.618075,37.240436],[-94.617648,37.323589],[-94.617695,37.336842],[-94.617636,37.338417],[-94.705388,37.338613],[-94.777918,37.339123],[-94.904821,37.339947],[-95.075166,37.339937]]]}},{"type":"Feature","properties":{"code":"US-20023","name":"Cheyenne","label":"Cheyenne County","type":"County","parentCode":"US-KS"},"geometry":{"type":"Polygon","coordinates":[[[-102.051744,40.003078],[-102.051569,39.849805],[-102.051363,39.843471],[-102.051318,39.833311],[-102.051254,39.818992],[-102.050594,39.675594],[-102.050099,39.653812],[-102.050422,39.646048],[-102.049954,39.592331],[-102.049806,39.574058],[-102.049763830217,39.568180000858],[-101.413913,39.568361],[-101.411042549953,40.0023645110938],[-101.417209,40.002424],[-101.542273,40.002609],[-101.625809,40.002711],[-101.627071,40.00262],[-101.804862,40.002752],[-101.807687,40.002798],[-101.832161,40.002933],[-101.841025,40.002784],[-101.904176,40.003162],[-101.916696,40.003142],[-102.051744,40.003078]]]}},{"type":"Feature","properties":{"code":"US-20025","name":"Clark","label":"Clark County","type":"County","parentCode":"US-KS"},"geometry":{"type":"Polygon","coordinates":[[[-100.107248,37.474836],[-100.107422,37.387092],[-100.091529,37.386892],[-100.089483739431,37.0020915224233],[-100.005706,37.001726],[-100.002563,37.001706],[-100.001286,37.001699],[-99.995201,37.001631],[-99.875409,37.001659],[-99.786016,37.000931],[-99.774816,37.000841],[-99.774255,37.000837],[-99.7741724011459,37.0008365466155],[-99.657658,37.000197],[-99.648652,36.999604],[-99.625399,36.999671],[-99.558068,36.999528],[-99.5411159015717,36.9995725260596],[-99.543189,37.381124],[-99.555774,37.381112],[-99.556119,37.467722],[-99.774512,37.467404],[-100.107248,37.474836]]]}},{"type":"Feature","properties":{"code":"US-20027","name":"Clay","label":"Clay County","type":"County","parentCode":"US-KS"},"geometry":{"type":"Polygon","coordinates":[[[-97.369839,39.306011],[-97.371154,39.131961],[-96.963177,39.1323],[-96.96138,39.132325],[-96.961693,39.220076],[-96.96091,39.30676],[-96.958719,39.566432],[-97.368574,39.567018],[-97.369839,39.306011]]]}},{"type":"Feature","properties":{"code":"US-20029","name":"Cloud","label":"Cloud County","type":"County","parentCode":"US-KS"},"geometry":{"type":"Polygon","coordinates":[[[-97.931482,39.653767],[-97.931844,39.566921],[-97.928599,39.555418],[-97.929097,39.306397],[-97.667454,39.306636],[-97.369839,39.306011],[-97.368574,39.567018],[-97.36867,39.654043],[-97.660135,39.653514],[-97.660454,39.653517],[-97.931482,39.653767]]]}},{"type":"Feature","properties":{"code":"US-20031","name":"Coffey","label":"Coffey County","type":"County","parentCode":"US-KS"},"geometry":{"type":"Polygon","coordinates":[[[-95.958862,38.170939],[-95.959046,38.040195],[-95.738904,38.039136],[-95.51897,38.03823],[-95.516757,38.259296],[-95.507474,38.259248],[-95.508328,38.390278],[-95.508267,38.433933],[-95.728303,38.434127],[-95.950282,38.434105],[-95.949994,38.259706],[-95.958502,38.259718],[-95.958862,38.170939]]]}},{"type":"Feature","properties":{"code":"US-20033","name":"Comanche","label":"Comanche County","type":"County","parentCode":"US-KS"},"geometry":{"type":"Polygon","coordinates":[[[-99.543189,37.381124],[-99.5411159015717,36.9995725260596],[-99.508574,36.999658],[-99.504093,36.999648],[-99.502665,36.999645],[-99.500395,36.999637],[-99.500395,36.999576],[-99.484333,36.999626],[-99.456203,36.999471],[-99.407015,36.999579],[-99.375391,37.000177],[-99.277506,36.999579],[-99.24812,36.999565],[-99.129449,36.999422],[-99.124883,36.99942],[-99.049695,36.999221],[-99.029337,36.999595],[-99.0003029130325,36.9995103040991],[-99.002142,37.280412],[-99.001294,37.384296],[-99.011499,37.384263],[-99.543189,37.381124]]]}},{"type":"Feature","properties":{"code":"US-20035","name":"Cowley","label":"Cowley County","type":"County","parentCode":"US-KS"},"geometry":{"type":"Polygon","coordinates":[[[-97.153331,37.475544],[-97.150739,37.288359],[-97.150614,37.274729],[-97.148949,37.106905],[-97.147721,36.999111],[-97.122597,36.999036],[-97.120285,36.999014],[-97.104276,36.99902],[-97.100652,36.998998],[-97.039784,36.999],[-97.030082,36.998929],[-96.975562,36.999019],[-96.967371,36.999067],[-96.934642,36.99907],[-96.921915,36.999151],[-96.917093,36.999182],[-96.903748155059,36.9991328766659],[-96.90351,36.999132],[-96.902083,36.999155],[-96.87629,36.999233],[-96.867517,36.999217],[-96.822791,36.999182],[-96.795199,36.99886],[-96.79206,36.99918],[-96.749838,36.998988],[-96.74127,36.999239],[-96.73659,36.999286],[-96.710482,36.999271],[-96.705431,36.999203],[-96.5255776738603,36.9987120358304],[-96.524873,37.30273],[-96.52569,37.476405],[-96.715121,37.475375],[-96.751907,37.475667],[-97.153331,37.475544]]]}},{"type":"Feature","properties":{"code":"US-20037","name":"Crawford","label":"Crawford County","type":"County","parentCode":"US-KS"},"geometry":{"type":"Polygon","coordinates":[[[-95.088012,37.674519],[-95.088189,37.383837],[-95.074972,37.383823],[-95.075166,37.339937],[-94.904821,37.339947],[-94.777918,37.339123],[-94.705388,37.338613],[-94.617636,37.338417],[-94.617537717162,37.3641671035633],[-94.617537,37.364355],[-94.617626,37.367445],[-94.617625,37.367576],[-94.617557,37.396375],[-94.617511,37.410909],[-94.6175101773665,37.4109579132501],[-94.617265,37.425536],[-94.617132,37.439818],[-94.6171330584416,37.4400476358028],[-94.617201,37.454788],[-94.617205,37.460373],[-94.617222,37.460476],[-94.61718,37.465203],[-94.617183,37.469665],[-94.617023,37.483765],[-94.6168795106816,37.5069103176214],[-94.616789,37.52151],[-94.616908,37.527804],[-94.617186,37.553485],[-94.61716,37.557308],[-94.617081,37.567013],[-94.617315,37.571499],[-94.617283,37.571896],[-94.617428,37.609522],[-94.6173,37.610495],[-94.617477,37.63717],[-94.6175754334997,37.6535765775648],[-94.617576,37.653671],[-94.6177338243197,37.6731053668666],[-94.739846,37.674028],[-95.088012,37.674519]]]}},{"type":"Feature","properties":{"code":"US-20039","name":"Decatur","label":"Decatur County","type":"County","parentCode":"US-KS"},"geometry":{"type":"Polygon","coordinates":[[[-100.738825845252,40.0022284244175],[-100.740873,39.568043],[-100.720213,39.568034],[-100.180351,39.56689],[-100.177794883236,40.0015929864604],[-100.177823,40.001593],[-100.188181,40.001541],[-100.190323,40.001586],[-100.19359,40.001573],[-100.196959,40.001494],[-100.215406,40.001629],[-100.229479,40.001693],[-100.231652,40.001623],[-100.39008,40.001809],[-100.439081,40.001774],[-100.447072,40.001795],[-100.468773,40.001724],[-100.475854,40.001768],[-100.477018,40.001752],[-100.487159,40.001767],[-100.511065,40.00184],[-100.551886,40.001889],[-100.567238,40.001889],[-100.594757,40.001977],[-100.600945,40.001906],[-100.645445,40.001883],[-100.66023,40.002162],[-100.683435,40.002234],[-100.721128,40.002069],[-100.729904,40.002111],[-100.733296,40.00227],[-100.738825845252,40.0022284244175]]]}},{"type":"Feature","properties":{"code":"US-20041","name":"Dickinson","label":"Dickinson County","type":"County","parentCode":"US-KS"},"geometry":{"type":"Polygon","coordinates":[[[-97.381205,38.9289],[-97.372109,38.914258],[-97.371906,38.798116],[-97.371911,38.609353],[-97.364088,38.609146],[-97.150746,38.60956],[-96.930286,38.609362],[-96.930542,38.652925],[-96.933924,38.65535],[-96.933022,38.657858],[-96.930413,38.679179],[-96.930409,38.696009],[-96.927374,38.696005],[-96.927234,38.81216],[-96.890171,38.812169],[-96.890245,38.870067],[-96.92671,38.87035],[-96.926209,38.978941],[-96.96347,38.964901],[-96.963177,39.1323],[-97.371154,39.131961],[-97.371614,38.957852],[-97.371727,38.928925],[-97.381205,38.9289]]]}},{"type":"Feature","properties":{"code":"US-20043","name":"Doniphan","label":"Doniphan County","type":"County","parentCode":"US-KS"},"geometry":{"type":"Polygon","coordinates":[[[-95.339896,39.999999],[-95.339657,39.900291],[-95.33974,39.65298],[-95.227518,39.652959],[-95.115189,39.652549],[-95.098006,39.620871],[-95.08544,39.615074],[-95.05338996101,39.6153235402286],[-95.055152,39.621657],[-95.054925,39.624995],[-95.053367,39.630347],[-95.049518,39.637876],[-95.044554,39.64437],[-95.039049,39.649639],[-95.037464,39.652905],[-95.027644,39.665454],[-95.024595,39.668485],[-95.0215131996451,39.6706373996743],[-95.018318,39.672869],[-95.01531,39.674262],[-95.009023,39.675765],[-95.001379,39.676479],[-94.993557,39.67657],[-94.984149,39.67785],[-94.981557,39.678634],[-94.976325,39.68137],[-94.971317,39.68641],[-94.969909,39.68905],[-94.968981,39.692954],[-94.968453,39.707402],[-94.971078,39.723146],[-94.971206,39.729305],[-94.970422,39.732121],[-94.965318,39.739065],[-94.960086,39.743065],[-94.955286,39.745689],[-94.95263,39.745961],[-94.948726,39.745593],[-94.944741,39.744377],[-94.939221,39.741578],[-94.930005,39.73537],[-94.918324,39.728794],[-94.910068,39.725786],[-94.902612,39.724202],[-94.899316,39.724042],[-94.891744,39.724894],[-94.884143,39.726794],[-94.8813864838259,39.7279938952758],[-94.875643,39.730494],[-94.870143,39.734594],[-94.862943,39.742994],[-94.860371,39.74953],[-94.859443,39.753694],[-94.860743,39.763094],[-94.863143,39.767294],[-94.865243,39.770094],[-94.867143,39.771694],[-94.869644,39.772894],[-94.871144,39.772994],[-94.8711583056208,39.7729915837169],[-94.881422,39.771258],[-94.88146,39.771258],[-94.883924,39.770186],[-94.893646,39.764208],[-94.893724,39.76416],[-94.893919,39.76404],[-94.894071,39.763946],[-94.895041,39.76335],[-94.895268,39.76321],[-94.899156,39.761258],[-94.906244,39.759418],[-94.912293,39.759338],[-94.916789,39.760938],[-94.926229,39.76649],[-94.929653,39.769098],[-94.934262,39.773642],[-94.935302,39.77561],[-94.935782,39.778906],[-94.935206,39.78313],[-94.932726,39.786282],[-94.929654,39.788282],[-94.925605,39.789754],[-94.892965,39.791098],[-94.890292,39.791626],[-94.884084,39.794234],[-94.880932,39.797338],[-94.876344,39.806894],[-94.875944,39.813294],[-94.876544,39.820594],[-94.8765889529094,39.8208781023877],[-94.877044,39.823754],[-94.878677,39.826522],[-94.881013,39.828922],[-94.886933,39.833098],[-94.889493,39.834026],[-94.892677,39.834378],[-94.903157,39.83385],[-94.909942,39.834426],[-94.916918,39.836138],[-94.92615,39.841322],[-94.937655,39.849786],[-94.939767,39.85193],[-94.942567,39.856602],[-94.942407,39.861066],[-94.940743,39.86441],[-94.938791,39.866954],[-94.931463,39.872602],[-94.928466,39.876344],[-94.927252,39.880258],[-94.927359,39.883966],[-94.927897,39.886112],[-94.929574,39.888754],[-94.934493,39.893366],[-94.943867,39.89813],[-94.95154,39.900533],[-94.959276,39.901671],[-94.963345,39.901136],[-94.977749,39.897472],[-94.986975,39.89667],[-94.990284,39.89701],[-94.9934102510667,39.8977932373378],[-95.003819,39.900401],[-95.00844,39.900596],[-95.013152,39.899953],[-95.018743,39.897372],[-95.0218974548695,39.8939247831128],[-95.024389,39.891202],[-95.02524,39.8897],[-95.025947,39.886747],[-95.025119,39.878833],[-95.025422,39.876711],[-95.027931,39.871522],[-95.032053,39.868337],[-95.037767,39.865542],[-95.042142,39.864805],[-95.052535,39.864374],[-95.081534,39.861718],[-95.085003,39.861883],[-95.090158,39.86314],[-95.105912,39.869164],[-95.128166,39.874165],[-95.134747,39.876852],[-95.137092,39.878351],[-95.140601,39.881688],[-95.142718,39.885889],[-95.143403,39.889356],[-95.142445,39.89542],[-95.142563,39.897992],[-95.143802,39.901918],[-95.146055,39.904183],[-95.149657,39.905948],[-95.1531851852736,39.9066656063969],[-95.156024,39.907243],[-95.159834,39.906984],[-95.172296,39.902026],[-95.179453,39.900062],[-95.189565,39.899959],[-95.193816,39.90069],[-95.199347,39.902709],[-95.201935,39.904053],[-95.205733,39.908275],[-95.206196,39.909557],[-95.206326,39.912121],[-95.205745,39.915169],[-95.20201,39.922438],[-95.20069,39.928155],[-95.201277,39.934194],[-95.204428,39.938949],[-95.213737,39.943206],[-95.21644,39.943953],[-95.220212,39.944433],[-95.231114,39.943784],[-95.236761,39.943931],[-95.241383,39.944949],[-95.250254,39.948644],[-95.257652,39.954886],[-95.261854,39.960618],[-95.269886,39.969396],[-95.274757,39.972115],[-95.289715,39.977706],[-95.302507,39.984357],[-95.307111,39.989114],[-95.30778,39.990618],[-95.308404,39.993758],[-95.30829,39.999998],[-95.339896,39.999999]]]}},{"type":"Feature","properties":{"code":"US-20045","name":"Douglas","label":"Douglas County","type":"County","parentCode":"US-KS"},"geometry":{"type":"Polygon","coordinates":[[[-95.501861,39.027413],[-95.501149,39.018161],[-95.500252,38.985895],[-95.500724,38.869815],[-95.500738,38.738808],[-95.268446,38.73862],[-95.056412,38.738587],[-95.056159,38.840591],[-95.056117,38.869573],[-95.056183,38.942871],[-95.056258,38.98212],[-95.086688,38.98022],[-95.074453,38.964369],[-95.085491,38.953944],[-95.11091,38.969338],[-95.148844,38.97434],[-95.164123,38.98163],[-95.186189,38.964542],[-95.187103,39.044109],[-95.274749,39.0441],[-95.284434,39.046675],[-95.282247,39.037],[-95.285425,39.032162],[-95.29185,39.0415],[-95.349652,39.033234],[-95.358347,39.035264],[-95.387786,39.048824],[-95.403188,39.061262],[-95.43614,39.069781],[-95.482362,39.056874],[-95.500254,39.056656],[-95.501861,39.027413]]]}},{"type":"Feature","properties":{"code":"US-20047","name":"Edwards","label":"Edwards County","type":"County","parentCode":"US-KS"},"geometry":{"type":"Polygon","coordinates":[[[-99.569879,37.913016],[-99.570576,37.825634],[-99.560272,37.825587],[-99.559526,37.737123],[-99.55958,37.734888],[-99.01355,37.73297],[-99.013318,37.825336],[-99.022627,37.825358],[-99.022136,38.000236],[-99.350289,38.000745],[-99.350359,38.087594],[-99.569533,38.087372],[-99.569879,37.913016]]]}},{"type":"Feature","properties":{"code":"US-20049","name":"Elk","label":"Elk County","type":"County","parentCode":"US-KS"},"geometry":{"type":"Polygon","coordinates":[[[-96.5253,37.607015],[-96.52569,37.476405],[-96.524873,37.30273],[-95.964399,37.299232],[-95.964337,37.375118],[-95.961605,37.386636],[-95.961002,37.603761],[-96.5253,37.607015]]]}},{"type":"Feature","properties":{"code":"US-20051","name":"Ellis","label":"Ellis County","type":"County","parentCode":"US-KS"},"geometry":{"type":"Polygon","coordinates":[[[-99.591776,39.132357],[-99.598323,38.696514],[-99.585087,38.696537],[-99.319521,38.69683],[-99.042626,38.696807],[-99.0375,39.133121],[-99.047687,39.133014],[-99.298467,39.132879],[-99.591776,39.132357]]]}},{"type":"Feature","properties":{"code":"US-20053","name":"Ellsworth","label":"Ellsworth County","type":"County","parentCode":"US-KS"},"geometry":{"type":"Polygon","coordinates":[[[-98.484861,38.870791],[-98.486108,38.696878],[-98.479958,38.696916],[-98.479913,38.681528],[-98.480377,38.521841],[-97.924269,38.522755],[-97.924795,38.60988],[-97.925162,38.696972],[-97.928348,38.755599],[-97.928592,38.871099],[-98.225195,38.870996],[-98.484861,38.870791]]]}},{"type":"Feature","properties":{"code":"US-20055","name":"Finney","label":"Finney County","type":"County","parentCode":"US-KS"},"geometry":{"type":"Polygon","coordinates":[[[-101.103268,38.264557],[-101.103778,37.829035],[-101.089886,37.829115],[-101.089667,37.736337],[-100.652251,37.736275],[-100.651748,37.828712],[-100.665172,37.828831],[-100.664951,37.868089],[-100.664166,38.00253],[-100.22661,38.001015],[-100.227137,38.262237],[-100.244393,38.26229],[-100.684699,38.264137],[-101.103268,38.264557]]]}},{"type":"Feature","properties":{"code":"US-20057","name":"Ford","label":"Ford County","type":"County","parentCode":"US-KS"},"geometry":{"type":"Polygon","coordinates":[[[-100.22709,37.914018],[-100.227416,37.826842],[-100.214637,37.826808],[-100.214773,37.787374],[-100.216229,37.47519],[-100.107248,37.474836],[-99.774512,37.467404],[-99.556119,37.467722],[-99.55958,37.734888],[-99.559526,37.737123],[-99.560272,37.825587],[-99.570576,37.825634],[-99.569879,37.913016],[-100.22709,37.914018]]]}},{"type":"Feature","properties":{"code":"US-20059","name":"Franklin","label":"Franklin County","type":"County","parentCode":"US-KS"},"geometry":{"type":"Polygon","coordinates":[[[-95.508549,38.528832],[-95.508435,38.476307],[-95.508267,38.433933],[-95.508328,38.390278],[-95.304024,38.390097],[-95.065831,38.389945],[-95.065945,38.403272],[-95.065299,38.53529],[-95.065097,38.622856],[-95.065772,38.694903],[-95.056408,38.711234],[-95.056412,38.738587],[-95.268446,38.73862],[-95.500738,38.738808],[-95.501223,38.695263],[-95.508042,38.695268],[-95.508549,38.528832]]]}},{"type":"Feature","properties":{"code":"US-20061","name":"Geary","label":"Geary County","type":"County","parentCode":"US-KS"},"geometry":{"type":"Polygon","coordinates":[[[-96.963177,39.1323],[-96.96347,38.964901],[-96.926209,38.978941],[-96.92671,38.87035],[-96.890245,38.870067],[-96.853024,38.86996],[-96.501556,38.869704],[-96.501166,39.043666],[-96.500962,39.072681],[-96.706122,39.073077],[-96.71374,39.09007],[-96.73606,39.079957],[-96.756134,39.087796],[-96.823964,39.088115],[-96.851409,39.088176],[-96.846366,39.106746],[-96.832239,39.119645],[-96.831155,39.131854],[-96.84967,39.13928],[-96.849879,39.219012],[-96.961693,39.220076],[-96.96138,39.132325],[-96.963177,39.1323]]]}},{"type":"Feature","properties":{"code":"US-20063","name":"Gove","label":"Gove County","type":"County","parentCode":"US-KS"},"geometry":{"type":"Polygon","coordinates":[[[-100.811858,39.13336],[-100.818698,38.699861],[-100.688006,38.700021],[-100.2472,38.698165],[-100.153823,38.697341],[-100.14794,39.132179],[-100.1642,39.132071],[-100.721296,39.133381],[-100.811858,39.13336]]]}},{"type":"Feature","properties":{"code":"US-20065","name":"Graham","label":"Graham County","type":"County","parentCode":"US-KS"},"geometry":{"type":"Polygon","coordinates":[[[-100.161667,39.567277],[-100.1642,39.132071],[-100.14794,39.132179],[-99.605187,39.132481],[-99.604793,39.307319],[-99.602176,39.567328],[-99.627953,39.567437],[-100.161667,39.567277]]]}},{"type":"Feature","properties":{"code":"US-20067","name":"Grant","label":"Grant County","type":"County","parentCode":"US-KS"},"geometry":{"type":"Polygon","coordinates":[[[-101.527063,37.736314],[-101.52581,37.388392],[-101.089653,37.387721],[-101.089667,37.736337],[-101.527063,37.736314]]]}},{"type":"Feature","properties":{"code":"US-20069","name":"Gray","label":"Gray County","type":"County","parentCode":"US-KS"},"geometry":{"type":"Polygon","coordinates":[[[-100.664951,37.868089],[-100.665172,37.828831],[-100.651748,37.828712],[-100.652251,37.736275],[-100.652642,37.474848],[-100.216229,37.47519],[-100.214773,37.787374],[-100.214637,37.826808],[-100.227416,37.826842],[-100.22709,37.914018],[-100.22661,38.001015],[-100.664166,38.00253],[-100.664951,37.868089]]]}},{"type":"Feature","properties":{"code":"US-20071","name":"Greeley","label":"Greeley County","type":"County","parentCode":"US-KS"},"geometry":{"type":"Polygon","coordinates":[[[-102.045263,38.505395],[-102.045324,38.453647],[-102.044936,38.41968],[-102.044442,38.415802],[-102.044944,38.384419],[-102.044613,38.312324],[-102.044568,38.268819],[-102.044567368215,38.2687491172007],[-102.04451007292,38.2624115834718],[-101.567482,38.263145],[-101.567094,38.699669],[-102.045212,38.697567],[-102.045156,38.688555],[-102.045127,38.686725],[-102.04516,38.675221],[-102.045102,38.674946],[-102.045074,38.669617],[-102.045288,38.615249],[-102.045287815606,38.6151684415595],[-102.045211,38.581609],[-102.045189,38.558732],[-102.045223,38.543797],[-102.045112,38.523784],[-102.045262,38.505532],[-102.045263,38.505395]]]}},{"type":"Feature","properties":{"code":"US-20073","name":"Greenwood","label":"Greenwood County","type":"County","parentCode":"US-KS"},"geometry":{"type":"Polygon","coordinates":[[[-96.525745,37.811582],[-96.5253,37.607015],[-95.961002,37.603761],[-95.960876,37.734304],[-95.961408,37.821985],[-95.958229,37.836244],[-95.959046,38.040195],[-95.958862,38.170939],[-96.357277,38.17266],[-96.358099,38.085817],[-96.522782,38.08637],[-96.525745,37.811582]]]}},{"type":"Feature","properties":{"code":"US-20075","name":"Hamilton","label":"Hamilton County","type":"County","parentCode":"US-KS"},"geometry":{"type":"Polygon","coordinates":[[[-102.044255,38.113011],[-102.044644,38.045532],[-102.043844,37.928102],[-102.043845,37.926135],[-102.043219,37.867929],[-102.043033,37.824146],[-102.042953,37.803535],[-102.042668,37.788758],[-102.042158,37.760164],[-102.041989965863,37.7385406283736],[-101.527063,37.736314],[-101.526964,37.827626],[-101.542757,37.827594],[-101.542312,38.263207],[-101.567482,38.263145],[-102.04451007292,38.2624115834718],[-102.044398,38.250015],[-102.044251,38.141778],[-102.044589,38.125013],[-102.044255,38.113011]]]}},{"type":"Feature","properties":{"code":"US-20077","name":"Harper","label":"Harper County","type":"County","parentCode":"US-KS"},"geometry":{"type":"Polygon","coordinates":[[[-98.349804,37.384056],[-98.348847,37.239091],[-98.3471489755077,36.9979618781261],[-98.346188,36.997962],[-98.237712,36.997972],[-98.219499,36.997824],[-98.208218,36.997997],[-98.177596,36.998009],[-98.147452,36.998162],[-98.111985,36.998133],[-98.045342,36.998327],[-98.03989,36.998349],[-98.033955,36.998366],[-97.8023129924768,36.9987129775427],[-97.802715,37.1545],[-97.802936,37.273095],[-97.80453,37.384055],[-97.807057,37.386293],[-98.073788,37.38477],[-98.07656,37.384739],[-98.349804,37.384056]]]}},{"type":"Feature","properties":{"code":"US-20079","name":"Harvey","label":"Harvey County","type":"County","parentCode":"US-KS"},"geometry":{"type":"Polygon","coordinates":[[[-97.701905,38.014098],[-97.701969,37.911325],[-97.686667,37.912469],[-97.482045,37.91228],[-97.482017,37.91228],[-97.263186,37.912313],[-97.152476,37.912733],[-97.152807,38.000371],[-97.152785,38.044044],[-97.152913,38.087704],[-97.153093,38.174634],[-97.37175,38.173673],[-97.701841,38.173814],[-97.701894,38.043205],[-97.701905,38.014098]]]}},{"type":"Feature","properties":{"code":"US-20081","name":"Haskell","label":"Haskell County","type":"County","parentCode":"US-KS"},"geometry":{"type":"Polygon","coordinates":[[[-101.089667,37.736337],[-101.089653,37.387721],[-101.068106,37.387779],[-100.652728,37.387627],[-100.652642,37.474848],[-100.652251,37.736275],[-101.089667,37.736337]]]}},{"type":"Feature","properties":{"code":"US-20083","name":"Hodgeman","label":"Hodgeman County","type":"County","parentCode":"US-KS"},"geometry":{"type":"Polygon","coordinates":[[[-100.227137,38.262237],[-100.22661,38.001015],[-100.22709,37.914018],[-99.569879,37.913016],[-99.569533,38.087372],[-99.569927,38.174902],[-99.570675,38.262239],[-99.584207,38.262179],[-100.227137,38.262237]]]}},{"type":"Feature","properties":{"code":"US-20085","name":"Jackson","label":"Jackson County","type":"County","parentCode":"US-KS"},"geometry":{"type":"Polygon","coordinates":[[[-96.035952,39.5661],[-96.034623,39.369045],[-96.035573,39.21652],[-95.730222,39.216481],[-95.719656,39.216459],[-95.667553,39.216436],[-95.589472,39.216081],[-95.589059,39.303141],[-95.589295,39.419086],[-95.570351,39.41905],[-95.570131,39.525528],[-95.570348,39.56587],[-95.564314,39.565858],[-95.564126,39.652872],[-95.620418,39.652808],[-95.788941,39.653001],[-95.789098,39.565943],[-95.792846,39.565938],[-96.035952,39.5661]]]}},{"type":"Feature","properties":{"code":"US-20087","name":"Jefferson","label":"Jefferson County","type":"County","parentCode":"US-KS"},"geometry":{"type":"Polygon","coordinates":[[[-95.594756,39.086399],[-95.596759,39.064672],[-95.579956,39.0541],[-95.548751,39.068319],[-95.513902,39.067151],[-95.500254,39.056656],[-95.482362,39.056874],[-95.43614,39.069781],[-95.403188,39.061262],[-95.387786,39.048824],[-95.358347,39.035264],[-95.349652,39.033234],[-95.29185,39.0415],[-95.285425,39.032162],[-95.282247,39.037],[-95.284434,39.046675],[-95.274749,39.0441],[-95.187103,39.044109],[-95.187374,39.070829],[-95.187562,39.073117],[-95.187963,39.128909],[-95.180125,39.128889],[-95.180417,39.201592],[-95.180142,39.288693],[-95.17988,39.317906],[-95.180891,39.419218],[-95.570351,39.41905],[-95.589295,39.419086],[-95.589059,39.303141],[-95.589472,39.216081],[-95.589305,39.129159],[-95.59476,39.117058],[-95.594755,39.102546],[-95.594756,39.086399]]]}},{"type":"Feature","properties":{"code":"US-20089","name":"Jewell","label":"Jewell County","type":"County","parentCode":"US-KS"},"geometry":{"type":"Polygon","coordinates":[[[-98.5044549849831,40.0023285653691],[-98.505266,39.567603],[-98.487384,39.567492],[-98.119571,39.567088],[-97.931844,39.566921],[-97.931482,39.653767],[-97.931825546011,40.0020500230574],[-97.972186,40.002114],[-98.010142116078,40.0021529847127],[-98.010157,40.002153],[-98.014412,40.002223],[-98.047469,40.002186],[-98.050057,40.002278],[-98.068701,40.002355],[-98.076034,40.002301],[-98.0872378021247,40.0022659066092],[-98.099659,40.002227],[-98.142031,40.002452],[-98.172269,40.002438],[-98.179315,40.002483],[-98.193483,40.002614],[-98.250008,40.002307],[-98.268218,40.00249],[-98.274015,40.002516],[-98.490533,40.002323],[-98.5044549849831,40.0023285653691]]]}},{"type":"Feature","properties":{"code":"US-20091","name":"Johnson","label":"Johnson County","type":"County","parentCode":"US-KS"},"geometry":{"type":"Polygon","coordinates":[[[-95.056159,38.840591],[-95.056412,38.738587],[-94.963993,38.738479],[-94.871603,38.738324],[-94.839041,38.738429],[-94.760315,38.738235],[-94.676174,38.73815],[-94.6095089421737,38.7381018369191],[-94.609456,38.7407],[-94.609399,38.74244],[-94.6084626133334,38.7897585556789],[-94.608041,38.811064],[-94.6080401871738,38.8110962316843],[-94.6076689831559,38.8258158987023],[-94.607625,38.82756],[-94.608033,38.847207],[-94.608033,38.855007],[-94.608033,38.861207],[-94.607993,38.867271],[-94.608033,38.868107],[-94.608033,38.869207],[-94.608033,38.8697490133333],[-94.608033,38.883807],[-94.6080329840623,38.8838223763706],[-94.6080256044729,38.8909420700723],[-94.6080103801164,38.9056302524437],[-94.6080059039544,38.9099487721523],[-94.6080028201014,38.9129240174341],[-94.6079780238428,38.9368469969152],[-94.6079780228435,38.936847961008],[-94.607978,38.93687],[-94.607866,38.937398],[-94.608134,38.940006],[-94.608134,38.942006],[-94.6082079478057,38.9567216133276],[-94.6082079944217,38.9567308899182],[-94.6082982907429,38.9746998578355],[-94.608334,38.981806],[-94.6083006166547,38.9843521780917],[-94.6082577394965,38.9876224579304],[-94.6081871532949,38.9930061316929],[-94.6080930837859,39.0001808986646],[-94.6079129714016,39.0139182339526],[-94.6078965853411,39.0151680136818],[-94.6077238055932,39.0283460821253],[-94.6076919614671,39.0307748625741],[-94.607534039454,39.0428197180791],[-94.6075174403161,39.0440857494166],[-94.621224,39.044064],[-94.629835,39.044076],[-94.643874,39.044038],[-94.649141,39.044029],[-94.656102,39.044029],[-94.658844,39.044038],[-94.668937,39.044073],[-94.675919,39.044065],[-94.705282,39.043993],[-94.714536,39.044004],[-94.723892,39.043998],[-94.757068,39.043716],[-94.789177,39.043612],[-94.789611,39.043599],[-94.791527,39.043575],[-94.803326,39.04352],[-94.84907,39.061313],[-94.871722,39.059321],[-94.874802,39.058045],[-94.876425,39.057139],[-94.877724,39.056194],[-94.883566,39.050689],[-94.884352,39.048229],[-94.888431,39.016142],[-94.908765,38.991401],[-94.923349,39.002633],[-94.948275,38.984214],[-95.021132,39.000003],[-95.027847,38.978865],[-95.056258,38.98212],[-95.056183,38.942871],[-95.056117,38.869573],[-95.056159,38.840591]]]}},{"type":"Feature","properties":{"code":"US-20093","name":"Kearny","label":"Kearny County","type":"County","parentCode":"US-KS"},"geometry":{"type":"Polygon","coordinates":[[[-101.542312,38.263207],[-101.542757,37.827594],[-101.526964,37.827626],[-101.527063,37.736314],[-101.089667,37.736337],[-101.089886,37.829115],[-101.103778,37.829035],[-101.103268,38.264557],[-101.125438,38.264509],[-101.542312,38.263207]]]}},{"type":"Feature","properties":{"code":"US-20095","name":"Kingman","label":"Kingman County","type":"County","parentCode":"US-KS"},"geometry":{"type":"Polygon","coordinates":[[[-98.464663,37.471013],[-98.464951,37.384086],[-98.349804,37.384056],[-98.07656,37.384739],[-98.073788,37.38477],[-97.807057,37.386293],[-97.8076,37.474184],[-97.808348,37.646788],[-97.806717,37.654039],[-97.807823,37.733855],[-98.118272,37.732904],[-98.227376,37.73284],[-98.464804,37.732675],[-98.464663,37.471013]]]}},{"type":"Feature","properties":{"code":"US-20097","name":"Kiowa","label":"Kiowa County","type":"County","parentCode":"US-KS"},"geometry":{"type":"Polygon","coordinates":[[[-99.55958,37.734888],[-99.556119,37.467722],[-99.555774,37.381112],[-99.543189,37.381124],[-99.011499,37.384263],[-99.012598,37.470421],[-99.01355,37.73297],[-99.55958,37.734888]]]}},{"type":"Feature","properties":{"code":"US-20099","name":"Labette","label":"Labette County","type":"County","parentCode":"US-KS"},"geometry":{"type":"Polygon","coordinates":[[[-95.522651,37.063507],[-95.5224149880945,36.9992810582678],[-95.511578,36.999235],[-95.4077330426944,36.99924099711],[-95.407683,36.999241],[-95.33121,36.99938],[-95.328327,36.999366],[-95.328058,36.999365],[-95.322565,36.999358],[-95.195307,36.999565],[-95.177301,36.99952],[-95.155372,36.99954],[-95.155187,36.999539],[-95.1404610155766,36.9995335912053],[-95.073509,36.999509],[-95.073948,37.105856],[-95.074208,37.230215],[-95.075166,37.339937],[-95.074972,37.383823],[-95.088189,37.383837],[-95.124095,37.384125],[-95.131736,37.384353],[-95.176352,37.38427],[-95.282486,37.384093],[-95.339907,37.384077],[-95.52113,37.38399],[-95.519366,37.30993],[-95.518631,37.236933],[-95.521414,37.193749],[-95.522651,37.063507]]]}},{"type":"Feature","properties":{"code":"US-20101","name":"Lane","label":"Lane County","type":"County","parentCode":"US-KS"},"geometry":{"type":"Polygon","coordinates":[[[-100.688006,38.700021],[-100.684699,38.264137],[-100.244393,38.26229],[-100.2472,38.698165],[-100.688006,38.700021]]]}},{"type":"Feature","properties":{"code":"US-20103","name":"Leavenworth","label":"Leavenworth County","type":"County","parentCode":"US-KS"},"geometry":{"type":"Polygon","coordinates":[[[-95.187963,39.128909],[-95.187562,39.073117],[-95.187374,39.070829],[-95.187103,39.044109],[-95.186189,38.964542],[-95.164123,38.98163],[-95.148844,38.97434],[-95.11091,38.969338],[-95.085491,38.953944],[-95.074453,38.964369],[-95.086688,38.98022],[-95.056258,38.98212],[-95.027847,38.978865],[-95.021132,39.000003],[-94.948275,38.984214],[-94.923349,39.002633],[-94.908765,38.991401],[-94.908797,39.057934],[-94.908469,39.115707],[-94.908465,39.116001],[-94.901416,39.128684],[-94.900862,39.14315],[-94.900478,39.201501],[-94.900454,39.201988],[-94.881836,39.202622],[-94.846969,39.202053],[-94.818689,39.201623],[-94.8172846013404,39.2078598570394],[-94.820687,39.208626],[-94.823791,39.209874],[-94.831679,39.215938],[-94.833552,39.217794],[-94.835056,39.220658],[-94.834896,39.223842],[-94.827791,39.234001],[-94.826111,39.238289],[-94.825663,39.241729],[-94.827487,39.249889],[-94.831471,39.256273],[-94.837855,39.262417],[-94.84632,39.268481],[-94.857072,39.273825],[-94.867568,39.277841],[-94.87832,39.281136],[-94.882576,39.283328],[-94.887056,39.28648],[-94.8895044646872,39.2887985559493],[-94.895217,39.294208],[-94.900049,39.300192],[-94.9007244880627,39.3015219764964],[-94.903137,39.306272],[-94.905329,39.311952],[-94.9059836798191,39.3147542497665],[-94.908065,39.323663],[-94.9086980728097,39.3297263433078],[-94.910641,39.348335],[-94.910017,39.352543],[-94.909409,39.354255],[-94.907297,39.356735],[-94.902497,39.360383],[-94.899024,39.362431],[-94.896832,39.363135],[-94.890928,39.364031],[-94.885216,39.366911],[-94.88136,39.370383],[-94.879088,39.375703],[-94.879281,39.37978],[-94.880979,39.383899],[-94.885026,39.389801],[-94.888972,39.392432],[-94.891845,39.393313],[-94.894979,39.393565],[-94.901823,39.392798],[-94.909581,39.388865],[-94.915859,39.386348],[-94.919225,39.385174],[-94.92311,39.384492],[-94.933652,39.385546],[-94.937158,39.386531],[-94.938199849044,39.3871132701038],[-94.939697,39.38795],[-94.942039,39.389499],[-94.945577,39.393851],[-94.946227,39.395648],[-94.946662,39.399717],[-94.946293,39.405646],[-94.947864,39.408604],[-94.951209,39.411707],[-94.954817,39.413844],[-94.966066,39.417288],[-94.9688486217732,39.4190729027552],[-95.180891,39.419218],[-95.17988,39.317906],[-95.180142,39.288693],[-95.180417,39.201592],[-95.180125,39.128889],[-95.187963,39.128909]]]}},{"type":"Feature","properties":{"code":"US-20105","name":"Lincoln","label":"Lincoln County","type":"County","parentCode":"US-KS"},"geometry":{"type":"Polygon","coordinates":[[[-98.490149,39.21978],[-98.489997,39.132697],[-98.483725,39.131614],[-98.484861,38.870791],[-98.225195,38.870996],[-97.928592,38.871099],[-97.92856,38.958395],[-97.929746,39.219273],[-98.154008,39.219158],[-98.490149,39.21978]]]}},{"type":"Feature","properties":{"code":"US-20107","name":"Linn","label":"Linn County","type":"County","parentCode":"US-KS"},"geometry":{"type":"Polygon","coordinates":[[[-95.076751,38.182665],[-95.077876,38.037706],[-94.6139813464919,38.0370573442828],[-94.6140548972092,38.0600558584152],[-94.614055,38.060088],[-94.614089,38.065901],[-94.614061,38.067343],[-94.613856,38.149769],[-94.613748,38.160633],[-94.613422,38.167908],[-94.6134206871916,38.1679931783179],[-94.613073,38.190552],[-94.612848,38.200714],[-94.612822,38.203918],[-94.612658,38.217649],[-94.612659,38.219251],[-94.612635,38.226987],[-94.612614,38.237766],[-94.612692,38.270394],[-94.612708076549,38.2723928167927],[-94.612849,38.289914],[-94.612844,38.291423],[-94.612673,38.302527],[-94.612673,38.314832],[-94.612788,38.320142],[-94.612825,38.324387],[-94.613,38.335801],[-94.613312,38.364407],[-94.613329,38.369618],[-94.613275403738,38.3887183678658],[-94.687411,38.388817],[-94.775253,38.388996],[-95.065831,38.389945],[-95.065103,38.258648],[-95.075459,38.258714],[-95.076751,38.182665]]]}},{"type":"Feature","properties":{"code":"US-20109","name":"Logan","label":"Logan County","type":"County","parentCode":"US-KS"},"geometry":{"type":"Polygon","coordinates":[[[-101.478195,39.134761],[-101.484383,38.700166],[-101.128379,38.700603],[-100.818698,38.699861],[-100.811858,39.13336],[-101.391717,39.135117],[-101.478195,39.134761]]]}},{"type":"Feature","properties":{"code":"US-20111","name":"Lyon","label":"Lyon County","type":"County","parentCode":"US-KS"},"geometry":{"type":"Polygon","coordinates":[[[-96.355336,38.292658],[-96.357277,38.17266],[-95.958862,38.170939],[-95.958502,38.259718],[-95.949994,38.259706],[-95.950282,38.434105],[-95.950012,38.463153],[-95.949654,38.695385],[-95.945924,38.739112],[-96.352613,38.739021],[-96.353088,38.608893],[-96.35378,38.521657],[-96.355336,38.292658]]]}},{"type":"Feature","properties":{"code":"US-20113","name":"McPherson","label":"McPherson County","type":"County","parentCode":"US-KS"},"geometry":{"type":"Polygon","coordinates":[[[-97.924795,38.60988],[-97.924269,38.522755],[-97.924427,38.34789],[-97.922229,38.256672],[-97.922136,38.173713],[-97.903875,38.173731],[-97.823444,38.173658],[-97.701841,38.173814],[-97.37175,38.173673],[-97.371617,38.289874],[-97.371719,38.362491],[-97.37188,38.435041],[-97.371911,38.609353],[-97.621526,38.608931],[-97.70353,38.609101],[-97.924795,38.60988]]]}},{"type":"Feature","properties":{"code":"US-20115","name":"Marion","label":"Marion County","type":"County","parentCode":"US-KS"},"geometry":{"type":"Polygon","coordinates":[[[-97.371911,38.609353],[-97.37188,38.435041],[-97.371719,38.362491],[-97.371617,38.289874],[-97.37175,38.173673],[-97.153093,38.174634],[-97.152913,38.087704],[-96.840772,38.085622],[-96.840929,38.261284],[-96.837722,38.319323],[-96.837654,38.348636],[-96.819475,38.348502],[-96.819628,38.421045],[-96.819509,38.522449],[-96.929969,38.522412],[-96.930286,38.609362],[-97.150746,38.60956],[-97.364088,38.609146],[-97.371911,38.609353]]]}},{"type":"Feature","properties":{"code":"US-20117","name":"Marshall","label":"Marshall County","type":"County","parentCode":"US-KS"},"geometry":{"type":"Polygon","coordinates":[[[-96.806148,39.842449],[-96.806544,39.566423],[-96.580459,39.56621],[-96.561779,39.566301],[-96.238969,39.56622],[-96.239618,39.783732],[-96.23956,39.841566],[-96.2392078816029,40.0006909657961],[-96.301066,40.000632],[-96.304555,40.000629],[-96.46364,40.000967],[-96.463712955188,40.0009682733452],[-96.467536,40.001035],[-96.469945,40.000966],[-96.527111,40.001031],[-96.538977,40.000851],[-96.557863,40.000968],[-96.570854,40.001091],[-96.580852,40.000966],[-96.604884,40.000891],[-96.610349,40.000881],[-96.622401,40.001158],[-96.6899211168171,40.001236420889],[-96.805768,40.0013709706497],[-96.806148,39.842449]]]}},{"type":"Feature","properties":{"code":"US-20119","name":"Meade","label":"Meade County","type":"County","parentCode":"US-KS"},"geometry":{"type":"Polygon","coordinates":[[[-100.652642,37.474848],[-100.652728,37.387627],[-100.633831,37.387577],[-100.633327,36.999936],[-100.62977,37.000025],[-100.591413,37.000399],[-100.591328,37.000376],[-100.552683,37.000735],[-100.551598,37.00062],[-100.201676,37.002081],[-100.193754,37.002133],[-100.192371,37.002036],[-100.187547,37.002082],[-100.115722,37.002206],[-100.089483739431,37.0020915224233],[-100.091529,37.386892],[-100.107422,37.387092],[-100.107248,37.474836],[-100.216229,37.47519],[-100.652642,37.474848]]]}},{"type":"Feature","properties":{"code":"US-20121","name":"Miami","label":"Miami County","type":"County","parentCode":"US-KS"},"geometry":{"type":"Polygon","coordinates":[[[-95.065945,38.403272],[-95.065831,38.389945],[-94.775253,38.388996],[-94.687411,38.388817],[-94.613275403738,38.3887183678658],[-94.613265,38.392426],[-94.613365,38.403422],[-94.612866,38.477571],[-94.6128650452802,38.477602354122],[-94.612696,38.483154],[-94.612726,38.484367],[-94.612644,38.491644],[-94.612272,38.547917],[-94.612157,38.549817],[-94.612176,38.576546],[-94.611902,38.58011],[-94.611887,38.580139],[-94.611908,38.609272],[-94.611858,38.620485],[-94.6118547146559,38.6205228357943],[-94.611465,38.625011],[-94.611602,38.635384],[-94.6108431558583,38.6726246475414],[-94.6095089421737,38.7381018369191],[-94.676174,38.73815],[-94.760315,38.738235],[-94.839041,38.738429],[-94.871603,38.738324],[-94.963993,38.738479],[-95.056412,38.738587],[-95.056408,38.711234],[-95.065772,38.694903],[-95.065097,38.622856],[-95.065299,38.53529],[-95.065945,38.403272]]]}},{"type":"Feature","properties":{"code":"US-20123","name":"Mitchell","label":"Mitchell County","type":"County","parentCode":"US-KS"},"geometry":{"type":"Polygon","coordinates":[[[-98.487384,39.567492],[-98.490149,39.21978],[-98.154008,39.219158],[-97.929746,39.219273],[-97.931614,39.277094],[-97.929097,39.306397],[-97.928599,39.555418],[-97.931844,39.566921],[-98.119571,39.567088],[-98.487384,39.567492]]]}},{"type":"Feature","properties":{"code":"US-20125","name":"Montgomery","label":"Montgomery County","type":"County","parentCode":"US-KS"},"geometry":{"type":"Polygon","coordinates":[[[-95.964391,37.226758],[-95.964571,37.067579],[-95.9642699335572,36.9990936072442],[-95.936992,36.999268],[-95.928122,36.999245],[-95.91018,36.999336],[-95.877151,36.999304],[-95.875257,36.999302],[-95.873944,36.9993],[-95.873882523589,36.9992996596764],[-95.866899,36.999261],[-95.80798,36.999124],[-95.786762,36.99931],[-95.768719,36.999205],[-95.759905,36.999271],[-95.741908,36.999244],[-95.718054,36.999255],[-95.714887,36.999279],[-95.7105065437006,36.9993684169025],[-95.71038,36.999371],[-95.696659,36.999215],[-95.686452,36.999349],[-95.664301,36.999322],[-95.6379840038302,36.9993204619837],[-95.630079,36.99932],[-95.62435,36.99936],[-95.615934,36.999365],[-95.61214,36.999321],[-95.573598,36.99931],[-95.534401,36.999332],[-95.5224149880945,36.9992810582678],[-95.522651,37.063507],[-95.521414,37.193749],[-95.518631,37.236933],[-95.519366,37.30993],[-95.52113,37.38399],[-95.52556,37.383979],[-95.61539,37.384261],[-95.706382,37.384918],[-95.961605,37.386636],[-95.964337,37.375118],[-95.964399,37.299232],[-95.964391,37.226758]]]}},{"type":"Feature","properties":{"code":"US-20127","name":"Morris","label":"Morris County","type":"County","parentCode":"US-KS"},"geometry":{"type":"Polygon","coordinates":[[[-96.933022,38.657858],[-96.933924,38.65535],[-96.930542,38.652925],[-96.930286,38.609362],[-96.929969,38.522412],[-96.819509,38.522449],[-96.35378,38.521657],[-96.353088,38.608893],[-96.352613,38.739021],[-96.389749,38.738984],[-96.390398,38.825858],[-96.501397,38.826188],[-96.501556,38.869704],[-96.853024,38.86996],[-96.890245,38.870067],[-96.890171,38.812169],[-96.927234,38.81216],[-96.927374,38.696005],[-96.930409,38.696009],[-96.930413,38.679179],[-96.933022,38.657858]]]}},{"type":"Feature","properties":{"code":"US-20129","name":"Morton","label":"Morton County","type":"County","parentCode":"US-KS"},"geometry":{"type":"Polygon","coordinates":[[[-102.041952,37.024742],[-102.04224,36.993083],[-102.028207,36.993125],[-102.000447,36.993272],[-102.000447,36.993249],[-101.90244,36.993702],[-101.632505170711,36.994951868595],[-101.601593,36.995095],[-101.600396,36.995153],[-101.555260303913,36.9954138768669],[-101.556606,37.388485],[-102.041585760593,37.3891904308032],[-102.041524,37.375018],[-102.042089,37.352819],[-102.041974,37.352613],[-102.041817,37.30949],[-102.041664,37.29765],[-102.041963,37.258164],[-102.042002,37.141744],[-102.042135,37.125021],[-102.042092,37.125021],[-102.041809,37.111973],[-102.041983,37.106551],[-102.04192,37.035083],[-102.041749,37.034397],[-102.041921,37.032178],[-102.04195,37.030805],[-102.041952,37.024742]]]}},{"type":"Feature","properties":{"code":"US-20131","name":"Nemaha","label":"Nemaha County","type":"County","parentCode":"US-KS"},"geometry":{"type":"Polygon","coordinates":[[[-96.23956,39.841566],[-96.239618,39.783732],[-96.238969,39.56622],[-96.035952,39.5661],[-95.792846,39.565938],[-95.789098,39.565943],[-95.788941,39.653001],[-95.788925,39.776326],[-95.7881114096839,40.0004520166495],[-95.882524,40.00047],[-95.8825806075692,40.0004700381801],[-95.958139,40.000521],[-96.010678,40.000638],[-96.02409,40.000719],[-96.051691,40.000727],[-96.081395,40.000603],[-96.089781,40.000519],[-96.125788,40.000467],[-96.125937,40.000432],[-96.147167,40.000479],[-96.154246,40.00045],[-96.154365,40.000495],[-96.220171,40.00072],[-96.223839,40.000729],[-96.239172,40.000691],[-96.2392078816029,40.0006909657961],[-96.23956,39.841566]]]}},{"type":"Feature","properties":{"code":"US-20133","name":"Neosho","label":"Neosho County","type":"County","parentCode":"US-KS"},"geometry":{"type":"Polygon","coordinates":[[[-95.525698,37.689271],[-95.525999,37.616876],[-95.52556,37.383979],[-95.52113,37.38399],[-95.339907,37.384077],[-95.282486,37.384093],[-95.176352,37.38427],[-95.131736,37.384353],[-95.124095,37.384125],[-95.088189,37.383837],[-95.088012,37.674519],[-95.088082,37.732476],[-95.124987,37.733924],[-95.361324,37.732811],[-95.460449,37.732948],[-95.525499,37.732759],[-95.525698,37.689271]]]}},{"type":"Feature","properties":{"code":"US-20135","name":"Ness","label":"Ness County","type":"County","parentCode":"US-KS"},"geometry":{"type":"Polygon","coordinates":[[[-100.2472,38.698165],[-100.244393,38.26229],[-100.227137,38.262237],[-99.584207,38.262179],[-99.584794,38.349386],[-99.585087,38.696537],[-99.598323,38.696514],[-100.153823,38.697341],[-100.2472,38.698165]]]}},{"type":"Feature","properties":{"code":"US-20137","name":"Norton","label":"Norton County","type":"County","parentCode":"US-KS"},"geometry":{"type":"Polygon","coordinates":[[[-100.177794883236,40.0015929864604],[-100.180351,39.56689],[-100.161667,39.567277],[-99.627953,39.567437],[-99.6253240088811,40.001865850441],[-99.62598,40.001865],[-99.6282545420969,40.0018659613449],[-99.628346,40.001866],[-99.719639,40.001808],[-99.731959,40.001827],[-99.746628,40.00182],[-99.756835,40.001342],[-99.764214,40.001551],[-99.772121,40.001804],[-99.77564,40.001647],[-99.813401,40.0014],[-99.906658,40.001512],[-99.930433,40.001516],[-99.944417,40.001584],[-99.948167,40.001813],[-99.986611,40.00155],[-99.990926,40.001503],[-100.177794883236,40.0015929864604]]]}},{"type":"Feature","properties":{"code":"US-20139","name":"Osage","label":"Osage County","type":"County","parentCode":"US-KS"},"geometry":{"type":"Polygon","coordinates":[[[-95.950012,38.463153],[-95.950282,38.434105],[-95.728303,38.434127],[-95.508267,38.433933],[-95.508435,38.476307],[-95.508549,38.528832],[-95.508042,38.695268],[-95.501223,38.695263],[-95.500738,38.738808],[-95.500724,38.869815],[-95.724103,38.869649],[-95.761524,38.869232],[-95.946587,38.869973],[-95.945924,38.739112],[-95.949654,38.695385],[-95.950012,38.463153]]]}},{"type":"Feature","properties":{"code":"US-20141","name":"Osborne","label":"Osborne County","type":"County","parentCode":"US-KS"},"geometry":{"type":"Polygon","coordinates":[[[-99.048076,39.277957],[-99.047687,39.133014],[-99.0375,39.133121],[-98.489997,39.132697],[-98.490149,39.21978],[-98.487384,39.567492],[-98.505266,39.567603],[-99.044398,39.568035],[-99.048076,39.277957]]]}},{"type":"Feature","properties":{"code":"US-20143","name":"Ottawa","label":"Ottawa County","type":"County","parentCode":"US-KS"},"geometry":{"type":"Polygon","coordinates":[[[-97.931614,39.277094],[-97.929746,39.219273],[-97.92856,38.958395],[-97.641137,38.958017],[-97.371614,38.957852],[-97.371154,39.131961],[-97.369839,39.306011],[-97.667454,39.306636],[-97.929097,39.306397],[-97.931614,39.277094]]]}},{"type":"Feature","properties":{"code":"US-20145","name":"Pawnee","label":"Pawnee County","type":"County","parentCode":"US-KS"},"geometry":{"type":"Polygon","coordinates":[[[-99.584794,38.349386],[-99.584207,38.262179],[-99.570675,38.262239],[-99.569927,38.174902],[-99.569533,38.087372],[-99.350359,38.087594],[-99.350289,38.000745],[-99.022136,38.000236],[-98.913136,38.000451],[-98.912583,38.261088],[-98.932864,38.261253],[-99.022472,38.261208],[-99.032309,38.261227],[-99.032408,38.348334],[-99.584794,38.349386]]]}},{"type":"Feature","properties":{"code":"US-20147","name":"Phillips","label":"Phillips County","type":"County","parentCode":"US-KS"},"geometry":{"type":"Polygon","coordinates":[[[-99.6253240088811,40.001865850441],[-99.627953,39.567437],[-99.602176,39.567328],[-99.365195,39.567518],[-99.06622,39.568125],[-99.067021970224,40.0021702872539],[-99.085597,40.002133],[-99.11351,40.002193],[-99.123033,40.002165],[-99.169816,40.001925],[-99.178965,40.001977],[-99.179134,40.001977],[-99.186962,40.001977],[-99.188905,40.002023],[-99.197592,40.002033],[-99.216376,40.002016],[-99.25037,40.001957],[-99.254012,40.002074],[-99.282967,40.001879],[-99.286656,40.002017],[-99.290703,40.001949],[-99.3301820602724,40.0019560069148],[-99.3667739819851,40.0019625014078],[-99.403389,40.001969],[-99.412645,40.001868],[-99.423565,40.00227],[-99.480728,40.001942],[-99.493465,40.001937],[-99.49766,40.001912],[-99.498999,40.001957],[-99.501792,40.002026],[-99.6253240088811,40.001865850441]]]}},{"type":"Feature","properties":{"code":"US-20149","name":"Pottawatomie","label":"Pottawatomie County","type":"County","parentCode":"US-KS"},"geometry":{"type":"Polygon","coordinates":[[[-96.727743,39.426851],[-96.714943,39.419514],[-96.726334,39.403353],[-96.693904,39.372547],[-96.691131,39.360018],[-96.663307,39.338861],[-96.665139,39.327385],[-96.646178,39.325497],[-96.654408,39.312952],[-96.633454,39.298642],[-96.639347,39.292285],[-96.594418,39.256018],[-96.578387,39.256192],[-96.579897,39.234341],[-96.561899,39.241128],[-96.549911,39.215717],[-96.546607,39.208625],[-96.5256,39.209575],[-96.519209,39.198912],[-96.559356,39.198391],[-96.558794,39.189278],[-96.553866,39.17895],[-96.51655,39.18742],[-96.516097,39.170956],[-96.499377,39.167389],[-96.489528,39.177799],[-96.476131,39.164457],[-96.460465,39.168295],[-96.456167,39.190961],[-96.412348,39.185011],[-96.394549,39.176878],[-96.389046,39.172878],[-96.372824,39.164172],[-96.356353,39.169565],[-96.346639,39.153906],[-96.331396,39.158885],[-96.324729,39.186051],[-96.294205,39.195453],[-96.273578,39.179408],[-96.234956,39.212132],[-96.21975,39.200764],[-96.196789,39.20658],[-96.178864,39.203206],[-96.178732,39.189963],[-96.152843,39.192576],[-96.12615,39.187158],[-96.110458,39.20082],[-96.09626,39.191841],[-96.083557,39.193504],[-96.06871,39.179415],[-96.057658,39.158168],[-96.083867,39.163263],[-96.088225,39.152339],[-96.05701,39.141385],[-96.04398,39.141174],[-96.03906,39.126527],[-96.035899,39.129784],[-96.035573,39.21652],[-96.034623,39.369045],[-96.035952,39.5661],[-96.238969,39.56622],[-96.561779,39.566301],[-96.580459,39.56621],[-96.58923,39.54566],[-96.615616,39.531773],[-96.620675,39.538355],[-96.642616,39.522109],[-96.639738,39.510206],[-96.661534,39.492974],[-96.66765,39.475418],[-96.682116,39.482761],[-96.689191,39.460392],[-96.70862,39.460374],[-96.720995,39.446161],[-96.71314,39.437024],[-96.727743,39.426851]]]}},{"type":"Feature","properties":{"code":"US-20151","name":"Pratt","label":"Pratt County","type":"County","parentCode":"US-KS"},"geometry":{"type":"Polygon","coordinates":[[[-99.013318,37.825336],[-99.01355,37.73297],[-99.012598,37.470421],[-98.464663,37.471013],[-98.464804,37.732675],[-98.464906,37.823149],[-98.472257,37.824497],[-98.743625,37.824975],[-99.013318,37.825336]]]}},{"type":"Feature","properties":{"code":"US-20153","name":"Rawlins","label":"Rawlins County","type":"County","parentCode":"US-KS"},"geometry":{"type":"Polygon","coordinates":[[[-101.411042549953,40.0023645110938],[-101.413913,39.568361],[-101.389068,39.568369],[-100.740873,39.568043],[-100.738825845252,40.0022284244175],[-100.752183,40.002128],[-100.75883,40.002302],[-100.937427,40.002145],[-101.027686,40.002256],[-101.060317,40.002307],[-101.130907,40.002427],[-101.168704,40.002547],[-101.178805,40.002468],[-101.192219,40.002491],[-101.215033,40.002555],[-101.248673,40.002543],[-101.286555,40.002559],[-101.293991,40.002559],[-101.324036,40.002696],[-101.342859,40.00258],[-101.374326,40.002521],[-101.409953,40.002354],[-101.411042549953,40.0023645110938]]]}},{"type":"Feature","properties":{"code":"US-20155","name":"Reno","label":"Reno County","type":"County","parentCode":"US-KS"},"geometry":{"type":"Polygon","coordinates":[[[-98.472794,38.172757],[-98.472257,37.824497],[-98.464906,37.823149],[-98.464804,37.732675],[-98.227376,37.73284],[-98.118272,37.732904],[-97.807823,37.733855],[-97.698692,37.735056],[-97.699679,37.825156],[-97.702101,37.825158],[-97.701969,37.911325],[-97.701905,38.014098],[-97.701894,38.043205],[-97.701841,38.173814],[-97.823444,38.173658],[-97.903875,38.173731],[-97.922136,38.173713],[-97.940471,38.173683],[-97.958914,38.173171],[-98.004995,38.17324],[-98.142268,38.173918],[-98.142181,38.159538],[-98.215924,38.15875],[-98.216032,38.173498],[-98.325847,38.173576],[-98.472794,38.172757]]]}},{"type":"Feature","properties":{"code":"US-20157","name":"Republic","label":"Republic County","type":"County","parentCode":"US-KS"},"geometry":{"type":"Polygon","coordinates":[[[-97.931811,40.00205],[-97.931825546011,40.0020500230574],[-97.931482,39.653767],[-97.660454,39.653517],[-97.660135,39.653514],[-97.36867,39.654043],[-97.368723,39.813447],[-97.3691991185285,40.0020598786434],[-97.415833,40.002001],[-97.417826,40.002024],[-97.425443,40.002048],[-97.444662,40.001958],[-97.463285,40.002047],[-97.510264,40.001835],[-97.511381,40.001899],[-97.515308,40.001901],[-97.6692368693546,40.0019577085179],[-97.6706620658588,40.0019582335707],[-97.767746,40.001994],[-97.769204,40.001995],[-97.770776,40.001977],[-97.777155,40.002167],[-97.819426,40.001958],[-97.8214959564515,40.0020018388567],[-97.821598,40.002004],[-97.838379,40.00191],[-97.85745,40.002065],[-97.876261,40.002102],[-97.931811,40.00205]]]}},{"type":"Feature","properties":{"code":"US-20159","name":"Rice","label":"Rice County","type":"County","parentCode":"US-KS"},"geometry":{"type":"Polygon","coordinates":[[[-98.480377,38.521841],[-98.480114,38.347451],[-98.479841,38.26079],[-98.472437,38.260741],[-98.472794,38.172757],[-98.325847,38.173576],[-98.216032,38.173498],[-98.215924,38.15875],[-98.142181,38.159538],[-98.142268,38.173918],[-98.004995,38.17324],[-97.958914,38.173171],[-97.940471,38.173683],[-97.922136,38.173713],[-97.922229,38.256672],[-97.924427,38.34789],[-97.924269,38.522755],[-98.480377,38.521841]]]}},{"type":"Feature","properties":{"code":"US-20161","name":"Riley","label":"Riley County","type":"County","parentCode":"US-KS"},"geometry":{"type":"Polygon","coordinates":[[[-96.96091,39.30676],[-96.961693,39.220076],[-96.849879,39.219012],[-96.84967,39.13928],[-96.831155,39.131854],[-96.832239,39.119645],[-96.846366,39.106746],[-96.851409,39.088176],[-96.823964,39.088115],[-96.756134,39.087796],[-96.73606,39.079957],[-96.71374,39.09007],[-96.706122,39.073077],[-96.500962,39.072681],[-96.501166,39.043666],[-96.390796,39.043257],[-96.389046,39.172878],[-96.394549,39.176878],[-96.412348,39.185011],[-96.456167,39.190961],[-96.460465,39.168295],[-96.476131,39.164457],[-96.489528,39.177799],[-96.499377,39.167389],[-96.516097,39.170956],[-96.51655,39.18742],[-96.553866,39.17895],[-96.558794,39.189278],[-96.559356,39.198391],[-96.519209,39.198912],[-96.5256,39.209575],[-96.546607,39.208625],[-96.549911,39.215717],[-96.561899,39.241128],[-96.579897,39.234341],[-96.578387,39.256192],[-96.594418,39.256018],[-96.639347,39.292285],[-96.633454,39.298642],[-96.654408,39.312952],[-96.646178,39.325497],[-96.665139,39.327385],[-96.663307,39.338861],[-96.691131,39.360018],[-96.693904,39.372547],[-96.726334,39.403353],[-96.714943,39.419514],[-96.727743,39.426851],[-96.71314,39.437024],[-96.720995,39.446161],[-96.70862,39.460374],[-96.689191,39.460392],[-96.682116,39.482761],[-96.66765,39.475418],[-96.661534,39.492974],[-96.639738,39.510206],[-96.642616,39.522109],[-96.620675,39.538355],[-96.615616,39.531773],[-96.58923,39.54566],[-96.580459,39.56621],[-96.806544,39.566423],[-96.958719,39.566432],[-96.96091,39.30676]]]}},{"type":"Feature","properties":{"code":"US-20163","name":"Rooks","label":"Rooks County","type":"County","parentCode":"US-KS"},"geometry":{"type":"Polygon","coordinates":[[[-99.604793,39.307319],[-99.605187,39.132481],[-99.591776,39.132357],[-99.298467,39.132879],[-99.047687,39.133014],[-99.048076,39.277957],[-99.044398,39.568035],[-99.06622,39.568125],[-99.365195,39.567518],[-99.602176,39.567328],[-99.604793,39.307319]]]}},{"type":"Feature","properties":{"code":"US-20165","name":"Rush","label":"Rush County","type":"County","parentCode":"US-KS"},"geometry":{"type":"Polygon","coordinates":[[[-99.585087,38.696537],[-99.584794,38.349386],[-99.032408,38.348334],[-99.032971,38.696759],[-99.042626,38.696807],[-99.319521,38.69683],[-99.585087,38.696537]]]}},{"type":"Feature","properties":{"code":"US-20167","name":"Russell","label":"Russell County","type":"County","parentCode":"US-KS"},"geometry":{"type":"Polygon","coordinates":[[[-99.0375,39.133121],[-99.042626,38.696807],[-99.032971,38.696759],[-98.719946,38.696725],[-98.486108,38.696878],[-98.484861,38.870791],[-98.483725,39.131614],[-98.489997,39.132697],[-99.0375,39.133121]]]}},{"type":"Feature","properties":{"code":"US-20169","name":"Saline","label":"Saline County","type":"County","parentCode":"US-KS"},"geometry":{"type":"Polygon","coordinates":[[[-97.92856,38.958395],[-97.928592,38.871099],[-97.928348,38.755599],[-97.925162,38.696972],[-97.924795,38.60988],[-97.70353,38.609101],[-97.621526,38.608931],[-97.371911,38.609353],[-97.371906,38.798116],[-97.372109,38.914258],[-97.381205,38.9289],[-97.371727,38.928925],[-97.371614,38.957852],[-97.641137,38.958017],[-97.92856,38.958395]]]}},{"type":"Feature","properties":{"code":"US-20171","name":"Scott","label":"Scott County","type":"County","parentCode":"US-KS"},"geometry":{"type":"Polygon","coordinates":[[[-101.128379,38.700603],[-101.125438,38.264509],[-101.103268,38.264557],[-100.684699,38.264137],[-100.688006,38.700021],[-100.818698,38.699861],[-101.128379,38.700603]]]}},{"type":"Feature","properties":{"code":"US-20173","name":"Sedgwick","label":"Sedgwick County","type":"County","parentCode":"US-KS"},"geometry":{"type":"Polygon","coordinates":[[[-97.808348,37.646788],[-97.8076,37.474184],[-97.587794,37.475166],[-97.514691,37.475556],[-97.484222,37.475376],[-97.47815,37.475761],[-97.369186,37.477276],[-97.322833,37.47662],[-97.26084,37.47554],[-97.153331,37.475544],[-97.153022,37.519258],[-97.152852,37.548419],[-97.152751,37.563043],[-97.152903,37.592153],[-97.152947,37.606686],[-97.152964,37.650313],[-97.15305,37.679386],[-97.153025,37.694059],[-97.153015,37.708678],[-97.152941,37.723292],[-97.152879,37.7379],[-97.153142,37.796199],[-97.152476,37.912733],[-97.263186,37.912313],[-97.482017,37.91228],[-97.482045,37.91228],[-97.686667,37.912469],[-97.701969,37.911325],[-97.702101,37.825158],[-97.699679,37.825156],[-97.698692,37.735056],[-97.807823,37.733855],[-97.806717,37.654039],[-97.808348,37.646788]]]}},{"type":"Feature","properties":{"code":"US-20175","name":"Seward","label":"Seward County","type":"County","parentCode":"US-KS"},"geometry":{"type":"Polygon","coordinates":[[[-101.068106,37.387779],[-101.066451000186,36.9979220177139],[-101.053589,36.997967],[-101.012641,36.998176],[-100.996502,36.998044],[-100.958226495697,36.9981251558517],[-100.945566,36.998152],[-100.945468897552,36.9981529691762],[-100.904588,36.998561],[-100.904274,36.998745],[-100.904215897903,36.9987443505315],[-100.89166,36.998604],[-100.855634,36.998626],[-100.814277,36.999085],[-100.806116,36.999091],[-100.765484,36.999177],[-100.756894,36.999357],[-100.734517,36.999059],[-100.675552,36.999688],[-100.633327,36.999936],[-100.633831,37.387577],[-100.652728,37.387627],[-101.068106,37.387779]]]}},{"type":"Feature","properties":{"code":"US-20177","name":"Shawnee","label":"Shawnee County","type":"County","parentCode":"US-KS"},"geometry":{"type":"Polygon","coordinates":[[[-96.035899,39.129784],[-96.03906,39.126527],[-96.016997,39.12033],[-95.993738,39.133817],[-96.008993,39.115818],[-95.972607,39.111569],[-95.946754,39.098685],[-95.946692,39.058282],[-95.946587,38.869973],[-95.761524,38.869232],[-95.724103,38.869649],[-95.500724,38.869815],[-95.500252,38.985895],[-95.501149,39.018161],[-95.501861,39.027413],[-95.500254,39.056656],[-95.513902,39.067151],[-95.548751,39.068319],[-95.579956,39.0541],[-95.596759,39.064672],[-95.594756,39.086399],[-95.594755,39.102546],[-95.59476,39.117058],[-95.589305,39.129159],[-95.589472,39.216081],[-95.667553,39.216436],[-95.719656,39.216459],[-95.730222,39.216481],[-96.035573,39.21652],[-96.035899,39.129784]]]}},{"type":"Feature","properties":{"code":"US-20179","name":"Sheridan","label":"Sheridan County","type":"County","parentCode":"US-KS"},"geometry":{"type":"Polygon","coordinates":[[[-100.720213,39.568034],[-100.721296,39.133381],[-100.1642,39.132071],[-100.161667,39.567277],[-100.180351,39.56689],[-100.720213,39.568034]]]}},{"type":"Feature","properties":{"code":"US-20181","name":"Sherman","label":"Sherman County","type":"County","parentCode":"US-KS"},"geometry":{"type":"Polygon","coordinates":[[[-102.049763830217,39.568180000858],[-102.049554,39.538932],[-102.049673,39.536691],[-102.049679,39.506183],[-102.049369,39.423333],[-102.04937,39.41821],[-102.049167,39.403597],[-102.04896,39.373712],[-102.048449,39.303138],[-102.04725,39.13702],[-102.047188609269,39.1331465624163],[-101.478195,39.134761],[-101.391717,39.135117],[-101.389068,39.568369],[-101.413913,39.568361],[-102.049763830217,39.568180000858]]]}},{"type":"Feature","properties":{"code":"US-20183","name":"Smith","label":"Smith County","type":"County","parentCode":"US-KS"},"geometry":{"type":"Polygon","coordinates":[[[-99.067021970224,40.0021702872539],[-99.06622,39.568125],[-99.044398,39.568035],[-98.505266,39.567603],[-98.5044549849831,40.0023285653691],[-98.523053,40.002336],[-98.543186,40.002285],[-98.560578,40.002274],[-98.575219,40.00248],[-98.593342,40.002476],[-98.613755,40.0024],[-98.64071,40.002493],[-98.652494,40.002245],[-98.653833,40.002269],[-98.669724,40.00241],[-98.672819,40.002364],[-98.690287,40.002548],[-98.691443,40.002505],[-98.693096,40.002373],[-98.710404,40.00218],[-98.726295,40.002222],[-98.7263734167054,40.0022221837665],[-98.774941,40.002336],[-98.777203,40.002359],[-98.82059,40.002319],[-98.834456,40.002363],[-98.934792,40.002205],[-98.960919,40.002271],[-98.961009,40.002317],[-98.971721,40.002268],[-98.972287,40.002245],[-98.992135,40.002192],[-99.018701,40.002333],[-99.020338,40.002264],[-99.067021970224,40.0021702872539]]]}},{"type":"Feature","properties":{"code":"US-20185","name":"Stafford","label":"Stafford County","type":"County","parentCode":"US-KS"},"geometry":{"type":"Polygon","coordinates":[[[-99.022136,38.000236],[-99.022627,37.825358],[-99.013318,37.825336],[-98.743625,37.824975],[-98.472257,37.824497],[-98.472794,38.172757],[-98.472437,38.260741],[-98.479841,38.26079],[-98.66398,38.260965],[-98.802819,38.260942],[-98.912583,38.261088],[-98.913136,38.000451],[-99.022136,38.000236]]]}},{"type":"Feature","properties":{"code":"US-20187","name":"Stanton","label":"Stanton County","type":"County","parentCode":"US-KS"},"geometry":{"type":"Polygon","coordinates":[[[-102.041899,37.541186],[-102.042016,37.535261],[-102.041786,37.506066],[-102.041801,37.469488],[-102.041755,37.434855],[-102.041669,37.43474],[-102.041676,37.409898],[-102.041585760593,37.3891904308032],[-101.556606,37.388485],[-101.52581,37.388392],[-101.527063,37.736314],[-102.041989965863,37.7385406283736],[-102.041876,37.723875],[-102.041574,37.680436],[-102.041694,37.665681],[-102.041582,37.654495],[-102.041585,37.644282],[-102.041618,37.607868],[-102.041894,37.557977],[-102.041899,37.541186]]]}},{"type":"Feature","properties":{"code":"US-20189","name":"Stevens","label":"Stevens County","type":"County","parentCode":"US-KS"},"geometry":{"type":"Polygon","coordinates":[[[-101.556606,37.388485],[-101.555260303913,36.9954138768669],[-101.555239,36.995414],[-101.519066,36.995546],[-101.485326,36.995611],[-101.415005,36.995966],[-101.413868,36.996008],[-101.37818,36.996164],[-101.361127690394,36.996226658438],[-101.359674,36.996232],[-101.357797,36.996271],[-101.212909,36.997044],[-101.211486,36.997124],[-101.066742,36.997921],[-101.066451000186,36.9979220177139],[-101.068106,37.387779],[-101.089653,37.387721],[-101.52581,37.388392],[-101.556606,37.388485]]]}},{"type":"Feature","properties":{"code":"US-20191","name":"Sumner","label":"Sumner County","type":"County","parentCode":"US-KS"},"geometry":{"type":"Polygon","coordinates":[[[-97.8076,37.474184],[-97.807057,37.386293],[-97.80453,37.384055],[-97.802936,37.273095],[-97.802715,37.1545],[-97.8023129924768,36.9987129775427],[-97.802298,36.998713],[-97.783489,36.998847],[-97.783432,36.998961],[-97.768704,36.99875],[-97.697104,36.998826],[-97.650466,36.999004],[-97.637137,36.99909],[-97.606549,36.998682],[-97.564536,36.998711],[-97.546498,36.998747],[-97.5459,36.998709],[-97.527292,36.99875],[-97.472861,36.998721],[-97.4623463219255,36.9986852256487],[-97.46228,36.998685],[-97.384925,36.998843],[-97.372421,36.998861],[-97.3427376532895,36.9988940255304],[-97.1562390840263,36.999101522826],[-97.147721,36.999111],[-97.148949,37.106905],[-97.150614,37.274729],[-97.150739,37.288359],[-97.153331,37.475544],[-97.26084,37.47554],[-97.322833,37.47662],[-97.369186,37.477276],[-97.47815,37.475761],[-97.484222,37.475376],[-97.514691,37.475556],[-97.587794,37.475166],[-97.8076,37.474184]]]}},{"type":"Feature","properties":{"code":"US-20193","name":"Thomas","label":"Thomas County","type":"County","parentCode":"US-KS"},"geometry":{"type":"Polygon","coordinates":[[[-101.389068,39.568369],[-101.391717,39.135117],[-100.811858,39.13336],[-100.721296,39.133381],[-100.720213,39.568034],[-100.740873,39.568043],[-101.389068,39.568369]]]}},{"type":"Feature","properties":{"code":"US-20195","name":"Trego","label":"Trego County","type":"County","parentCode":"US-KS"},"geometry":{"type":"Polygon","coordinates":[[[-100.14794,39.132179],[-100.153823,38.697341],[-99.598323,38.696514],[-99.591776,39.132357],[-99.605187,39.132481],[-100.14794,39.132179]]]}},{"type":"Feature","properties":{"code":"US-20197","name":"Wabaunsee","label":"Wabaunsee County","type":"County","parentCode":"US-KS"},"geometry":{"type":"Polygon","coordinates":[[[-96.501556,38.869704],[-96.501397,38.826188],[-96.390398,38.825858],[-96.389749,38.738984],[-96.352613,38.739021],[-95.945924,38.739112],[-95.946587,38.869973],[-95.946692,39.058282],[-95.946754,39.098685],[-95.972607,39.111569],[-96.008993,39.115818],[-95.993738,39.133817],[-96.016997,39.12033],[-96.03906,39.126527],[-96.04398,39.141174],[-96.05701,39.141385],[-96.088225,39.152339],[-96.083867,39.163263],[-96.057658,39.158168],[-96.06871,39.179415],[-96.083557,39.193504],[-96.09626,39.191841],[-96.110458,39.20082],[-96.12615,39.187158],[-96.152843,39.192576],[-96.178732,39.189963],[-96.178864,39.203206],[-96.196789,39.20658],[-96.21975,39.200764],[-96.234956,39.212132],[-96.273578,39.179408],[-96.294205,39.195453],[-96.324729,39.186051],[-96.331396,39.158885],[-96.346639,39.153906],[-96.356353,39.169565],[-96.372824,39.164172],[-96.389046,39.172878],[-96.390796,39.043257],[-96.501166,39.043666],[-96.501556,38.869704]]]}},{"type":"Feature","properties":{"code":"US-20199","name":"Wallace","label":"Wallace County","type":"County","parentCode":"US-KS"},"geometry":{"type":"Polygon","coordinates":[[[-102.047188609269,39.1331465624163],[-102.047134,39.129701],[-102.046571,39.047038],[-102.045388,38.813392],[-102.045334,38.799463],[-102.045448,38.783453],[-102.045371,38.770064],[-102.045287,38.755528],[-102.045375,38.754339],[-102.045212,38.697567],[-101.567094,38.699669],[-101.484383,38.700166],[-101.478195,39.134761],[-102.047188609269,39.1331465624163]]]}},{"type":"Feature","properties":{"code":"US-20201","name":"Washington","label":"Washington County","type":"County","parentCode":"US-KS"},"geometry":{"type":"Polygon","coordinates":[[[-97.3691985101944,40.0020598794115],[-97.3691991185285,40.0020598786434],[-97.368723,39.813447],[-97.36867,39.654043],[-97.368574,39.567018],[-96.958719,39.566432],[-96.806544,39.566423],[-96.806148,39.842449],[-96.805768,40.0013709706497],[-96.873812,40.00145],[-96.875057,40.001448],[-96.878253,40.001466],[-96.880459,40.001448],[-96.916093,40.001506],[-96.9164069976229,40.0015058549306],[-97.009165,40.001463],[-97.030803,40.001342],[-97.049663,40.001323],[-97.137866,40.001814],[-97.142448,40.001495],[-97.181775,40.00155],[-97.20019,40.001549],[-97.20231,40.001442],[-97.24508,40.001467],[-97.245169,40.001513],[-97.350272,40.001976],[-97.350896,40.00193],[-97.369103,40.00206],[-97.3691985101944,40.0020598794115]]]}},{"type":"Feature","properties":{"code":"US-20203","name":"Wichita","label":"Wichita County","type":"County","parentCode":"US-KS"},"geometry":{"type":"Polygon","coordinates":[[[-101.567094,38.699669],[-101.567482,38.263145],[-101.542312,38.263207],[-101.125438,38.264509],[-101.128379,38.700603],[-101.484383,38.700166],[-101.567094,38.699669]]]}},{"type":"Feature","properties":{"code":"US-20205","name":"Wilson","label":"Wilson County","type":"County","parentCode":"US-KS"},"geometry":{"type":"Polygon","coordinates":[[[-95.961002,37.603761],[-95.961605,37.386636],[-95.706382,37.384918],[-95.61539,37.384261],[-95.52556,37.383979],[-95.525999,37.616876],[-95.525698,37.689271],[-95.525499,37.732759],[-95.92092,37.734253],[-95.960876,37.734304],[-95.961002,37.603761]]]}},{"type":"Feature","properties":{"code":"US-20207","name":"Woodson","label":"Woodson County","type":"County","parentCode":"US-KS"},"geometry":{"type":"Polygon","coordinates":[[[-95.961408,37.821985],[-95.960876,37.734304],[-95.92092,37.734253],[-95.525499,37.732759],[-95.524862,37.820285],[-95.519308,37.820259],[-95.519163,37.979165],[-95.51897,38.03823],[-95.738904,38.039136],[-95.959046,38.040195],[-95.958229,37.836244],[-95.961408,37.821985]]]}},{"type":"Feature","properties":{"code":"US-20209","name":"Wyandotte","label":"Wyandotte County","type":"County","parentCode":"US-KS"},"geometry":{"type":"Polygon","coordinates":[[[-94.908797,39.057934],[-94.908765,38.991401],[-94.888431,39.016142],[-94.884352,39.048229],[-94.883566,39.050689],[-94.877724,39.056194],[-94.876425,39.057139],[-94.874802,39.058045],[-94.871722,39.059321],[-94.84907,39.061313],[-94.803326,39.04352],[-94.791527,39.043575],[-94.789611,39.043599],[-94.789177,39.043612],[-94.757068,39.043716],[-94.723892,39.043998],[-94.714536,39.044004],[-94.705282,39.043993],[-94.675919,39.044065],[-94.668937,39.044073],[-94.658844,39.044038],[-94.656102,39.044029],[-94.649141,39.044029],[-94.643874,39.044038],[-94.629835,39.044076],[-94.621224,39.044064],[-94.6075174403161,39.0440857494166],[-94.6074367838444,39.050237491838],[-94.6073437023927,39.057336898781],[-94.607234,39.065704],[-94.6072753040365,39.0723126458441],[-94.6072761897973,39.0724543675638],[-94.6073339141797,39.0816902687477],[-94.607334,39.081704],[-94.6073242874079,39.0824712947773],[-94.6073019983979,39.084232126562],[-94.607234,39.089604],[-94.6072345427118,39.0897118187523],[-94.607354,39.113444],[-94.6073507116102,39.1135052462609],[-94.6071050471143,39.1180807474961],[-94.607034,39.119404],[-94.6067312350472,39.1200561091291],[-94.605734,39.122204],[-94.6045305220195,39.1236343222263],[-94.600434,39.128503],[-94.592533,39.135903],[-94.589933,39.140403],[-94.5913267999632,39.1505777397311],[-94.591933,39.155003],[-94.596033,39.157703],[-94.601733,39.159603],[-94.608834,39.160503],[-94.615834,39.160003],[-94.6235659253681,39.1567575004628],[-94.623934,39.156603],[-94.640035,39.153103],[-94.650735,39.154103],[-94.650777273278,39.1541156458524],[-94.662435,39.157603],[-94.660315,39.168051],[-94.663835,39.179103],[-94.669135,39.182003],[-94.680336,39.184303],[-94.687236,39.183503],[-94.696332,39.178563],[-94.7025132991668,39.1757301215276],[-94.714137,39.170403],[-94.723637,39.169003],[-94.736537,39.169203],[-94.7419255818815,39.1702007007742],[-94.741938,39.170203],[-94.752338,39.173203],[-94.763138,39.179903],[-94.770338,39.190002],[-94.771062224301,39.1914783033829],[-94.775538,39.200602],[-94.777838,39.203522],[-94.781518,39.206146],[-94.783838,39.207154],[-94.787343,39.207666],[-94.799663,39.206018],[-94.811663,39.206594],[-94.8172846013404,39.2078598570394],[-94.818689,39.201623],[-94.846969,39.202053],[-94.881836,39.202622],[-94.900454,39.201988],[-94.900478,39.201501],[-94.900862,39.14315],[-94.901416,39.128684],[-94.908465,39.116001],[-94.908469,39.115707],[-94.908797,39.057934]]]}}]}
