{"type":"FeatureCollection","name":"admin2_usa_us-ut","adm0A3":"USA","parentCode":"US-UT","parentName":"Utah","bbox":[-114.052962,36.997968,-109.041058,42.001567],"features":[{"type":"Feature","properties":{"code":"US-49001","name":"Beaver","label":"Beaver County","type":"County","parentCode":"US-UT"},"geometry":{"type":"Polygon","coordinates":[[[-114.050485,38.499955],[-114.050091,38.404673],[-114.05012,38.404536],[-114.049417,38.2647],[-114.050138,38.24996],[-114.049903375658,38.1487630266706],[-113.256157,38.148668],[-112.959757,38.148198],[-112.7635,38.147446],[-112.478822,38.147419],[-112.473446,38.148858],[-112.444214,38.150001],[-112.422454,38.170824],[-112.424284,38.180945],[-112.397845,38.19935],[-112.395054,38.205984],[-112.36493,38.215121],[-112.35706,38.224958],[-112.379847,38.244366],[-112.350698,38.281798],[-112.348604,38.304892],[-112.338821,38.312006],[-112.335442,38.333038],[-112.343485,38.347267],[-112.362637,38.356814],[-112.380346,38.379889],[-112.39139,38.380633],[-112.403795,38.394757],[-112.403034,38.415601],[-112.417048,38.419507],[-112.425534,38.406797],[-112.444081,38.405646],[-112.453011,38.429232],[-112.479229,38.448049],[-112.493381,38.451625],[-112.501142,38.465361],[-112.519142,38.478709],[-112.510167,38.488377],[-112.518495,38.510413],[-112.522539,38.521344],[-112.517351,38.525821],[-112.515394,38.572845],[-112.752497,38.572681],[-113.11686,38.572612],[-114.05015385888,38.5729744583009],[-114.050154,38.57292],[-114.049862,38.547764],[-114.049834,38.543784],[-114.050485,38.499955]]]}},{"type":"Feature","properties":{"code":"US-49003","name":"Box Elder","label":"Box Elder County","type":"County","parentCode":"US-UT"},"geometry":{"type":"Polygon","coordinates":[[[-114.042553,41.210923],[-114.041447,41.207752],[-114.042145,40.999926],[-114.042145133139,40.9998965245684],[-113.201698,40.99993],[-112.799359,40.999939],[-112.663586,41.03428],[-112.493515,41.076888],[-112.238164,41.336551],[-112.133181,41.336872],[-112.073457,41.336701],[-112.049061,41.336607],[-112.034441,41.33655],[-112.028285,41.336636],[-112.023266,41.343104],[-111.963247,41.365489],[-111.975308,41.378393],[-111.968487,41.392241],[-111.972472,41.420053],[-111.959032,41.433727],[-111.938285,41.415878],[-111.918294,41.412361],[-111.885532,41.426343],[-111.881548,41.441174],[-111.916868,41.463656],[-111.87821,41.474447],[-111.884156,41.496023],[-111.905169,41.49685],[-111.913583,41.531611],[-111.937288,41.551155],[-111.953674,41.550442],[-111.981833,41.534102],[-111.999436,41.575976],[-112.006348,41.592504],[-112.005988,41.631891],[-112.030904,41.681839],[-112.045072,41.68685],[-112.051869,41.699906],[-112.042792,41.710433],[-112.042236,41.738485],[-112.033869,41.749653],[-112.033171,41.766824],[-112.021913,41.778797],[-112.008626,41.794637],[-112.030483,41.810047],[-112.028302,41.819135],[-112.046582,41.850783],[-112.085494,41.903311],[-112.118222,41.923122],[-112.138721,41.964304],[-112.150877,41.970564],[-112.16474663945,41.9966962195058],[-112.173352,41.996568],[-112.192976,42.001167],[-112.239107,42.001217],[-112.264936,42.000991],[-112.38617,42.001126],[-112.450567,42.001092],[-112.450814,42.000953],[-112.648019,42.000307],[-112.709375,42.000309],[-112.788542,41.999681],[-112.833084,41.999305],[-112.833125,41.999345],[-112.880619,41.998921],[-112.882367,41.998922],[-112.909587,41.998791],[-112.979218,41.998263],[-113.000040255018,41.9982244456233],[-113.000821,41.998223],[-113.249159,41.996203],[-113.250829,41.99561],[-113.340072,41.994747],[-113.357611,41.993859],[-113.396497,41.99425],[-113.40223,41.994161],[-113.431563,41.993799],[-113.496548,41.993305],[-113.500837,41.992799],[-113.76453,41.989459],[-113.764715998957,41.9894569072759],[-113.796082,41.989104],[-113.822163,41.988479],[-113.893261,41.988057],[-113.993903,41.992698],[-114.041723,41.99372],[-114.039648,41.884816],[-114.041107,41.850573],[-114.041152,41.850595],[-114.039901,41.753781],[-114.039968,41.62492],[-114.040437,41.615377],[-114.040439387995,41.6148310427617],[-114.040942,41.499921],[-114.040231,41.49169],[-114.041396,41.219958],[-114.042553,41.210923]]]}},{"type":"Feature","properties":{"code":"US-49005","name":"Cache","label":"Cache County","type":"County","parentCode":"US-UT"},"geometry":{"type":"Polygon","coordinates":[[[-112.163956,41.996708],[-112.16474663945,41.9966962195058],[-112.150877,41.970564],[-112.138721,41.964304],[-112.118222,41.923122],[-112.085494,41.903311],[-112.046582,41.850783],[-112.028302,41.819135],[-112.030483,41.810047],[-112.008626,41.794637],[-112.021913,41.778797],[-112.033171,41.766824],[-112.033869,41.749653],[-112.042236,41.738485],[-112.042792,41.710433],[-112.051869,41.699906],[-112.045072,41.68685],[-112.030904,41.681839],[-112.005988,41.631891],[-112.006348,41.592504],[-111.999436,41.575976],[-111.981833,41.534102],[-111.953674,41.550442],[-111.937288,41.551155],[-111.913583,41.531611],[-111.905169,41.49685],[-111.884156,41.496023],[-111.87821,41.474447],[-111.916868,41.463656],[-111.881548,41.441174],[-111.885532,41.426343],[-111.872602,41.421996],[-111.875155,41.404939],[-111.861294,41.396356],[-111.836737,41.387944],[-111.797202,41.392377],[-111.76059,41.368818],[-111.725798,41.376276],[-111.726971,41.384323],[-111.706825,41.40438],[-111.721875,41.427022],[-111.696577,41.417157],[-111.666928,41.428802],[-111.65237,41.407719],[-111.618578,41.422381],[-111.583856,41.418416],[-111.575476,41.428774],[-111.554093,41.423647],[-111.541523,41.405063],[-111.510815,41.423138],[-111.510284,41.424176],[-111.509863,41.428278],[-111.507552,41.428842],[-111.507247,41.430618],[-111.506925,41.432244],[-111.504351,41.436035],[-111.502214,41.436914],[-111.502624,41.440335],[-111.505597,41.442902],[-111.505322,41.446239],[-111.502936,41.448841],[-111.503242,41.453724],[-111.503117,41.459953],[-111.498073,41.465091],[-111.492982,41.465325],[-111.490768,41.465913],[-111.488725,41.469012],[-111.48966,41.470476],[-111.489585,41.473194],[-111.487315,41.473976],[-111.482953,41.476048],[-111.481948,41.47787],[-111.481522,41.480411],[-111.477696,41.487422],[-111.475536,41.490486],[-111.475354,41.495064],[-111.47714,41.496309],[-111.476704,41.497942],[-111.474898,41.498977],[-111.476433,41.500821],[-111.477114,41.502237],[-111.474885,41.505424],[-111.471998,41.506235],[-111.469542,41.50842],[-111.466307,41.510643],[-111.464956,41.514386],[-111.460908,41.518331],[-111.458316,41.519339],[-111.456711,41.52182],[-111.457534,41.523198],[-111.456543,41.526305],[-111.458501,41.528542],[-111.45934,41.531068],[-111.455785,41.531502],[-111.454225,41.530277],[-111.450539,41.530437],[-111.448155,41.53169],[-111.445076,41.531422],[-111.442147,41.533333],[-111.442251,41.53621],[-111.443952,41.541289],[-111.444904,41.541929],[-111.445072,41.543758],[-111.443131,41.545768],[-111.442799,41.548253],[-111.437957,41.550193],[-111.434289,41.552049],[-111.433105,41.554968],[-111.432597,41.55718],[-111.431034,41.560316],[-111.431578,41.562742],[-111.430053,41.566089],[-111.430277,41.56834],[-111.430345,41.573465],[-111.428613,41.578194],[-111.427203,41.581909],[-111.42712,41.585141],[-111.428918,41.589173],[-111.427382,41.593119],[-111.4274,41.598321],[-111.427713,41.601397],[-111.427618,41.604709],[-111.427782,41.60886],[-111.42705,41.612286],[-111.429232,41.617239],[-111.424949,41.622683],[-111.41978,41.623271],[-111.41307,41.625275],[-111.411635,41.626212],[-111.411054,41.627793],[-111.411981,41.62958],[-111.412144,41.632271],[-111.415623,41.637189],[-111.415238,41.640377],[-111.412606,41.642232],[-111.409752,41.644213],[-111.408477,41.64699],[-111.405096,41.651087],[-111.401885,41.653768],[-111.401958,41.656871],[-111.403681,41.66055],[-111.406318,41.663759],[-111.405722,41.66492],[-111.40663,41.666443],[-111.408959,41.666156],[-111.410905,41.665942],[-111.413879,41.666523],[-111.414362,41.668672],[-111.414408,41.672076],[-111.414402,41.674308],[-111.414532,41.675426],[-111.416206,41.676042],[-111.41752,41.675471],[-111.420412,41.674356],[-111.42365,41.674577],[-111.42665,41.677619],[-111.426227,41.679465],[-111.425644,41.683083],[-111.42587,41.685703],[-111.424631,41.687756],[-111.424348,41.690083],[-111.425444,41.693329],[-111.42664,41.694122],[-111.425937,41.696083],[-111.423804,41.69698],[-111.421041,41.697075],[-111.420177,41.69836],[-111.421164,41.699706],[-111.421585,41.701449],[-111.421148,41.704338],[-111.419919,41.707603],[-111.417886,41.710165],[-111.417047,41.712319],[-111.417768,41.715728],[-111.417744,41.717971],[-111.417629,41.720622],[-111.419942,41.723086],[-111.421836,41.724767],[-111.426623,41.726218],[-111.429959,41.727716],[-111.431665,41.729279],[-111.434506,41.730998],[-111.436835,41.733124],[-111.439891,41.734698],[-111.442042,41.73582],[-111.441833,41.738676],[-111.441838,41.742389],[-111.444528,41.7434],[-111.444638,41.745783],[-111.442805,41.747031],[-111.442508,41.749168],[-111.442035,41.75109],[-111.44128,41.753495],[-111.441555,41.756896],[-111.444576,41.758981],[-111.445323,41.761581],[-111.445307,41.763702],[-111.444023,41.765321],[-111.444538,41.76801],[-111.44354,41.769459],[-111.443926,41.771872],[-111.445931,41.772796],[-111.447617,41.77241],[-111.449921,41.772806],[-111.450993,41.775114],[-111.452053,41.777827],[-111.453577,41.779],[-111.454694,41.781519],[-111.453333,41.785213],[-111.454155,41.788702],[-111.452296,41.79102],[-111.45113,41.792015],[-111.45172,41.79463],[-111.452024,41.797174],[-111.453933,41.802097],[-111.453988,41.803848],[-111.455511,41.805181],[-111.4579,41.806385],[-111.460223,41.808885],[-111.460798,41.811819],[-111.461505,41.814748],[-111.460888,41.817167],[-111.464674,41.821702],[-111.470179,41.825355],[-111.476102,41.829044],[-111.479026,41.832114],[-111.483406,41.83617],[-111.48794,41.839525],[-111.493077,41.842674],[-111.4962,41.845439],[-111.497996,41.847173],[-111.500604,41.849495],[-111.505173,41.851367],[-111.506679,41.852131],[-111.506715,41.853909],[-111.504725,41.85575],[-111.502684,41.858904],[-111.504247,41.862896],[-111.507103,41.865413],[-111.508698,41.867122],[-111.5079,41.868204],[-111.505816,41.867871],[-111.502952,41.868108],[-111.501497,41.868906],[-111.499523,41.871318],[-111.49698,41.872298],[-111.493171,41.875278],[-111.492543,41.878198],[-111.492711,41.881215],[-111.492592,41.88544],[-111.495691,41.887101],[-111.499834,41.887512],[-111.501369,41.887294],[-111.501949,41.889768],[-111.500564,41.891431],[-111.500783,41.895587],[-111.500432,41.897862],[-111.503525,41.901289],[-111.505778,41.902869],[-111.508684,41.904181],[-111.510641,41.904753],[-111.511808,41.906993],[-111.511397,41.908813],[-111.508809,41.911876],[-111.504879,41.91206],[-111.501571,41.913025],[-111.49806,41.912769],[-111.493431,41.912055],[-111.490916,41.910464],[-111.486615,41.910441],[-111.482693,41.911014],[-111.479192,41.912533],[-111.478034,41.914774],[-111.478027,41.917886],[-111.476365,41.920973],[-111.474459,41.922864],[-111.473726,41.924119],[-111.473443,41.925401],[-111.471932,41.927429],[-111.472368,41.930487],[-111.474708,41.932981],[-111.475829,41.934659],[-111.476523,41.937214],[-111.475642,41.940939],[-111.47441,41.945455],[-111.474071,41.947985],[-111.475779,41.950418],[-111.477671,41.954252],[-111.475937,41.957182],[-111.478568,41.96035],[-111.480492,41.962943],[-111.483196,41.963614],[-111.484387,41.966311],[-111.483572,41.970236],[-111.48459,41.973209],[-111.486098,41.976282],[-111.490393,41.977113],[-111.492074,41.978381],[-111.493965,41.979489],[-111.495719,41.983276],[-111.499749,41.986091],[-111.504353,41.987634],[-111.508089,41.98909],[-111.50861,41.993476],[-111.507584,41.995913],[-111.507789674782,41.9995175941635],[-111.507805973428,41.9995175815805],[-111.739701086893,41.9993385517041],[-111.750778,41.99933],[-111.876491,41.998528],[-111.896109959209,41.9985119562829],[-111.915622,41.998496],[-111.915837,41.998519],[-111.933594743632,41.9984878502675],[-112.01218,41.99835],[-112.10944249133,41.9975986914138],[-112.109532,41.997598],[-112.163956,41.996708]]]}},{"type":"Feature","properties":{"code":"US-49007","name":"Carbon","label":"Carbon County","type":"County","parentCode":"US-UT"},"geometry":{"type":"Polygon","coordinates":[[[-111.247496,39.813028],[-111.24746,39.704373],[-111.221216,39.690783],[-111.22164,39.675329],[-111.20103,39.656869],[-111.186239,39.619495],[-111.159113,39.595947],[-111.132248,39.613876],[-111.119209,39.571518],[-111.116335,39.551882],[-111.085349,39.521522],[-111.080585,39.495926],[-111.081333,39.467455],[-110.856723,39.469517],[-110.6446,39.469506],[-110.63241,39.469401],[-110.626947,39.469802],[-110.023975,39.469268],[-110.023963,39.469268],[-110.014676,39.490902],[-110.022335,39.499536],[-110.027083,39.523893],[-110.04823,39.53315],[-110.029993,39.539305],[-110.029106,39.554915],[-110.038093,39.566627],[-110.01861,39.586525],[-110.028978,39.600651],[-110.011303,39.624962],[-109.997405,39.627232],[-110.011569,39.637599],[-110.010405,39.646687],[-109.996019,39.646191],[-109.984332,39.664677],[-109.99051,39.684748],[-110.002771,39.682425],[-109.994199,39.702596],[-109.970531,39.709689],[-109.992629,39.730333],[-109.991642,39.73918],[-109.962561,39.740642],[-109.961781,39.725705],[-109.952504,39.719121],[-109.945452,39.749419],[-109.928501,39.752257],[-109.920811,39.774141],[-109.929803,39.79557],[-109.919264,39.786265],[-109.8972,39.788884],[-109.876289,39.7835],[-109.8783,39.793735],[-109.893593,39.80188],[-109.88308,39.806236],[-109.976756,39.80623],[-110.063317,39.806295],[-110.518198,39.806719],[-110.518195,39.811641],[-110.78006,39.812758],[-110.85778,39.813285],[-111.079051,39.814128],[-111.247496,39.813028]]]}},{"type":"Feature","properties":{"code":"US-49009","name":"Daggett","label":"Daggett County","type":"County","parentCode":"US-UT"},"geometry":{"type":"Polygon","coordinates":[[[-110.000708,40.997352],[-110.000711,40.813678],[-109.987862,40.807618],[-109.976402,40.809686],[-109.919223,40.790814],[-109.913914,40.782447],[-109.896795,40.782043],[-109.869985,40.764002],[-109.834146,40.768415],[-109.831706,40.775809],[-109.790597,40.782326],[-109.764411,40.782796],[-109.75001,40.802441],[-109.728057,40.79531],[-109.720041,40.801874],[-109.693856,40.802067],[-109.675862,40.795173],[-109.654817,40.799236],[-109.631577,40.815979],[-109.601738,40.815211],[-109.580705,40.825449],[-109.571853,40.813539],[-109.52658,40.826891],[-109.511463,40.795971],[-109.518804,40.782463],[-109.513234,40.751682],[-109.484213,40.740466],[-109.472105,40.746109],[-109.469784,40.755153],[-109.436321,40.758046],[-109.4342,40.777258],[-109.394465,40.791032],[-109.394491,40.858166],[-109.202158,40.858412],[-109.201412,40.785747],[-109.163425,40.785955],[-109.16181,40.77155],[-109.161063,40.683765],[-109.123457,40.684128],[-109.123348,40.662385],[-109.048372974241,40.662608858969],[-109.049088,40.714562],[-109.048455,40.826081],[-109.050076,41.000659],[-109.173682,41.000859],[-109.231985,41.002059],[-109.250735,41.001009],[-109.500694,40.999127],[-109.534926,40.998143],[-109.565094344212,40.9981967292678],[-109.676421,40.998395],[-109.713877,40.998266],[-109.715409,40.998191],[-109.854302,40.997661],[-109.855299,40.997614],[-109.97553,40.997912],[-109.999838,40.99733],[-110.000708,40.997352]]]}},{"type":"Feature","properties":{"code":"US-49011","name":"Davis","label":"Davis County","type":"County","parentCode":"US-UT"},"geometry":{"type":"Polygon","coordinates":[[[-112.451621,41.087334],[-112.493515,41.076888],[-112.260216,40.769093],[-112.148271,40.846133],[-112.008134,40.921016],[-111.972263,40.921828],[-111.95866,40.918064],[-111.968734,40.886904],[-111.963003,40.84817],[-111.955872,40.849112],[-111.951248,40.841963],[-111.946408,40.822046],[-111.916184,40.821823],[-111.915555,40.821816],[-111.900907,40.819882],[-111.891154,40.821826],[-111.858127,40.824338],[-111.844074,40.832236],[-111.838395,40.830764],[-111.821767,40.834332],[-111.815761,40.838923],[-111.804658,40.837855],[-111.738912,40.861174],[-111.768689,40.872279],[-111.770272,40.887897],[-111.792508,40.930155],[-111.806705,40.948722],[-111.810647,40.949496],[-111.814647,40.959774],[-111.775105,40.959203],[-111.810466,41.005086],[-111.838388,41.023484],[-111.833688,41.037012],[-111.851796,41.066651],[-111.854093,41.108888],[-111.844551,41.121788],[-111.856059,41.138615],[-111.856247,41.139083],[-111.861255,41.137511],[-111.912182,41.134831],[-111.914955,41.137193],[-111.956191,41.140631],[-111.969086,41.152036],[-111.987803,41.154384],[-112.000191,41.152669],[-112.021227,41.152653],[-112.025101,41.152646],[-112.037532,41.152627],[-112.064469,41.152716],[-112.077871,41.152703],[-112.08375,41.152708],[-112.104606,41.152733],[-112.122882,41.152748],[-112.186693,41.153028],[-112.199344,41.149904],[-112.451621,41.087334]]]}},{"type":"Feature","properties":{"code":"US-49013","name":"Duchesne","label":"Duchesne County","type":"County","parentCode":"US-UT"},"geometry":{"type":"Polygon","coordinates":[[[-110.903432,40.701843],[-110.904549,40.695712],[-110.902126,40.688951],[-110.901066,40.684522],[-110.90195,40.682187],[-110.902928,40.431287],[-110.89627,40.082384],[-110.891655,39.899654],[-110.857647,39.899707],[-110.85778,39.813285],[-110.78006,39.812758],[-110.518195,39.811641],[-110.518198,39.806719],[-110.063317,39.806295],[-109.976756,39.80623],[-109.976597,40.258732],[-109.976576,40.287684],[-109.976571,40.31671],[-109.976564,40.341657],[-109.976494,40.548343],[-109.976402,40.809686],[-109.987862,40.807618],[-110.000711,40.813678],[-110.002085,40.813476],[-110.008588,40.81387],[-110.013344,40.813744],[-110.016979,40.815338],[-110.019702,40.817586],[-110.022509,40.819668],[-110.027204,40.820298],[-110.032927,40.818549],[-110.038709,40.818873],[-110.041264,40.819744],[-110.04515,40.818353],[-110.046989,40.815725],[-110.051774,40.812386],[-110.057945,40.812851],[-110.063962,40.814138],[-110.068899,40.812503],[-110.074016,40.810328],[-110.079328,40.81028],[-110.084582,40.810601],[-110.089321,40.810873],[-110.094065,40.80946],[-110.098483,40.808373],[-110.102859,40.807917],[-110.107105,40.809211],[-110.111549,40.811506],[-110.117543,40.811047],[-110.122516,40.811545],[-110.125396,40.813837],[-110.130255,40.813256],[-110.138691,40.810865],[-110.145554,40.81379],[-110.147762,40.815869],[-110.152533,40.818823],[-110.158559,40.82097],[-110.164961,40.820125],[-110.169124,40.818646],[-110.174197,40.817403],[-110.179954,40.82021],[-110.18347,40.820726],[-110.186591,40.823455],[-110.188143,40.825065],[-110.189765,40.825234],[-110.192122,40.824061],[-110.196414,40.822601],[-110.202661,40.821802],[-110.207225,40.823447],[-110.210348,40.826075],[-110.215812,40.82736],[-110.219772,40.825959],[-110.227051,40.827197],[-110.227905,40.829171],[-110.231574,40.829858],[-110.234516,40.828783],[-110.241091,40.828867],[-110.245216,40.831168],[-110.250207,40.832327],[-110.259252,40.834381],[-110.269176,40.833012],[-110.277691,40.829791],[-110.282244,40.828153],[-110.288451,40.828416],[-110.291068,40.830446],[-110.291458,40.832263],[-110.294957,40.833148],[-110.297725,40.831257],[-110.302584,40.825935],[-110.30947,40.824589],[-110.315043,40.822406],[-110.320321,40.82051],[-110.328561,40.819545],[-110.335641,40.821446],[-110.339089,40.822709],[-110.343166,40.822939],[-110.344927,40.821134],[-110.350627,40.816081],[-110.350134,40.811858],[-110.348945,40.808682],[-110.352022,40.804887],[-110.354435,40.801354],[-110.357231,40.798754],[-110.361503,40.795949],[-110.366042,40.793565],[-110.370698,40.790685],[-110.37288,40.789291],[-110.374753,40.788144],[-110.375482,40.788603],[-110.37733,40.788081],[-110.379164,40.787136],[-110.383154,40.787041],[-110.387493,40.78755],[-110.391192,40.787435],[-110.394416,40.788078],[-110.397323,40.787025],[-110.400129,40.785418],[-110.405578,40.784361],[-110.409892,40.784343],[-110.412729,40.785232],[-110.415386,40.787646],[-110.419572,40.789371],[-110.422328,40.790757],[-110.42512,40.790681],[-110.427166,40.789173],[-110.429472,40.784955],[-110.431216,40.779928],[-110.435316,40.777858],[-110.439266,40.778854],[-110.444061,40.780837],[-110.448381,40.781448],[-110.452629,40.781527],[-110.455421,40.782157],[-110.45817,40.782116],[-110.459811,40.78079],[-110.461087,40.77769],[-110.465405,40.774114],[-110.471833,40.771936],[-110.47751,40.77403],[-110.483826,40.777927],[-110.485592,40.779471],[-110.488549,40.778575],[-110.49043,40.775966],[-110.494041,40.772455],[-110.49755,40.769077],[-110.501369,40.767063],[-110.505324,40.765837],[-110.509327,40.765201],[-110.513544,40.764602],[-110.518181,40.763104],[-110.527063,40.762915],[-110.529959,40.766328],[-110.533018,40.769936],[-110.535663,40.771643],[-110.540635,40.771479],[-110.543705,40.772175],[-110.547938,40.772576],[-110.548814,40.770909],[-110.55039,40.766555],[-110.553692,40.763559],[-110.558193,40.761126],[-110.560805,40.758465],[-110.564809,40.757615],[-110.568619,40.756436],[-110.572408,40.756842],[-110.576017,40.756814],[-110.579046,40.758078],[-110.581727,40.760326],[-110.582561,40.761616],[-110.584576,40.762468],[-110.586894,40.762176],[-110.5904,40.761283],[-110.593912,40.758598],[-110.598428,40.757154],[-110.60284,40.757318],[-110.606347,40.757307],[-110.608573,40.759464],[-110.611778,40.76147],[-110.615452,40.763077],[-110.618788,40.765065],[-110.620411,40.767503],[-110.622322,40.768964],[-110.62616,40.769206],[-110.627872,40.768041],[-110.632296,40.766298],[-110.634198,40.763958],[-110.637158,40.760102],[-110.640722,40.75605],[-110.644999,40.753739],[-110.647239,40.751224],[-110.647438,40.748351],[-110.649933,40.74589],[-110.652195,40.743604],[-110.655178,40.741757],[-110.656114,40.740485],[-110.658706,40.740781],[-110.660639,40.741458],[-110.664528,40.74197],[-110.668349,40.741692],[-110.672988,40.739998],[-110.676694,40.738986],[-110.67935,40.739952],[-110.683489,40.741118],[-110.687867,40.741473],[-110.691219,40.742379],[-110.694198,40.744126],[-110.696435,40.746606],[-110.70093,40.747533],[-110.70489,40.74935],[-110.708613,40.751062],[-110.71073,40.752117],[-110.71267,40.752734],[-110.71406,40.751789],[-110.716204,40.750303],[-110.718976,40.748998],[-110.72162,40.746864],[-110.723231,40.74549],[-110.727716,40.745221],[-110.732503,40.746129],[-110.73547,40.74614],[-110.738993,40.744986],[-110.743471,40.744821],[-110.747557,40.746415],[-110.75119,40.747337],[-110.754111,40.745569],[-110.756904,40.742841],[-110.761883,40.741694],[-110.764205,40.741834],[-110.766081,40.74018],[-110.765371,40.738277],[-110.767606,40.736034],[-110.771464,40.733425],[-110.775023,40.731432],[-110.780349,40.730893],[-110.783476,40.730349],[-110.786031,40.727507],[-110.789317,40.723874],[-110.792828,40.720141],[-110.797267,40.716631],[-110.800554,40.713993],[-110.80465,40.712189],[-110.808985,40.711603],[-110.813632,40.711276],[-110.818666,40.710892],[-110.823957,40.710761],[-110.827577,40.714352],[-110.831575,40.71788],[-110.836664,40.718734],[-110.840134,40.720973],[-110.843693,40.723293],[-110.845911,40.724341],[-110.849622,40.724674],[-110.852217,40.72344],[-110.857686,40.721921],[-110.863648,40.721868],[-110.867118,40.724045],[-110.870951,40.726435],[-110.87427,40.727687],[-110.880386,40.727954],[-110.889855,40.727072],[-110.892941,40.725836],[-110.893829,40.72272],[-110.891771,40.721214],[-110.8888,40.720242],[-110.887064,40.717843],[-110.885294,40.71599],[-110.888508,40.714554],[-110.89184,40.714517],[-110.898108,40.711578],[-110.902075,40.706968],[-110.903432,40.701843]]]}},{"type":"Feature","properties":{"code":"US-49015","name":"Emery","label":"Emery County","type":"County","parentCode":"US-UT"},"geometry":{"type":"Polygon","coordinates":[[[-111.307011,38.672331],[-111.305665,38.510169],[-111.305701,38.499998],[-110.345339,38.499981],[-110.025285,38.499982],[-110.044333,38.507377],[-110.043431,38.516586],[-110.023002,38.513207],[-110.013143,38.524155],[-109.99377,38.526022],[-110.00562,38.54316],[-109.988326,38.564564],[-109.995001,38.569037],[-110.017595,38.563326],[-110.026586,38.576946],[-110.036905,38.571124],[-110.058432,38.582284],[-110.033604,38.604589],[-110.018411,38.5898],[-109.999293,38.589832],[-109.99604,38.608251],[-109.998885,38.616742],[-110.015914,38.622996],[-110.020049,38.612046],[-110.052131,38.605267],[-110.063717,38.607677],[-110.065185,38.619737],[-110.042224,38.617474],[-110.049188,38.632954],[-110.035826,38.65399],[-110.044603,38.659803],[-110.052768,38.645938],[-110.055364,38.660026],[-110.070968,38.656726],[-110.068685,38.670158],[-110.088692,38.665229],[-110.08665,38.677122],[-110.101102,38.69354],[-110.086568,38.706147],[-110.09136,38.714664],[-110.120614,38.70584],[-110.107669,38.718841],[-110.112904,38.732731],[-110.101871,38.746908],[-110.081552,38.754824],[-110.091139,38.770588],[-110.108847,38.77847],[-110.121709,38.792075],[-110.104507,38.801673],[-110.120725,38.832263],[-110.14598,38.8428],[-110.137129,38.856766],[-110.13879,38.868574],[-110.162892,38.865663],[-110.159387,38.890243],[-110.179296,38.908097],[-110.173316,38.927037],[-110.135463,38.926222],[-110.140798,38.944446],[-110.152475,38.95029],[-110.1367,38.962654],[-110.147882,38.97975],[-110.069114,38.978983],[-110.069134,38.964448],[-110.050505,38.964452],[-110.041198,38.949932],[-110.003984,38.949911],[-110.003977,38.964446],[-110.022587,38.964451],[-110.022559,38.978971],[-110.041184,38.978975],[-110.041176,38.993516],[-110.059811,38.993544],[-110.059807,38.986248],[-110.096336,38.986257],[-110.09632,39.001676],[-110.133899,39.001736],[-110.150178,38.997237],[-110.13967,39.008623],[-110.153396,39.016411],[-110.139942,39.02481],[-110.153483,39.030938],[-110.139024,39.060947],[-110.145482,39.07461],[-110.140523,39.088361],[-110.11774,39.095701],[-110.109304,39.112758],[-110.115039,39.122105],[-110.099615,39.136495],[-110.112737,39.147021],[-110.113265,39.159383],[-110.099049,39.167718],[-110.105128,39.178131],[-110.098002,39.189899],[-110.080269,39.192995],[-110.072357,39.206822],[-110.078082,39.224772],[-110.054305,39.228645],[-110.063324,39.250777],[-110.061505,39.265932],[-110.077562,39.276859],[-110.067115,39.293937],[-110.049476,39.304778],[-110.060029,39.30744],[-110.05773,39.330548],[-110.047953,39.326012],[-110.031812,39.35106],[-110.018646,39.362713],[-110.01829,39.400036],[-110.010036,39.410062],[-110.020832,39.427953],[-110.023568,39.445421],[-110.015862,39.456245],[-110.023975,39.469268],[-110.626947,39.469802],[-110.63241,39.469401],[-110.6446,39.469506],[-110.856723,39.469517],[-111.081333,39.467455],[-111.080585,39.495926],[-111.085349,39.521522],[-111.116335,39.551882],[-111.119209,39.571518],[-111.132248,39.613876],[-111.159113,39.595947],[-111.186239,39.619495],[-111.20103,39.656869],[-111.22164,39.675329],[-111.221216,39.690783],[-111.24746,39.704373],[-111.247316,39.582351],[-111.247748,39.467199],[-111.28254,39.467204],[-111.300905,39.467237],[-111.300944,39.38916],[-111.299639,39.211257],[-111.299363,39.032311],[-111.298196,39.017823],[-111.29877,38.789176],[-111.299138,38.672329],[-111.307011,38.672331]]]}},{"type":"Feature","properties":{"code":"US-49017","name":"Garfield","label":"Garfield County","type":"County","parentCode":"US-UT"},"geometry":{"type":"Polygon","coordinates":[[[-112.689297,37.80559],[-112.689121,37.717213],[-112.686778,37.660331],[-112.683592,37.631886],[-112.68375,37.543692],[-112.361167,37.542805],[-112.36117,37.536859],[-112.27743,37.536873],[-111.843168,37.535797],[-111.04616,37.540184],[-110.646731,37.540566],[-110.645844,37.541696],[-110.638713,37.551021],[-110.629435,37.557793],[-110.619867,37.563568],[-110.606109,37.564712],[-110.598558,37.571821],[-110.599347,37.582122],[-110.60257,37.592548],[-110.604135,37.600854],[-110.597614,37.605204],[-110.584952,37.607634],[-110.573473,37.611018],[-110.565534,37.618087],[-110.564197,37.626753],[-110.563623,37.635475],[-110.562245,37.639861],[-110.556307,37.642466],[-110.551654,37.640583],[-110.543517,37.634787],[-110.53343,37.634788],[-110.529106,37.640166],[-110.523769,37.649725],[-110.515761,37.655651],[-110.507219,37.653876],[-110.503209,37.651799],[-110.497676,37.652704],[-110.4972,37.657768],[-110.494581,37.666121],[-110.487133,37.673254],[-110.485995,37.679658],[-110.484721,37.689279],[-110.484492,37.697737],[-110.487067,37.700118],[-110.484212,37.704558],[-110.478525,37.706102],[-110.469319,37.714569],[-110.468985,37.723455],[-110.45962,37.729257],[-110.449124,37.736689],[-110.447667,37.744975],[-110.447466,37.753043],[-110.445699,37.759924],[-110.43857,37.765193],[-110.431561,37.769351],[-110.42713,37.773471],[-110.426428,37.776861],[-110.430633,37.779027],[-110.434342,37.777625],[-110.441515,37.773662],[-110.450406,37.772095],[-110.458486,37.77115],[-110.464949,37.773996],[-110.469909,37.779264],[-110.472106,37.785448],[-110.473241,37.793556],[-110.477187,37.796164],[-110.476039,37.801878],[-110.472626,37.807465],[-110.467256,37.808554],[-110.457725,37.8092],[-110.447323,37.808696],[-110.442802,37.806219],[-110.436872,37.807844],[-110.435487,37.812245],[-110.435683,37.8194],[-110.434848,37.825266],[-110.432073,37.835649],[-110.4261,37.841934],[-110.417928,37.844958],[-110.406672,37.848332],[-110.402675,37.855283],[-110.403914,37.861125],[-110.403789,37.86674],[-110.405069,37.872348],[-110.405413,37.87759],[-110.399384,37.883504],[-110.390359,37.88709],[-110.379894,37.890122],[-110.370014,37.89116],[-110.356874,37.892932],[-110.345068,37.891055],[-110.333424,37.8909],[-110.323879,37.890628],[-110.312918,37.89034],[-110.304757,37.890482],[-110.296915,37.888101],[-110.294121,37.881207],[-110.293547,37.874052],[-110.291205,37.869275],[-110.285067,37.866191],[-110.279023,37.868642],[-110.277638,37.873099],[-110.278242,37.87701],[-110.278688,37.883741],[-110.275919,37.891313],[-110.268147,37.89802],[-110.259138,37.89873],[-110.250715,37.897095],[-110.240397,37.896154],[-110.228286,37.895444],[-110.217276,37.892777],[-110.208215,37.89459],[-110.204914,37.899584],[-110.204023,37.906283],[-110.200848,37.911728],[-110.198327,37.916997],[-110.199938,37.922731],[-110.20418,37.92869],[-110.205942,37.937327],[-110.203822,37.944622],[-110.197112,37.949299],[-110.189309,37.951909],[-110.183275,37.955675],[-110.176789,37.959555],[-110.171525,37.962519],[-110.165525,37.968101],[-110.163267,37.975426],[-110.160921,37.982462],[-110.156696,37.98501],[-110.151947,37.987106],[-110.146256,37.990251],[-110.143137,37.994568],[-110.139854,38.00019],[-110.13699,38.004549],[-110.128452,38.007037],[-110.12225,38.007951],[-110.117536,38.008249],[-110.11301,38.008107],[-110.108801,38.005808],[-110.105049,38.003319],[-110.102509,38.000979],[-110.099263,37.997705],[-110.094478,37.995104],[-110.089909,37.994808],[-110.08365,37.995359],[-110.078042,37.998465],[-110.075081,38.002515],[-110.074466,38.006566],[-110.074148,38.011484],[-110.076469,38.016234],[-110.077289,38.020314],[-110.075262,38.023872],[-110.072945,38.027856],[-110.071374,38.030885],[-110.068852,38.035249],[-110.066751,38.039599],[-110.06365,38.043288],[-110.059592,38.046058],[-110.055861,38.048214],[-110.050964,38.048765],[-110.04672,38.04914],[-110.044675,38.052549],[-110.043891,38.055471],[-110.043131,38.057858],[-110.043421,38.061803],[-110.04486,38.065929],[-110.046809,38.070825],[-110.044365,38.074618],[-110.04262,38.077303],[-110.039457,38.081049],[-110.03542,38.083918],[-110.032833,38.086598],[-110.030526,38.090227],[-110.028001,38.093878],[-110.023981,38.098567],[-110.021505,38.100808],[-110.018046,38.103991],[-110.01481,38.107152],[-110.0101,38.109685],[-110.00253,38.107729],[-109.999444,38.103548],[-109.995433,38.101638],[-109.992645,38.100308],[-109.988318,38.100582],[-109.984758,38.102029],[-109.984174,38.104277],[-109.982317,38.106997],[-109.979061,38.109375],[-109.975547,38.111101],[-109.971954,38.111818],[-109.968804,38.112394],[-109.964943,38.113591],[-109.963472,38.116444],[-109.962927,38.119168],[-109.961301,38.121075],[-109.959792,38.123491],[-109.959333,38.125532],[-109.957669,38.12864],[-109.953904,38.131396],[-109.948954,38.133285],[-109.944181,38.135117],[-109.939521,38.135016],[-109.935703,38.135883],[-109.930985,38.138574],[-109.928702,38.142659],[-109.927883,38.14636],[-109.927578,38.150364],[-109.927974,38.151751],[-110.65613,38.151811],[-111.41411,38.153786],[-111.441376,38.150092],[-111.635195,38.150138],[-111.635217,38.151183],[-111.843215,38.151233],[-111.951247,38.151231],[-112.061119,38.145769],[-112.061185,38.149493],[-112.126281,38.149658],[-112.444214,38.150001],[-112.473446,38.148858],[-112.478822,38.147419],[-112.478965,37.977731],[-112.467021,37.97773],[-112.4683,37.890463],[-112.588517,37.890367],[-112.57847,37.882147],[-112.57855,37.80454],[-112.642734,37.806682],[-112.689297,37.80559]]]}},{"type":"Feature","properties":{"code":"US-49019","name":"Grand","label":"Grand County","type":"County","parentCode":"US-UT"},"geometry":{"type":"Polygon","coordinates":[[[-110.173316,38.927037],[-110.179296,38.908097],[-110.159387,38.890243],[-110.162892,38.865663],[-110.13879,38.868574],[-110.137129,38.856766],[-110.14598,38.8428],[-110.120725,38.832263],[-110.104507,38.801673],[-110.121709,38.792075],[-110.108847,38.77847],[-110.091139,38.770588],[-110.081552,38.754824],[-110.101871,38.746908],[-110.112904,38.732731],[-110.107669,38.718841],[-110.120614,38.70584],[-110.09136,38.714664],[-110.086568,38.706147],[-110.101102,38.69354],[-110.08665,38.677122],[-110.088692,38.665229],[-110.068685,38.670158],[-110.070968,38.656726],[-110.055364,38.660026],[-110.052768,38.645938],[-110.044603,38.659803],[-110.035826,38.65399],[-110.049188,38.632954],[-110.042224,38.617474],[-110.065185,38.619737],[-110.063717,38.607677],[-110.052131,38.605267],[-110.020049,38.612046],[-110.015914,38.622996],[-109.998885,38.616742],[-109.99604,38.608251],[-109.999293,38.589832],[-110.018411,38.5898],[-110.033604,38.604589],[-110.058432,38.582284],[-110.036905,38.571124],[-110.026586,38.576946],[-110.017595,38.563326],[-109.995001,38.569037],[-109.988326,38.564564],[-110.00562,38.54316],[-109.99377,38.526022],[-110.013143,38.524155],[-110.023002,38.513207],[-110.043431,38.516586],[-110.044333,38.507377],[-110.025285,38.499982],[-109.475344,38.499957],[-109.328517,38.499963],[-109.059962121448,38.500028459545],[-109.060253,38.599328],[-109.059541,38.719888],[-109.057388,38.795456],[-109.054189,38.874984],[-109.053943,38.904414],[-109.053797,38.905284],[-109.053233,38.942467],[-109.053292,38.942878],[-109.052436,38.999985],[-109.051582259727,39.1165057639044],[-109.051512,39.126095],[-109.050765,39.366677],[-109.051363,39.497674],[-109.051362941959,39.4977032760106],[-109.068751,39.495586],[-109.072853,39.499875],[-109.076753,39.489191],[-109.087568,39.492333],[-109.096039,39.471228],[-109.106908,39.4621],[-109.953349,39.461801],[-109.953349,39.46927],[-110.023963,39.469268],[-110.023975,39.469268],[-110.015862,39.456245],[-110.023568,39.445421],[-110.020832,39.427953],[-110.010036,39.410062],[-110.01829,39.400036],[-110.018646,39.362713],[-110.031812,39.35106],[-110.047953,39.326012],[-110.05773,39.330548],[-110.060029,39.30744],[-110.049476,39.304778],[-110.067115,39.293937],[-110.077562,39.276859],[-110.061505,39.265932],[-110.063324,39.250777],[-110.054305,39.228645],[-110.078082,39.224772],[-110.072357,39.206822],[-110.080269,39.192995],[-110.098002,39.189899],[-110.105128,39.178131],[-110.099049,39.167718],[-110.113265,39.159383],[-110.112737,39.147021],[-110.099615,39.136495],[-110.115039,39.122105],[-110.109304,39.112758],[-110.11774,39.095701],[-110.140523,39.088361],[-110.145482,39.07461],[-110.139024,39.060947],[-110.153483,39.030938],[-110.139942,39.02481],[-110.153396,39.016411],[-110.13967,39.008623],[-110.150178,38.997237],[-110.133899,39.001736],[-110.09632,39.001676],[-110.096336,38.986257],[-110.059807,38.986248],[-110.059811,38.993544],[-110.041176,38.993516],[-110.041184,38.978975],[-110.022559,38.978971],[-110.022587,38.964451],[-110.003977,38.964446],[-110.003984,38.949911],[-110.041198,38.949932],[-110.050505,38.964452],[-110.069134,38.964448],[-110.069114,38.978983],[-110.147882,38.97975],[-110.1367,38.962654],[-110.152475,38.95029],[-110.140798,38.944446],[-110.135463,38.926222],[-110.173316,38.927037]]]}},{"type":"Feature","properties":{"code":"US-49021","name":"Iron","label":"Iron County","type":"County","parentCode":"US-UT"},"geometry":{"type":"Polygon","coordinates":[[[-114.051728,37.745997],[-114.052472,37.604776],[-113.587797,37.604611],[-113.587773,37.618223],[-113.474485,37.618289],[-113.47402,37.553585],[-113.474029,37.529085],[-113.436242,37.529203],[-113.25334,37.528983],[-113.25349,37.482167],[-113.180837,37.481036],[-113.14611,37.481028],[-113.037048,37.474474],[-113.037088,37.499748],[-113.027062,37.499749],[-112.900924,37.500022],[-112.901162,37.543486],[-112.784847,37.543484],[-112.68375,37.543692],[-112.683592,37.631886],[-112.686778,37.660331],[-112.689121,37.717213],[-112.689297,37.80559],[-112.642734,37.806682],[-112.57855,37.80454],[-112.57847,37.882147],[-112.588517,37.890367],[-112.4683,37.890463],[-112.467021,37.97773],[-112.478965,37.977731],[-112.478822,38.147419],[-112.7635,38.147446],[-112.959757,38.148198],[-113.256157,38.148668],[-114.049903375658,38.1487630266706],[-114.049903,38.148601],[-114.050423,37.999961],[-114.049658,37.881368],[-114.049928,37.852508],[-114.049677,37.823645],[-114.048473,37.809861],[-114.049919,37.765586],[-114.051109,37.756276],[-114.05167,37.746958],[-114.051785,37.746249],[-114.051728,37.745997]]]}},{"type":"Feature","properties":{"code":"US-49023","name":"Juab","label":"Juab County","type":"County","parentCode":"US-UT"},"geometry":{"type":"Polygon","coordinates":[[[-114.047783,39.79416],[-114.047273,39.759413],[-114.047728,39.542742],[-113.815766,39.54409],[-113.815743,39.552644],[-112.989533,39.552529],[-112.629539,39.5524],[-112.354467,39.553684],[-112.212045,39.553987],[-112.193292,39.540451],[-112.193242,39.526023],[-112.211973,39.526042],[-112.202626,39.489858],[-112.193277,39.489834],[-112.188907,39.373089],[-112.188922,39.329392],[-112.137293,39.329397],[-112.072108,39.329695],[-112.072218,39.314923],[-112.016003,39.314561],[-112.015812,39.336863],[-111.958104,39.336773],[-111.958773,39.366133],[-111.921698,39.366862],[-111.922389,39.381591],[-111.747044,39.38275],[-111.747591,39.437455],[-111.747736,39.460077],[-111.713144,39.460295],[-111.713251,39.548198],[-111.715184,39.63698],[-111.717482,39.69456],[-111.689481,39.695231],[-111.689596,39.71036],[-111.642619,39.725162],[-111.642519,39.739693],[-111.584754,39.740141],[-111.584858,39.784235],[-111.622514,39.783816],[-111.622123,39.798483],[-111.642057,39.798314],[-111.641944,39.812869],[-111.676246,39.812484],[-111.766398,39.810769],[-111.748822,39.833018],[-111.738,39.864107],[-111.757836,39.876596],[-111.757023,39.888775],[-111.780846,39.900824],[-111.794041,39.930684],[-111.811116,39.939738],[-111.816896,39.94225],[-111.827106,39.947002],[-111.832983,39.924402],[-111.858991,39.914741],[-111.866198,39.90575],[-111.881551,39.907404],[-111.891132,39.898353],[-111.909464,39.894571],[-111.937091,39.855365],[-111.957351,39.836874],[-111.969467,39.807108],[-111.98987,39.811258],[-112.0262,39.782686],[-112.046952,39.776937],[-112.089843,39.781928],[-112.076677,39.800311],[-112.065614,39.829722],[-112.075215,39.839693],[-112.08122,39.865081],[-112.059147,39.88038],[-112.053511,39.893397],[-112.081256,39.913147],[-112.085248,39.925494],[-112.10359,39.928767],[-112.102424,39.958888],[-112.109867,39.973799],[-112.132729,39.977471],[-112.160026,40.006758],[-112.1798,40.011656],[-112.225178,39.987838],[-112.236319,39.960523],[-112.260801,39.942752],[-112.301734,39.936628],[-112.309719,39.948462],[-112.323133,39.944472],[-112.332296,39.952789],[-112.33978,39.943681],[-112.335335,39.923673],[-112.341988,39.904458],[-112.457552,39.903886],[-112.798085,39.903694],[-112.807655,39.904217],[-113.211475,39.90473],[-114.047133613292,39.9060976857443],[-114.047134,39.906037],[-114.047214,39.821024],[-114.047783,39.79416]]]}},{"type":"Feature","properties":{"code":"US-49025","name":"Kane","label":"Kane County","type":"County","parentCode":"US-UT"},"geometry":{"type":"Polygon","coordinates":[[[-112.900924,37.500022],[-112.901287,37.285159],[-112.89909,37.281531],[-112.899190902278,37.0003197266157],[-112.861448771286,37.0003762312471],[-112.829502251108,37.0004240591333],[-112.609787,37.000753],[-112.558974,37.000692],[-112.545094,37.000734],[-112.540368,37.000669],[-112.538582856208,37.0006737486645],[-112.378340654436,37.0011000092612],[-112.368946,37.001125],[-112.35769,37.001025],[-111.413013987341,37.0014775769675],[-111.411676,37.0014782179727],[-111.405869,37.001481],[-111.405517,37.001497],[-111.341471542683,37.000977512517],[-111.330476,37.020708],[-111.305493,37.013018],[-111.307183,37.023708],[-111.281756,37.04122],[-111.300237,37.044208],[-111.30177,37.066347],[-111.268179,37.054073],[-111.244409,37.021321],[-111.229881,37.038898],[-111.24778,37.051977],[-111.236966,37.070091],[-111.218216,37.056678],[-111.187358,37.088632],[-111.179927,37.101111],[-111.165632,37.105309],[-111.152901,37.092752],[-111.13447,37.090309],[-111.122183,37.107904],[-111.101456,37.102805],[-111.069234,37.107208],[-111.049071,37.099623],[-111.04247,37.10764],[-111.012184,37.115687],[-110.989976,37.1115],[-110.978689,37.127373],[-110.961815,37.123551],[-110.950653,37.133895],[-110.95571,37.149492],[-110.937001,37.147982],[-110.928284,37.154878],[-110.92508,37.17779],[-110.901272,37.175111],[-110.902261,37.179211],[-110.901063,37.186088],[-110.890858,37.192565],[-110.889176,37.202163],[-110.894656,37.208573],[-110.897796,37.21132],[-110.896661,37.216804],[-110.89273,37.219343],[-110.882119,37.222267],[-110.875262,37.227961],[-110.876922,37.232944],[-110.883456,37.241319],[-110.887473,37.245033],[-110.885416,37.251782],[-110.878426,37.254466],[-110.868795,37.25583],[-110.863294,37.256662],[-110.860642,37.260878],[-110.861094,37.264102],[-110.868962,37.271718],[-110.873687,37.279759],[-110.873877,37.284415],[-110.86904,37.289475],[-110.862481,37.290481],[-110.852051,37.291312],[-110.842175,37.295644],[-110.837993,37.302322],[-110.838002,37.311057],[-110.841456,37.318922],[-110.848495,37.322951],[-110.862121,37.325172],[-110.868795,37.329384],[-110.87287,37.336559],[-110.874025,37.344213],[-110.868044,37.349385],[-110.860101,37.349458],[-110.851801,37.346365],[-110.84477,37.342295],[-110.836857,37.337128],[-110.825664,37.33201],[-110.817989,37.329159],[-110.812172,37.324819],[-110.804172,37.320935],[-110.796585,37.321643],[-110.789453,37.323281],[-110.781254,37.323044],[-110.774716,37.323969],[-110.771458,37.328595],[-110.766575,37.332344],[-110.762396,37.332558],[-110.757453,37.334491],[-110.756453,37.338157],[-110.755716,37.346142],[-110.754818,37.349701],[-110.75224,37.352562],[-110.748032,37.351498],[-110.744494,37.345911],[-110.738864,37.344867],[-110.734641,37.349508],[-110.736014,37.354284],[-110.733033,37.360632],[-110.725283,37.366253],[-110.72286,37.369461],[-110.725138,37.374902],[-110.729155,37.377021],[-110.740037,37.38444],[-110.747683,37.391523],[-110.752553,37.39838],[-110.753759,37.402637],[-110.749768,37.406883],[-110.743957,37.407649],[-110.733409,37.404296],[-110.724161,37.39961],[-110.714171,37.403345],[-110.708136,37.4098],[-110.706456,37.415824],[-110.704298,37.421358],[-110.699541,37.431144],[-110.704301,37.436402],[-110.715604,37.43656],[-110.725415,37.435452],[-110.731945,37.439586],[-110.739399,37.447449],[-110.746469,37.453514],[-110.747826,37.456882],[-110.743692,37.460225],[-110.738472,37.459431],[-110.732799,37.458382],[-110.725234,37.461542],[-110.725557,37.46618],[-110.724592,37.474781],[-110.721052,37.479402],[-110.712968,37.481663],[-110.702591,37.481515],[-110.693163,37.481035],[-110.682442,37.478983],[-110.669699,37.477795],[-110.656689,37.480927],[-110.64452,37.484082],[-110.640198,37.48602],[-110.642935,37.491657],[-110.650143,37.493681],[-110.658829,37.494106],[-110.664512,37.494501],[-110.668136,37.497364],[-110.667597,37.500346],[-110.665698,37.510112],[-110.663077,37.520655],[-110.659628,37.527295],[-110.653576,37.531714],[-110.648116,37.538773],[-110.646731,37.540566],[-111.04616,37.540184],[-111.843168,37.535797],[-112.27743,37.536873],[-112.36117,37.536859],[-112.361167,37.542805],[-112.68375,37.543692],[-112.784847,37.543484],[-112.901162,37.543486],[-112.900924,37.500022]]]}},{"type":"Feature","properties":{"code":"US-49027","name":"Millard","label":"Millard County","type":"County","parentCode":"US-UT"},"geometry":{"type":"Polygon","coordinates":[[[-114.049883347847,38.677365],[-114.05015385888,38.5729744583009],[-113.11686,38.572612],[-112.752497,38.572681],[-112.515394,38.572845],[-112.503148,38.571377],[-112.503074,38.600568],[-112.484788,38.600632],[-112.484444,38.644647],[-112.475185,38.644675],[-112.466001,38.673917],[-112.447517,38.68127],[-112.356539,38.683855],[-112.356637,38.67674],[-112.309953,38.67629],[-112.30994,38.68341],[-112.28226,38.686874],[-112.28235,38.701527],[-112.255438,38.705047],[-112.24147,38.712524],[-112.23664,38.727104],[-112.218356,38.727361],[-112.219116,38.751251],[-112.228381,38.763987],[-112.228438,38.837508],[-112.224461,38.864803],[-112.199098,38.864982],[-112.171554,38.878616],[-112.169351,38.906132],[-112.15076,38.906509],[-112.151928,38.935473],[-112.134031,38.935453],[-112.133862,38.959302],[-112.065162,38.959302],[-112.065661,38.98843],[-112.056387,38.99568],[-112.018906,38.995902],[-112.014083,39.045518],[-112.016003,39.314561],[-112.072218,39.314923],[-112.072108,39.329695],[-112.137293,39.329397],[-112.188922,39.329392],[-112.188907,39.373089],[-112.193277,39.489834],[-112.202626,39.489858],[-112.211973,39.526042],[-112.193242,39.526023],[-112.193292,39.540451],[-112.212045,39.553987],[-112.354467,39.553684],[-112.629539,39.5524],[-112.989533,39.552529],[-113.815743,39.552644],[-113.815766,39.54409],[-114.047728,39.542742],[-114.047079,39.499943],[-114.049104,39.005509],[-114.048054,38.878693],[-114.048521,38.876197],[-114.049465,38.874949],[-114.049168,38.749951],[-114.049749,38.72921],[-114.049883347847,38.677365]]]}},{"type":"Feature","properties":{"code":"US-49029","name":"Morgan","label":"Morgan County","type":"County","parentCode":"US-UT"},"geometry":{"type":"Polygon","coordinates":[[[-111.872951,41.187774],[-111.876596,41.169744],[-111.85454,41.154315],[-111.856247,41.139083],[-111.856059,41.138615],[-111.844551,41.121788],[-111.854093,41.108888],[-111.851796,41.066651],[-111.833688,41.037012],[-111.838388,41.023484],[-111.810466,41.005086],[-111.775105,40.959203],[-111.814647,40.959774],[-111.810647,40.949496],[-111.806705,40.948722],[-111.792508,40.930155],[-111.770272,40.887897],[-111.768689,40.872279],[-111.738912,40.861174],[-111.707262,40.852559],[-111.663996,40.850194],[-111.666128,40.832108],[-111.64565,40.824061],[-111.641052,40.798925],[-111.613228,40.811135],[-111.598091,40.806111],[-111.587897,40.793687],[-111.554534,40.780039],[-111.519425,40.791689],[-111.498733,40.835378],[-111.47966,40.858537],[-111.509768,40.897781],[-111.526707,40.928987],[-111.524895,40.953842],[-111.577602,40.958372],[-111.587878,40.965654],[-111.585521,40.996375],[-111.566632,41.000484],[-111.555243,41.031937],[-111.529911,41.052774],[-111.50751,41.063234],[-111.473965,41.064235],[-111.446506,41.082133],[-111.417278,41.074039],[-111.380452,41.087248],[-111.37769,41.107816],[-111.366915,41.129943],[-111.345793,41.128718],[-111.332389,41.138101],[-111.310199,41.130487],[-111.291403,41.142943],[-111.264974,41.144044],[-111.242607,41.164537],[-111.225823,41.191017],[-111.231676,41.202651],[-111.221738,41.214956],[-111.250932,41.214426],[-111.253514,41.228743],[-111.281298,41.22497],[-111.269654,41.236762],[-111.27741,41.245832],[-111.277278,41.277383],[-111.261434,41.286935],[-111.261803,41.296681],[-111.292371,41.309409],[-111.294886,41.329969],[-111.3271,41.34549],[-111.332239,41.357575],[-111.367148,41.361661],[-111.383555,41.373873],[-111.39613,41.373314],[-111.404381,41.362661],[-111.420728,41.361308],[-111.424085,41.346751],[-111.438152,41.338105],[-111.437499,41.323421],[-111.449328,41.314895],[-111.440107,41.289585],[-111.457943,41.273563],[-111.464435,41.258111],[-111.494418,41.240237],[-111.497182,41.226905],[-111.526123,41.228752],[-111.536764,41.236462],[-111.55961,41.240069],[-111.596389,41.238737],[-111.60932,41.229025],[-111.611712,41.209866],[-111.625542,41.199757],[-111.640364,41.198947],[-111.658636,41.185718],[-111.68602,41.180656],[-111.717404,41.186642],[-111.745981,41.212448],[-111.763666,41.210445],[-111.774481,41.218145],[-111.806126,41.21588],[-111.81754,41.204753],[-111.858208,41.197596],[-111.872951,41.187774]]]}},{"type":"Feature","properties":{"code":"US-49031","name":"Piute","label":"Piute County","type":"County","parentCode":"US-UT"},"geometry":{"type":"Polygon","coordinates":[[[-112.510167,38.488377],[-112.519142,38.478709],[-112.501142,38.465361],[-112.493381,38.451625],[-112.479229,38.448049],[-112.453011,38.429232],[-112.444081,38.405646],[-112.425534,38.406797],[-112.417048,38.419507],[-112.403034,38.415601],[-112.403795,38.394757],[-112.39139,38.380633],[-112.380346,38.379889],[-112.362637,38.356814],[-112.343485,38.347267],[-112.335442,38.333038],[-112.338821,38.312006],[-112.348604,38.304892],[-112.350698,38.281798],[-112.379847,38.244366],[-112.35706,38.224958],[-112.36493,38.215121],[-112.395054,38.205984],[-112.397845,38.19935],[-112.424284,38.180945],[-112.422454,38.170824],[-112.444214,38.150001],[-112.126281,38.149658],[-112.061185,38.149493],[-112.061119,38.145769],[-111.951247,38.151231],[-111.843215,38.151233],[-111.848761,38.424933],[-111.837231,38.42854],[-111.823569,38.457218],[-111.766393,38.502243],[-111.979275,38.501913],[-112.061965,38.50209],[-112.062155,38.510476],[-112.518495,38.510413],[-112.510167,38.488377]]]}},{"type":"Feature","properties":{"code":"US-49033","name":"Rich","label":"Rich County","type":"County","parentCode":"US-UT"},"geometry":{"type":"Polygon","coordinates":[[[-111.511397,41.908813],[-111.511808,41.906993],[-111.510641,41.904753],[-111.508684,41.904181],[-111.505778,41.902869],[-111.503525,41.901289],[-111.500432,41.897862],[-111.500783,41.895587],[-111.500564,41.891431],[-111.501949,41.889768],[-111.501369,41.887294],[-111.499834,41.887512],[-111.495691,41.887101],[-111.492592,41.88544],[-111.492711,41.881215],[-111.492543,41.878198],[-111.493171,41.875278],[-111.49698,41.872298],[-111.499523,41.871318],[-111.501497,41.868906],[-111.502952,41.868108],[-111.505816,41.867871],[-111.5079,41.868204],[-111.508698,41.867122],[-111.507103,41.865413],[-111.504247,41.862896],[-111.502684,41.858904],[-111.504725,41.85575],[-111.506715,41.853909],[-111.506679,41.852131],[-111.505173,41.851367],[-111.500604,41.849495],[-111.497996,41.847173],[-111.4962,41.845439],[-111.493077,41.842674],[-111.48794,41.839525],[-111.483406,41.83617],[-111.479026,41.832114],[-111.476102,41.829044],[-111.470179,41.825355],[-111.464674,41.821702],[-111.460888,41.817167],[-111.461505,41.814748],[-111.460798,41.811819],[-111.460223,41.808885],[-111.4579,41.806385],[-111.455511,41.805181],[-111.453988,41.803848],[-111.453933,41.802097],[-111.452024,41.797174],[-111.45172,41.79463],[-111.45113,41.792015],[-111.452296,41.79102],[-111.454155,41.788702],[-111.453333,41.785213],[-111.454694,41.781519],[-111.453577,41.779],[-111.452053,41.777827],[-111.450993,41.775114],[-111.449921,41.772806],[-111.447617,41.77241],[-111.445931,41.772796],[-111.443926,41.771872],[-111.44354,41.769459],[-111.444538,41.76801],[-111.444023,41.765321],[-111.445307,41.763702],[-111.445323,41.761581],[-111.444576,41.758981],[-111.441555,41.756896],[-111.44128,41.753495],[-111.442035,41.75109],[-111.442508,41.749168],[-111.442805,41.747031],[-111.444638,41.745783],[-111.444528,41.7434],[-111.441838,41.742389],[-111.441833,41.738676],[-111.442042,41.73582],[-111.439891,41.734698],[-111.436835,41.733124],[-111.434506,41.730998],[-111.431665,41.729279],[-111.429959,41.727716],[-111.426623,41.726218],[-111.421836,41.724767],[-111.419942,41.723086],[-111.417629,41.720622],[-111.417744,41.717971],[-111.417768,41.715728],[-111.417047,41.712319],[-111.417886,41.710165],[-111.419919,41.707603],[-111.421148,41.704338],[-111.421585,41.701449],[-111.421164,41.699706],[-111.420177,41.69836],[-111.421041,41.697075],[-111.423804,41.69698],[-111.425937,41.696083],[-111.42664,41.694122],[-111.425444,41.693329],[-111.424348,41.690083],[-111.424631,41.687756],[-111.42587,41.685703],[-111.425644,41.683083],[-111.426227,41.679465],[-111.42665,41.677619],[-111.42365,41.674577],[-111.420412,41.674356],[-111.41752,41.675471],[-111.416206,41.676042],[-111.414532,41.675426],[-111.414402,41.674308],[-111.414408,41.672076],[-111.414362,41.668672],[-111.413879,41.666523],[-111.410905,41.665942],[-111.408959,41.666156],[-111.40663,41.666443],[-111.405722,41.66492],[-111.406318,41.663759],[-111.403681,41.66055],[-111.401958,41.656871],[-111.401885,41.653768],[-111.405096,41.651087],[-111.408477,41.64699],[-111.409752,41.644213],[-111.412606,41.642232],[-111.415238,41.640377],[-111.415623,41.637189],[-111.412144,41.632271],[-111.411981,41.62958],[-111.411054,41.627793],[-111.411635,41.626212],[-111.41307,41.625275],[-111.41978,41.623271],[-111.424949,41.622683],[-111.429232,41.617239],[-111.42705,41.612286],[-111.427782,41.60886],[-111.427618,41.604709],[-111.427713,41.601397],[-111.4274,41.598321],[-111.427382,41.593119],[-111.428918,41.589173],[-111.42712,41.585141],[-111.427203,41.581909],[-111.428613,41.578194],[-111.430345,41.573465],[-111.430277,41.56834],[-111.430053,41.566089],[-111.431578,41.562742],[-111.431034,41.560316],[-111.432597,41.55718],[-111.433105,41.554968],[-111.434289,41.552049],[-111.437957,41.550193],[-111.442799,41.548253],[-111.443131,41.545768],[-111.445072,41.543758],[-111.444904,41.541929],[-111.443952,41.541289],[-111.442251,41.53621],[-111.442147,41.533333],[-111.445076,41.531422],[-111.448155,41.53169],[-111.450539,41.530437],[-111.454225,41.530277],[-111.455785,41.531502],[-111.45934,41.531068],[-111.458501,41.528542],[-111.456543,41.526305],[-111.457534,41.523198],[-111.456711,41.52182],[-111.458316,41.519339],[-111.460908,41.518331],[-111.464956,41.514386],[-111.466307,41.510643],[-111.469542,41.50842],[-111.471998,41.506235],[-111.474885,41.505424],[-111.477114,41.502237],[-111.476433,41.500821],[-111.474898,41.498977],[-111.476704,41.497942],[-111.47714,41.496309],[-111.475354,41.495064],[-111.475536,41.490486],[-111.477696,41.487422],[-111.481522,41.480411],[-111.481948,41.47787],[-111.482953,41.476048],[-111.487315,41.473976],[-111.489585,41.473194],[-111.48966,41.470476],[-111.488725,41.469012],[-111.490768,41.465913],[-111.492982,41.465325],[-111.498073,41.465091],[-111.503117,41.459953],[-111.503242,41.453724],[-111.502936,41.448841],[-111.505322,41.446239],[-111.505597,41.442902],[-111.502624,41.440335],[-111.502214,41.436914],[-111.504351,41.436035],[-111.506925,41.432244],[-111.507247,41.430618],[-111.507552,41.428842],[-111.509863,41.428278],[-111.510284,41.424176],[-111.510815,41.423138],[-111.507547,41.413755],[-111.475852,41.400131],[-111.477344,41.384169],[-111.420728,41.361308],[-111.404381,41.362661],[-111.39613,41.373314],[-111.383555,41.373873],[-111.367148,41.361661],[-111.332239,41.357575],[-111.3271,41.34549],[-111.294886,41.329969],[-111.292371,41.309409],[-111.261803,41.296681],[-111.261434,41.286935],[-111.277278,41.277383],[-111.27741,41.245832],[-111.269654,41.236762],[-111.281298,41.22497],[-111.253514,41.228743],[-111.250932,41.214426],[-111.221738,41.214956],[-111.231676,41.202651],[-111.225823,41.191017],[-111.242607,41.164537],[-111.264974,41.144044],[-111.232824,41.142881],[-111.20618,41.162267],[-111.175765,41.170291],[-111.140872,41.187225],[-111.129507,41.197763],[-111.133266,41.20684],[-111.110303,41.21469],[-111.101536,41.207712],[-111.075837,41.243275],[-111.046551060424,41.251626854311],[-111.046551,41.251716],[-111.0466,41.360692],[-111.046264,41.377731],[-111.045900228888,41.5215852433386],[-111.045789,41.565571],[-111.045818464842,41.5798449482258],[-111.046689,42.001567],[-111.299958467905,42.0010051454933],[-111.415873,42.000748],[-111.420898,42.000793],[-111.425535,42.00084],[-111.471381,41.999739],[-111.507264,41.999518],[-111.507789674782,41.9995175941635],[-111.507584,41.995913],[-111.50861,41.993476],[-111.508089,41.98909],[-111.504353,41.987634],[-111.499749,41.986091],[-111.495719,41.983276],[-111.493965,41.979489],[-111.492074,41.978381],[-111.490393,41.977113],[-111.486098,41.976282],[-111.48459,41.973209],[-111.483572,41.970236],[-111.484387,41.966311],[-111.483196,41.963614],[-111.480492,41.962943],[-111.478568,41.96035],[-111.475937,41.957182],[-111.477671,41.954252],[-111.475779,41.950418],[-111.474071,41.947985],[-111.47441,41.945455],[-111.475642,41.940939],[-111.476523,41.937214],[-111.475829,41.934659],[-111.474708,41.932981],[-111.472368,41.930487],[-111.471932,41.927429],[-111.473443,41.925401],[-111.473726,41.924119],[-111.474459,41.922864],[-111.476365,41.920973],[-111.478027,41.917886],[-111.478034,41.914774],[-111.479192,41.912533],[-111.482693,41.911014],[-111.486615,41.910441],[-111.490916,41.910464],[-111.493431,41.912055],[-111.49806,41.912769],[-111.501571,41.913025],[-111.504879,41.91206],[-111.508809,41.911876],[-111.511397,41.908813]]]}},{"type":"Feature","properties":{"code":"US-49035","name":"Salt Lake","label":"Salt Lake County","type":"County","parentCode":"US-UT"},"geometry":{"type":"Polygon","coordinates":[[[-112.260216,40.769093],[-112.230414,40.729315],[-112.224787,40.723407],[-112.220283,40.720304],[-112.207676,40.715721],[-112.196393,40.62934],[-112.175337,40.603981],[-112.176369,40.597196],[-112.182907,40.56219],[-112.178764,40.52177],[-112.187541,40.514098],[-112.175845,40.500142],[-112.177484,40.484269],[-112.171567,40.471182],[-112.172862,40.467065],[-112.159967,40.461041],[-112.143098,40.470382],[-112.116406,40.451313],[-112.1119,40.438951],[-112.10208,40.444736],[-112.067172,40.446291],[-112.034028,40.462929],[-112.0319,40.456565],[-112.006146,40.426431],[-111.981795,40.414289],[-111.946454,40.424594],[-111.921933,40.440932],[-111.920815,40.441829],[-111.913313,40.452523],[-111.873749,40.476821],[-111.858392,40.469307],[-111.850861,40.473457],[-111.836245,40.47505],[-111.822153,40.486535],[-111.78935,40.498065],[-111.787972,40.513668],[-111.762368,40.529238],[-111.737568,40.528202],[-111.735106,40.532691],[-111.720567,40.525149],[-111.698113,40.535728],[-111.681314,40.532918],[-111.650938,40.551069],[-111.637736,40.568064],[-111.605677,40.564454],[-111.593879,40.577063],[-111.563905,40.585052],[-111.553266,40.609313],[-111.557585,40.619598],[-111.564656,40.622201],[-111.579488,40.645301],[-111.593872,40.651656],[-111.596736,40.659767],[-111.604535,40.666574],[-111.601107,40.687283],[-111.592726,40.69912],[-111.606221,40.712856],[-111.623469,40.731739],[-111.623483,40.75347],[-111.649129,40.773443],[-111.641052,40.798925],[-111.64565,40.824061],[-111.666128,40.832108],[-111.663996,40.850194],[-111.707262,40.852559],[-111.738912,40.861174],[-111.804658,40.837855],[-111.815761,40.838923],[-111.821767,40.834332],[-111.838395,40.830764],[-111.844074,40.832236],[-111.858127,40.824338],[-111.891154,40.821826],[-111.900907,40.819882],[-111.915555,40.821816],[-111.916184,40.821823],[-111.946408,40.822046],[-111.951248,40.841963],[-111.955872,40.849112],[-111.963003,40.84817],[-111.968734,40.886904],[-111.95866,40.918064],[-111.972263,40.921828],[-112.008134,40.921016],[-112.148271,40.846133],[-112.260216,40.769093]]]}},{"type":"Feature","properties":{"code":"US-49037","name":"San Juan","label":"San Juan County","type":"County","parentCode":"US-UT"},"geometry":{"type":"Polygon","coordinates":[[[-111.330476,37.020708],[-111.341471542683,37.000977512517],[-111.278286,37.000465],[-111.254853,37.001077],[-111.133718,37.000779],[-111.066496,37.002389],[-110.75069,37.003197],[-110.62569,37.003721],[-110.625605,37.003416],[-110.599512,37.003448],[-110.50069,37.00426],[-110.490908,37.003566],[-110.47019,36.997997],[-110.467308447785,36.9980008878065],[-110.021778,36.998602],[-110.000876,36.998502],[-110.000682037916,36.9979815188302],[-110.000677,36.997968],[-109.875673,36.998504],[-109.709765300917,36.9983739309653],[-109.699230934402,36.9983656721871],[-109.625668,36.998308],[-109.495338,36.999105],[-109.381226,36.999148],[-109.378039,36.999135],[-109.270097,36.999266],[-109.268213,36.999242],[-109.26339,36.999263],[-109.246917,36.999346],[-109.233848,36.999266],[-109.181196,36.999271],[-109.045223,36.999084],[-109.045166,37.072742],[-109.045058,37.074661],[-109.044995,37.086429],[-109.045189,37.096271],[-109.045173,37.109464],[-109.045203,37.111958],[-109.045156,37.112064],[-109.045995,37.177279],[-109.045978,37.201831],[-109.045487,37.210844],[-109.045560197362,37.2399018433234],[-109.045584,37.249351],[-109.046039,37.249993],[-109.045837500073,37.3599820430627],[-109.04581,37.374993],[-109.043461439769,37.4848200409003],[-109.043137,37.499992],[-109.041915,37.530653],[-109.041865,37.530726],[-109.041806,37.604171],[-109.042131,37.617662],[-109.042089,37.623795],[-109.042269,37.666067],[-109.041732,37.711214],[-109.04176,37.713182],[-109.041636,37.74021],[-109.042098,37.74999],[-109.041461,37.800105],[-109.041754,37.835826],[-109.041723,37.842051],[-109.041844,37.872788],[-109.041654683556,37.8810851664933],[-109.041058,37.907236],[-109.043121,37.97426],[-109.042819,37.997068],[-109.04282,37.999301],[-109.041836576111,38.1530320903539],[-109.041762,38.16469],[-109.054648,38.244921],[-109.060062,38.275489],[-109.059962,38.499987],[-109.059962121448,38.500028459545],[-109.328517,38.499963],[-109.475344,38.499957],[-110.025285,38.499982],[-110.002498,38.482552],[-110.012357,38.447304],[-110.035991,38.459929],[-110.044631,38.453943],[-110.026588,38.447432],[-110.006658,38.422955],[-110.004451,38.41178],[-110.033433,38.389583],[-110.001161,38.370391],[-109.988044,38.385901],[-109.973181,38.38593],[-109.973817,38.374188],[-109.987214,38.358772],[-109.9644,38.339743],[-109.953264,38.354194],[-109.94094,38.353294],[-109.948737,38.337593],[-109.965598,38.330322],[-109.961474,38.317355],[-109.946042,38.307654],[-109.950764,38.293921],[-109.927771,38.27732],[-109.936198,38.265496],[-109.928653,38.259692],[-109.90772,38.270715],[-109.901793,38.257005],[-109.917595,38.246545],[-109.901417,38.242916],[-109.88863,38.230156],[-109.916276,38.227274],[-109.918535,38.216759],[-109.899146,38.207053],[-109.887804,38.20787],[-109.902188,38.19464],[-109.885926,38.189404],[-109.932573,38.157245],[-109.927974,38.151751],[-109.927578,38.150364],[-109.927883,38.14636],[-109.928702,38.142659],[-109.930985,38.138574],[-109.935703,38.135883],[-109.939521,38.135016],[-109.944181,38.135117],[-109.948954,38.133285],[-109.953904,38.131396],[-109.957669,38.12864],[-109.959333,38.125532],[-109.959792,38.123491],[-109.961301,38.121075],[-109.962927,38.119168],[-109.963472,38.116444],[-109.964943,38.113591],[-109.968804,38.112394],[-109.971954,38.111818],[-109.975547,38.111101],[-109.979061,38.109375],[-109.982317,38.106997],[-109.984174,38.104277],[-109.984758,38.102029],[-109.988318,38.100582],[-109.992645,38.100308],[-109.995433,38.101638],[-109.999444,38.103548],[-110.00253,38.107729],[-110.0101,38.109685],[-110.01481,38.107152],[-110.018046,38.103991],[-110.021505,38.100808],[-110.023981,38.098567],[-110.028001,38.093878],[-110.030526,38.090227],[-110.032833,38.086598],[-110.03542,38.083918],[-110.039457,38.081049],[-110.04262,38.077303],[-110.044365,38.074618],[-110.046809,38.070825],[-110.04486,38.065929],[-110.043421,38.061803],[-110.043131,38.057858],[-110.043891,38.055471],[-110.044675,38.052549],[-110.04672,38.04914],[-110.050964,38.048765],[-110.055861,38.048214],[-110.059592,38.046058],[-110.06365,38.043288],[-110.066751,38.039599],[-110.068852,38.035249],[-110.071374,38.030885],[-110.072945,38.027856],[-110.075262,38.023872],[-110.077289,38.020314],[-110.076469,38.016234],[-110.074148,38.011484],[-110.074466,38.006566],[-110.075081,38.002515],[-110.078042,37.998465],[-110.08365,37.995359],[-110.089909,37.994808],[-110.094478,37.995104],[-110.099263,37.997705],[-110.102509,38.000979],[-110.105049,38.003319],[-110.108801,38.005808],[-110.11301,38.008107],[-110.117536,38.008249],[-110.12225,38.007951],[-110.128452,38.007037],[-110.13699,38.004549],[-110.139854,38.00019],[-110.143137,37.994568],[-110.146256,37.990251],[-110.151947,37.987106],[-110.156696,37.98501],[-110.160921,37.982462],[-110.163267,37.975426],[-110.165525,37.968101],[-110.171525,37.962519],[-110.176789,37.959555],[-110.183275,37.955675],[-110.189309,37.951909],[-110.197112,37.949299],[-110.203822,37.944622],[-110.205942,37.937327],[-110.20418,37.92869],[-110.199938,37.922731],[-110.198327,37.916997],[-110.200848,37.911728],[-110.204023,37.906283],[-110.204914,37.899584],[-110.208215,37.89459],[-110.217276,37.892777],[-110.228286,37.895444],[-110.240397,37.896154],[-110.250715,37.897095],[-110.259138,37.89873],[-110.268147,37.89802],[-110.275919,37.891313],[-110.278688,37.883741],[-110.278242,37.87701],[-110.277638,37.873099],[-110.279023,37.868642],[-110.285067,37.866191],[-110.291205,37.869275],[-110.293547,37.874052],[-110.294121,37.881207],[-110.296915,37.888101],[-110.304757,37.890482],[-110.312918,37.89034],[-110.323879,37.890628],[-110.333424,37.8909],[-110.345068,37.891055],[-110.356874,37.892932],[-110.370014,37.89116],[-110.379894,37.890122],[-110.390359,37.88709],[-110.399384,37.883504],[-110.405413,37.87759],[-110.405069,37.872348],[-110.403789,37.86674],[-110.403914,37.861125],[-110.402675,37.855283],[-110.406672,37.848332],[-110.417928,37.844958],[-110.4261,37.841934],[-110.432073,37.835649],[-110.434848,37.825266],[-110.435683,37.8194],[-110.435487,37.812245],[-110.436872,37.807844],[-110.442802,37.806219],[-110.447323,37.808696],[-110.457725,37.8092],[-110.467256,37.808554],[-110.472626,37.807465],[-110.476039,37.801878],[-110.477187,37.796164],[-110.473241,37.793556],[-110.472106,37.785448],[-110.469909,37.779264],[-110.464949,37.773996],[-110.458486,37.77115],[-110.450406,37.772095],[-110.441515,37.773662],[-110.434342,37.777625],[-110.430633,37.779027],[-110.426428,37.776861],[-110.42713,37.773471],[-110.431561,37.769351],[-110.43857,37.765193],[-110.445699,37.759924],[-110.447466,37.753043],[-110.447667,37.744975],[-110.449124,37.736689],[-110.45962,37.729257],[-110.468985,37.723455],[-110.469319,37.714569],[-110.478525,37.706102],[-110.484212,37.704558],[-110.487067,37.700118],[-110.484492,37.697737],[-110.484721,37.689279],[-110.485995,37.679658],[-110.487133,37.673254],[-110.494581,37.666121],[-110.4972,37.657768],[-110.497676,37.652704],[-110.503209,37.651799],[-110.507219,37.653876],[-110.515761,37.655651],[-110.523769,37.649725],[-110.529106,37.640166],[-110.53343,37.634788],[-110.543517,37.634787],[-110.551654,37.640583],[-110.556307,37.642466],[-110.562245,37.639861],[-110.563623,37.635475],[-110.564197,37.626753],[-110.565534,37.618087],[-110.573473,37.611018],[-110.584952,37.607634],[-110.597614,37.605204],[-110.604135,37.600854],[-110.60257,37.592548],[-110.599347,37.582122],[-110.598558,37.571821],[-110.606109,37.564712],[-110.619867,37.563568],[-110.629435,37.557793],[-110.638713,37.551021],[-110.645844,37.541696],[-110.646731,37.540566],[-110.648116,37.538773],[-110.653576,37.531714],[-110.659628,37.527295],[-110.663077,37.520655],[-110.665698,37.510112],[-110.667597,37.500346],[-110.668136,37.497364],[-110.664512,37.494501],[-110.658829,37.494106],[-110.650143,37.493681],[-110.642935,37.491657],[-110.640198,37.48602],[-110.64452,37.484082],[-110.656689,37.480927],[-110.669699,37.477795],[-110.682442,37.478983],[-110.693163,37.481035],[-110.702591,37.481515],[-110.712968,37.481663],[-110.721052,37.479402],[-110.724592,37.474781],[-110.725557,37.46618],[-110.725234,37.461542],[-110.732799,37.458382],[-110.738472,37.459431],[-110.743692,37.460225],[-110.747826,37.456882],[-110.746469,37.453514],[-110.739399,37.447449],[-110.731945,37.439586],[-110.725415,37.435452],[-110.715604,37.43656],[-110.704301,37.436402],[-110.699541,37.431144],[-110.704298,37.421358],[-110.706456,37.415824],[-110.708136,37.4098],[-110.714171,37.403345],[-110.724161,37.39961],[-110.733409,37.404296],[-110.743957,37.407649],[-110.749768,37.406883],[-110.753759,37.402637],[-110.752553,37.39838],[-110.747683,37.391523],[-110.740037,37.38444],[-110.729155,37.377021],[-110.725138,37.374902],[-110.72286,37.369461],[-110.725283,37.366253],[-110.733033,37.360632],[-110.736014,37.354284],[-110.734641,37.349508],[-110.738864,37.344867],[-110.744494,37.345911],[-110.748032,37.351498],[-110.75224,37.352562],[-110.754818,37.349701],[-110.755716,37.346142],[-110.756453,37.338157],[-110.757453,37.334491],[-110.762396,37.332558],[-110.766575,37.332344],[-110.771458,37.328595],[-110.774716,37.323969],[-110.781254,37.323044],[-110.789453,37.323281],[-110.796585,37.321643],[-110.804172,37.320935],[-110.812172,37.324819],[-110.817989,37.329159],[-110.825664,37.33201],[-110.836857,37.337128],[-110.84477,37.342295],[-110.851801,37.346365],[-110.860101,37.349458],[-110.868044,37.349385],[-110.874025,37.344213],[-110.87287,37.336559],[-110.868795,37.329384],[-110.862121,37.325172],[-110.848495,37.322951],[-110.841456,37.318922],[-110.838002,37.311057],[-110.837993,37.302322],[-110.842175,37.295644],[-110.852051,37.291312],[-110.862481,37.290481],[-110.86904,37.289475],[-110.873877,37.284415],[-110.873687,37.279759],[-110.868962,37.271718],[-110.861094,37.264102],[-110.860642,37.260878],[-110.863294,37.256662],[-110.868795,37.25583],[-110.878426,37.254466],[-110.885416,37.251782],[-110.887473,37.245033],[-110.883456,37.241319],[-110.876922,37.232944],[-110.875262,37.227961],[-110.882119,37.222267],[-110.89273,37.219343],[-110.896661,37.216804],[-110.897796,37.21132],[-110.894656,37.208573],[-110.889176,37.202163],[-110.890858,37.192565],[-110.901063,37.186088],[-110.902261,37.179211],[-110.901272,37.175111],[-110.92508,37.17779],[-110.928284,37.154878],[-110.937001,37.147982],[-110.95571,37.149492],[-110.950653,37.133895],[-110.961815,37.123551],[-110.978689,37.127373],[-110.989976,37.1115],[-111.012184,37.115687],[-111.04247,37.10764],[-111.049071,37.099623],[-111.069234,37.107208],[-111.101456,37.102805],[-111.122183,37.107904],[-111.13447,37.090309],[-111.152901,37.092752],[-111.165632,37.105309],[-111.179927,37.101111],[-111.187358,37.088632],[-111.218216,37.056678],[-111.236966,37.070091],[-111.24778,37.051977],[-111.229881,37.038898],[-111.244409,37.021321],[-111.268179,37.054073],[-111.30177,37.066347],[-111.300237,37.044208],[-111.281756,37.04122],[-111.307183,37.023708],[-111.305493,37.013018],[-111.330476,37.020708]]]}},{"type":"Feature","properties":{"code":"US-49039","name":"Sanpete","label":"Sanpete County","type":"County","parentCode":"US-UT"},"geometry":{"type":"Polygon","coordinates":[[[-112.015812,39.336863],[-112.016003,39.314561],[-112.014083,39.045518],[-111.849886,39.045577],[-111.853297,39.032984],[-111.802387,39.033221],[-111.299363,39.032311],[-111.299639,39.211257],[-111.300944,39.38916],[-111.300905,39.467237],[-111.28254,39.467204],[-111.247748,39.467199],[-111.247316,39.582351],[-111.24746,39.704373],[-111.247496,39.813028],[-111.505655,39.812041],[-111.528299,39.812946],[-111.641944,39.812869],[-111.642057,39.798314],[-111.622123,39.798483],[-111.622514,39.783816],[-111.584858,39.784235],[-111.584754,39.740141],[-111.642519,39.739693],[-111.642619,39.725162],[-111.689596,39.71036],[-111.689481,39.695231],[-111.717482,39.69456],[-111.715184,39.63698],[-111.713251,39.548198],[-111.713144,39.460295],[-111.747736,39.460077],[-111.747591,39.437455],[-111.747044,39.38275],[-111.922389,39.381591],[-111.921698,39.366862],[-111.958773,39.366133],[-111.958104,39.336773],[-112.015812,39.336863]]]}},{"type":"Feature","properties":{"code":"US-49041","name":"Sevier","label":"Sevier County","type":"County","parentCode":"US-UT"},"geometry":{"type":"Polygon","coordinates":[[[-112.522539,38.521344],[-112.518495,38.510413],[-112.062155,38.510476],[-112.061965,38.50209],[-111.979275,38.501913],[-111.766393,38.502243],[-111.756302,38.510147],[-111.305665,38.510169],[-111.307011,38.672331],[-111.299138,38.672329],[-111.29877,38.789176],[-111.298196,39.017823],[-111.299363,39.032311],[-111.802387,39.033221],[-111.853297,39.032984],[-111.849886,39.045577],[-112.014083,39.045518],[-112.018906,38.995902],[-112.056387,38.99568],[-112.065661,38.98843],[-112.065162,38.959302],[-112.133862,38.959302],[-112.134031,38.935453],[-112.151928,38.935473],[-112.15076,38.906509],[-112.169351,38.906132],[-112.171554,38.878616],[-112.199098,38.864982],[-112.224461,38.864803],[-112.228438,38.837508],[-112.228381,38.763987],[-112.219116,38.751251],[-112.218356,38.727361],[-112.23664,38.727104],[-112.24147,38.712524],[-112.255438,38.705047],[-112.28235,38.701527],[-112.28226,38.686874],[-112.30994,38.68341],[-112.309953,38.67629],[-112.356637,38.67674],[-112.356539,38.683855],[-112.447517,38.68127],[-112.466001,38.673917],[-112.475185,38.644675],[-112.484444,38.644647],[-112.484788,38.600632],[-112.503074,38.600568],[-112.503148,38.571377],[-112.515394,38.572845],[-112.517351,38.525821],[-112.522539,38.521344]]]}},{"type":"Feature","properties":{"code":"US-49043","name":"Summit","label":"Summit County","type":"County","parentCode":"US-UT"},"geometry":{"type":"Polygon","coordinates":[[[-111.641052,40.798925],[-111.649129,40.773443],[-111.623483,40.75347],[-111.623469,40.731739],[-111.606221,40.712856],[-111.592726,40.69912],[-111.601107,40.687283],[-111.604535,40.666574],[-111.596736,40.659767],[-111.593872,40.651656],[-111.579488,40.645301],[-111.564656,40.622201],[-111.557585,40.619598],[-111.553266,40.609313],[-111.53996,40.613208],[-111.508712,40.606052],[-111.489265,40.599438],[-111.473319,40.64377],[-111.456835,40.653102],[-111.430362,40.665131],[-111.43687,40.680587],[-111.434243,40.684684],[-111.431957,40.684554],[-111.412416,40.681101],[-111.39424,40.690606],[-111.390198,40.660643],[-111.368623,40.628944],[-111.327178,40.623126],[-111.303242,40.605848],[-111.265338,40.587251],[-111.238337,40.577557],[-111.214414,40.574582],[-111.181189,40.558537],[-111.15153,40.548332],[-111.137059,40.558394],[-111.131228,40.57836],[-111.12087,40.590457],[-111.101841,40.59403],[-111.080411,40.594447],[-111.055594,40.581876],[-111.031169,40.575962],[-111.00713,40.592776],[-110.976086,40.592954],[-110.961039,40.607626],[-110.962932,40.615239],[-110.945002,40.646341],[-110.948823,40.661331],[-110.933957,40.680354],[-110.90195,40.682187],[-110.901066,40.684522],[-110.902126,40.688951],[-110.904549,40.695712],[-110.903432,40.701843],[-110.902075,40.706968],[-110.898108,40.711578],[-110.89184,40.714517],[-110.888508,40.714554],[-110.885294,40.71599],[-110.887064,40.717843],[-110.8888,40.720242],[-110.891771,40.721214],[-110.893829,40.72272],[-110.892941,40.725836],[-110.889855,40.727072],[-110.880386,40.727954],[-110.87427,40.727687],[-110.870951,40.726435],[-110.867118,40.724045],[-110.863648,40.721868],[-110.857686,40.721921],[-110.852217,40.72344],[-110.849622,40.724674],[-110.845911,40.724341],[-110.843693,40.723293],[-110.840134,40.720973],[-110.836664,40.718734],[-110.831575,40.71788],[-110.827577,40.714352],[-110.823957,40.710761],[-110.818666,40.710892],[-110.813632,40.711276],[-110.808985,40.711603],[-110.80465,40.712189],[-110.800554,40.713993],[-110.797267,40.716631],[-110.792828,40.720141],[-110.789317,40.723874],[-110.786031,40.727507],[-110.783476,40.730349],[-110.780349,40.730893],[-110.775023,40.731432],[-110.771464,40.733425],[-110.767606,40.736034],[-110.765371,40.738277],[-110.766081,40.74018],[-110.764205,40.741834],[-110.761883,40.741694],[-110.756904,40.742841],[-110.754111,40.745569],[-110.75119,40.747337],[-110.747557,40.746415],[-110.743471,40.744821],[-110.738993,40.744986],[-110.73547,40.74614],[-110.732503,40.746129],[-110.727716,40.745221],[-110.723231,40.74549],[-110.72162,40.746864],[-110.718976,40.748998],[-110.716204,40.750303],[-110.71406,40.751789],[-110.71267,40.752734],[-110.71073,40.752117],[-110.708613,40.751062],[-110.70489,40.74935],[-110.70093,40.747533],[-110.696435,40.746606],[-110.694198,40.744126],[-110.691219,40.742379],[-110.687867,40.741473],[-110.683489,40.741118],[-110.67935,40.739952],[-110.676694,40.738986],[-110.672988,40.739998],[-110.668349,40.741692],[-110.664528,40.74197],[-110.660639,40.741458],[-110.658706,40.740781],[-110.656114,40.740485],[-110.655178,40.741757],[-110.652195,40.743604],[-110.649933,40.74589],[-110.647438,40.748351],[-110.647239,40.751224],[-110.644999,40.753739],[-110.640722,40.75605],[-110.637158,40.760102],[-110.634198,40.763958],[-110.632296,40.766298],[-110.627872,40.768041],[-110.62616,40.769206],[-110.622322,40.768964],[-110.620411,40.767503],[-110.618788,40.765065],[-110.615452,40.763077],[-110.611778,40.76147],[-110.608573,40.759464],[-110.606347,40.757307],[-110.60284,40.757318],[-110.598428,40.757154],[-110.593912,40.758598],[-110.5904,40.761283],[-110.586894,40.762176],[-110.584576,40.762468],[-110.582561,40.761616],[-110.581727,40.760326],[-110.579046,40.758078],[-110.576017,40.756814],[-110.572408,40.756842],[-110.568619,40.756436],[-110.564809,40.757615],[-110.560805,40.758465],[-110.558193,40.761126],[-110.553692,40.763559],[-110.55039,40.766555],[-110.548814,40.770909],[-110.547938,40.772576],[-110.543705,40.772175],[-110.540635,40.771479],[-110.535663,40.771643],[-110.533018,40.769936],[-110.529959,40.766328],[-110.527063,40.762915],[-110.518181,40.763104],[-110.513544,40.764602],[-110.509327,40.765201],[-110.505324,40.765837],[-110.501369,40.767063],[-110.49755,40.769077],[-110.494041,40.772455],[-110.49043,40.775966],[-110.488549,40.778575],[-110.485592,40.779471],[-110.483826,40.777927],[-110.47751,40.77403],[-110.471833,40.771936],[-110.465405,40.774114],[-110.461087,40.77769],[-110.459811,40.78079],[-110.45817,40.782116],[-110.455421,40.782157],[-110.452629,40.781527],[-110.448381,40.781448],[-110.444061,40.780837],[-110.439266,40.778854],[-110.435316,40.777858],[-110.431216,40.779928],[-110.429472,40.784955],[-110.427166,40.789173],[-110.42512,40.790681],[-110.422328,40.790757],[-110.419572,40.789371],[-110.415386,40.787646],[-110.412729,40.785232],[-110.409892,40.784343],[-110.405578,40.784361],[-110.400129,40.785418],[-110.397323,40.787025],[-110.394416,40.788078],[-110.391192,40.787435],[-110.387493,40.78755],[-110.383154,40.787041],[-110.379164,40.787136],[-110.37733,40.788081],[-110.375482,40.788603],[-110.374753,40.788144],[-110.37288,40.789291],[-110.370698,40.790685],[-110.366042,40.793565],[-110.361503,40.795949],[-110.357231,40.798754],[-110.354435,40.801354],[-110.352022,40.804887],[-110.348945,40.808682],[-110.350134,40.811858],[-110.350627,40.816081],[-110.344927,40.821134],[-110.343166,40.822939],[-110.339089,40.822709],[-110.335641,40.821446],[-110.328561,40.819545],[-110.320321,40.82051],[-110.315043,40.822406],[-110.30947,40.824589],[-110.302584,40.825935],[-110.297725,40.831257],[-110.294957,40.833148],[-110.291458,40.832263],[-110.291068,40.830446],[-110.288451,40.828416],[-110.282244,40.828153],[-110.277691,40.829791],[-110.269176,40.833012],[-110.259252,40.834381],[-110.250207,40.832327],[-110.245216,40.831168],[-110.241091,40.828867],[-110.234516,40.828783],[-110.231574,40.829858],[-110.227905,40.829171],[-110.227051,40.827197],[-110.219772,40.825959],[-110.215812,40.82736],[-110.210348,40.826075],[-110.207225,40.823447],[-110.202661,40.821802],[-110.196414,40.822601],[-110.192122,40.824061],[-110.189765,40.825234],[-110.188143,40.825065],[-110.186591,40.823455],[-110.18347,40.820726],[-110.179954,40.82021],[-110.174197,40.817403],[-110.169124,40.818646],[-110.164961,40.820125],[-110.158559,40.82097],[-110.152533,40.818823],[-110.147762,40.815869],[-110.145554,40.81379],[-110.138691,40.810865],[-110.130255,40.813256],[-110.125396,40.813837],[-110.122516,40.811545],[-110.117543,40.811047],[-110.111549,40.811506],[-110.107105,40.809211],[-110.102859,40.807917],[-110.098483,40.808373],[-110.094065,40.80946],[-110.089321,40.810873],[-110.084582,40.810601],[-110.079328,40.81028],[-110.074016,40.810328],[-110.068899,40.812503],[-110.063962,40.814138],[-110.057945,40.812851],[-110.051774,40.812386],[-110.046989,40.815725],[-110.04515,40.818353],[-110.041264,40.819744],[-110.038709,40.818873],[-110.032927,40.818549],[-110.027204,40.820298],[-110.022509,40.819668],[-110.019702,40.817586],[-110.016979,40.815338],[-110.013344,40.813744],[-110.008588,40.81387],[-110.002085,40.813476],[-110.000711,40.813678],[-110.000708,40.997352],[-110.006495,40.997815],[-110.048482511407,40.9975546383386],[-110.121639,40.997101],[-110.125709,40.99655],[-110.237848,40.995427],[-110.250709,40.996089],[-110.375714,40.994947],[-110.500718,40.994746],[-110.539819,40.996346],[-110.606820908805,40.9963463824157],[-110.715026,40.996347],[-110.750727,40.996847],[-110.872056647566,40.9973028121329],[-111.033831339271,40.997910568512],[-111.046723,40.997959],[-111.046553444109,41.2481101283754],[-111.046551060424,41.251626854311],[-111.075837,41.243275],[-111.101536,41.207712],[-111.110303,41.21469],[-111.133266,41.20684],[-111.129507,41.197763],[-111.140872,41.187225],[-111.175765,41.170291],[-111.20618,41.162267],[-111.232824,41.142881],[-111.264974,41.144044],[-111.291403,41.142943],[-111.310199,41.130487],[-111.332389,41.138101],[-111.345793,41.128718],[-111.366915,41.129943],[-111.37769,41.107816],[-111.380452,41.087248],[-111.417278,41.074039],[-111.446506,41.082133],[-111.473965,41.064235],[-111.50751,41.063234],[-111.529911,41.052774],[-111.555243,41.031937],[-111.566632,41.000484],[-111.585521,40.996375],[-111.587878,40.965654],[-111.577602,40.958372],[-111.524895,40.953842],[-111.526707,40.928987],[-111.509768,40.897781],[-111.47966,40.858537],[-111.498733,40.835378],[-111.519425,40.791689],[-111.554534,40.780039],[-111.587897,40.793687],[-111.598091,40.806111],[-111.613228,40.811135],[-111.641052,40.798925]]]}},{"type":"Feature","properties":{"code":"US-49045","name":"Tooele","label":"Tooele County","type":"County","parentCode":"US-UT"},"geometry":{"type":"Polygon","coordinates":[[[-114.046555,39.996899],[-114.047133613292,39.9060976857443],[-113.211475,39.90473],[-112.807655,39.904217],[-112.798085,39.903694],[-112.457552,39.903886],[-112.341988,39.904458],[-112.335335,39.923673],[-112.33978,39.943681],[-112.332296,39.952789],[-112.323133,39.944472],[-112.309719,39.948462],[-112.301734,39.936628],[-112.260801,39.942752],[-112.236319,39.960523],[-112.225178,39.987838],[-112.1798,40.011656],[-112.171997,40.039783],[-112.183594,40.059655],[-112.15715,40.097948],[-112.150892,40.107298],[-112.176175,40.131689],[-112.16793,40.147137],[-112.173343,40.155403],[-112.144383,40.173249],[-112.153373,40.182158],[-112.14862,40.195678],[-112.159208,40.197814],[-112.1495,40.212004],[-112.168992,40.219637],[-112.179693,40.23224],[-112.179326,40.249365],[-112.191588,40.263628],[-112.187356,40.292036],[-112.198605,40.306915],[-112.196233,40.325693],[-112.175533,40.335837],[-112.193987,40.359869],[-112.188734,40.372487],[-112.199169,40.382545],[-112.194669,40.421176],[-112.209562,40.432352],[-112.212254,40.459114],[-112.19027,40.468518],[-112.172862,40.467065],[-112.171567,40.471182],[-112.177484,40.484269],[-112.175845,40.500142],[-112.187541,40.514098],[-112.178764,40.52177],[-112.182907,40.56219],[-112.176369,40.597196],[-112.175337,40.603981],[-112.196393,40.62934],[-112.207676,40.715721],[-112.220283,40.720304],[-112.224787,40.723407],[-112.230414,40.729315],[-112.260216,40.769093],[-112.493515,41.076888],[-112.663586,41.03428],[-112.799359,40.999939],[-113.201698,40.99993],[-114.042145133139,40.9998965245684],[-114.043176,40.771675],[-114.043803,40.759205],[-114.043831,40.758666],[-114.043505,40.726292],[-114.045281,40.506586],[-114.045577,40.495801],[-114.045518,40.494474],[-114.045218,40.430282],[-114.045826,40.424823],[-114.046178,40.398313],[-114.046153,40.231971],[-114.046682520363,40.1169354028727],[-114.046741,40.104231],[-114.046386,40.097896],[-114.046835,40.030131],[-114.046555,39.996899]]]}},{"type":"Feature","properties":{"code":"US-49047","name":"Uintah","label":"Uintah County","type":"County","parentCode":"US-UT"},"geometry":{"type":"Polygon","coordinates":[[[-110.029993,39.539305],[-110.04823,39.53315],[-110.027083,39.523893],[-110.022335,39.499536],[-110.014676,39.490902],[-110.023963,39.469268],[-109.953349,39.46927],[-109.953349,39.461801],[-109.106908,39.4621],[-109.096039,39.471228],[-109.087568,39.492333],[-109.076753,39.489191],[-109.072853,39.499875],[-109.068751,39.495586],[-109.051362941959,39.4977032760106],[-109.051040251034,39.6604706493518],[-109.050615,39.87497],[-109.050873,40.058915],[-109.050813,40.059579],[-109.05093571823,40.173054017608],[-109.050944,40.180712],[-109.050973,40.180849],[-109.050968717402,40.2226470020202],[-109.050946,40.444368],[-109.050314,40.495092],[-109.050698,40.499963],[-109.049955,40.539901],[-109.050074,40.540358],[-109.048044,40.619231],[-109.048249,40.653601],[-109.048372974241,40.662608858969],[-109.123348,40.662385],[-109.123457,40.684128],[-109.161063,40.683765],[-109.16181,40.77155],[-109.163425,40.785955],[-109.201412,40.785747],[-109.202158,40.858412],[-109.394491,40.858166],[-109.394465,40.791032],[-109.4342,40.777258],[-109.436321,40.758046],[-109.469784,40.755153],[-109.472105,40.746109],[-109.484213,40.740466],[-109.513234,40.751682],[-109.518804,40.782463],[-109.511463,40.795971],[-109.52658,40.826891],[-109.571853,40.813539],[-109.580705,40.825449],[-109.601738,40.815211],[-109.631577,40.815979],[-109.654817,40.799236],[-109.675862,40.795173],[-109.693856,40.802067],[-109.720041,40.801874],[-109.728057,40.79531],[-109.75001,40.802441],[-109.764411,40.782796],[-109.790597,40.782326],[-109.831706,40.775809],[-109.834146,40.768415],[-109.869985,40.764002],[-109.896795,40.782043],[-109.913914,40.782447],[-109.919223,40.790814],[-109.976402,40.809686],[-109.976494,40.548343],[-109.976564,40.341657],[-109.976571,40.31671],[-109.976576,40.287684],[-109.976597,40.258732],[-109.976756,39.80623],[-109.88308,39.806236],[-109.893593,39.80188],[-109.8783,39.793735],[-109.876289,39.7835],[-109.8972,39.788884],[-109.919264,39.786265],[-109.929803,39.79557],[-109.920811,39.774141],[-109.928501,39.752257],[-109.945452,39.749419],[-109.952504,39.719121],[-109.961781,39.725705],[-109.962561,39.740642],[-109.991642,39.73918],[-109.992629,39.730333],[-109.970531,39.709689],[-109.994199,39.702596],[-110.002771,39.682425],[-109.99051,39.684748],[-109.984332,39.664677],[-109.996019,39.646191],[-110.010405,39.646687],[-110.011569,39.637599],[-109.997405,39.627232],[-110.011303,39.624962],[-110.028978,39.600651],[-110.01861,39.586525],[-110.038093,39.566627],[-110.029106,39.554915],[-110.029993,39.539305]]]}},{"type":"Feature","properties":{"code":"US-49049","name":"Utah","label":"Utah County","type":"County","parentCode":"US-UT"},"geometry":{"type":"Polygon","coordinates":[[[-112.212254,40.459114],[-112.209562,40.432352],[-112.194669,40.421176],[-112.199169,40.382545],[-112.188734,40.372487],[-112.193987,40.359869],[-112.175533,40.335837],[-112.196233,40.325693],[-112.198605,40.306915],[-112.187356,40.292036],[-112.191588,40.263628],[-112.179326,40.249365],[-112.179693,40.23224],[-112.168992,40.219637],[-112.1495,40.212004],[-112.159208,40.197814],[-112.14862,40.195678],[-112.153373,40.182158],[-112.144383,40.173249],[-112.173343,40.155403],[-112.16793,40.147137],[-112.176175,40.131689],[-112.150892,40.107298],[-112.15715,40.097948],[-112.183594,40.059655],[-112.171997,40.039783],[-112.1798,40.011656],[-112.160026,40.006758],[-112.132729,39.977471],[-112.109867,39.973799],[-112.102424,39.958888],[-112.10359,39.928767],[-112.085248,39.925494],[-112.081256,39.913147],[-112.053511,39.893397],[-112.059147,39.88038],[-112.08122,39.865081],[-112.075215,39.839693],[-112.065614,39.829722],[-112.076677,39.800311],[-112.089843,39.781928],[-112.046952,39.776937],[-112.0262,39.782686],[-111.98987,39.811258],[-111.969467,39.807108],[-111.957351,39.836874],[-111.937091,39.855365],[-111.909464,39.894571],[-111.891132,39.898353],[-111.881551,39.907404],[-111.866198,39.90575],[-111.858991,39.914741],[-111.832983,39.924402],[-111.827106,39.947002],[-111.816896,39.94225],[-111.811116,39.939738],[-111.794041,39.930684],[-111.780846,39.900824],[-111.757023,39.888775],[-111.757836,39.876596],[-111.738,39.864107],[-111.748822,39.833018],[-111.766398,39.810769],[-111.676246,39.812484],[-111.641944,39.812869],[-111.528299,39.812946],[-111.505655,39.812041],[-111.247496,39.813028],[-111.079051,39.814128],[-110.85778,39.813285],[-110.857647,39.899707],[-110.891655,39.899654],[-111.083102,39.900059],[-111.083061,39.943198],[-111.118422,39.943484],[-111.131314,39.947479],[-111.119271,39.968156],[-111.12956,39.970497],[-111.143002,39.986924],[-111.165739,39.990038],[-111.177332,40.016208],[-111.197708,40.031179],[-111.203919,40.04927],[-111.226705,40.035693],[-111.246207,40.047466],[-111.249339,40.055217],[-111.235883,40.069635],[-111.242344,40.08596],[-111.221526,40.124523],[-111.231239,40.147546],[-111.225865,40.167697],[-111.247814,40.193636],[-111.258293,40.198267],[-111.273375,40.221913],[-111.264839,40.242271],[-111.311834,40.286464],[-111.360176,40.288557],[-111.374055,40.297043],[-111.444256,40.29039],[-111.457316,40.300714],[-111.437879,40.321337],[-111.471578,40.347584],[-111.480337,40.362169],[-111.555235,40.362696],[-111.560097,40.38777],[-111.574209,40.391373],[-111.574268,40.412907],[-111.583675,40.412845],[-111.592494,40.430206],[-111.612463,40.431899],[-111.62085,40.449643],[-111.606614,40.467279],[-111.595075,40.467636],[-111.578697,40.48201],[-111.575311,40.516572],[-111.567766,40.546993],[-111.593879,40.577063],[-111.605677,40.564454],[-111.637736,40.568064],[-111.650938,40.551069],[-111.681314,40.532918],[-111.698113,40.535728],[-111.720567,40.525149],[-111.735106,40.532691],[-111.737568,40.528202],[-111.762368,40.529238],[-111.787972,40.513668],[-111.78935,40.498065],[-111.822153,40.486535],[-111.836245,40.47505],[-111.850861,40.473457],[-111.858392,40.469307],[-111.873749,40.476821],[-111.913313,40.452523],[-111.920815,40.441829],[-111.921933,40.440932],[-111.946454,40.424594],[-111.981795,40.414289],[-112.006146,40.426431],[-112.0319,40.456565],[-112.034028,40.462929],[-112.067172,40.446291],[-112.10208,40.444736],[-112.1119,40.438951],[-112.116406,40.451313],[-112.143098,40.470382],[-112.159967,40.461041],[-112.172862,40.467065],[-112.19027,40.468518],[-112.212254,40.459114]]]}},{"type":"Feature","properties":{"code":"US-49051","name":"Wasatch","label":"Wasatch County","type":"County","parentCode":"US-UT"},"geometry":{"type":"Polygon","coordinates":[[[-111.62085,40.449643],[-111.612463,40.431899],[-111.592494,40.430206],[-111.583675,40.412845],[-111.574268,40.412907],[-111.574209,40.391373],[-111.560097,40.38777],[-111.555235,40.362696],[-111.480337,40.362169],[-111.471578,40.347584],[-111.437879,40.321337],[-111.457316,40.300714],[-111.444256,40.29039],[-111.374055,40.297043],[-111.360176,40.288557],[-111.311834,40.286464],[-111.264839,40.242271],[-111.273375,40.221913],[-111.258293,40.198267],[-111.247814,40.193636],[-111.225865,40.167697],[-111.231239,40.147546],[-111.221526,40.124523],[-111.242344,40.08596],[-111.235883,40.069635],[-111.249339,40.055217],[-111.246207,40.047466],[-111.226705,40.035693],[-111.203919,40.04927],[-111.197708,40.031179],[-111.177332,40.016208],[-111.165739,39.990038],[-111.143002,39.986924],[-111.12956,39.970497],[-111.119271,39.968156],[-111.131314,39.947479],[-111.118422,39.943484],[-111.083061,39.943198],[-111.083102,39.900059],[-110.891655,39.899654],[-110.89627,40.082384],[-110.902928,40.431287],[-110.90195,40.682187],[-110.933957,40.680354],[-110.948823,40.661331],[-110.945002,40.646341],[-110.962932,40.615239],[-110.961039,40.607626],[-110.976086,40.592954],[-111.00713,40.592776],[-111.031169,40.575962],[-111.055594,40.581876],[-111.080411,40.594447],[-111.101841,40.59403],[-111.12087,40.590457],[-111.131228,40.57836],[-111.137059,40.558394],[-111.15153,40.548332],[-111.181189,40.558537],[-111.214414,40.574582],[-111.238337,40.577557],[-111.265338,40.587251],[-111.303242,40.605848],[-111.327178,40.623126],[-111.368623,40.628944],[-111.390198,40.660643],[-111.39424,40.690606],[-111.412416,40.681101],[-111.431957,40.684554],[-111.434243,40.684684],[-111.43687,40.680587],[-111.430362,40.665131],[-111.456835,40.653102],[-111.473319,40.64377],[-111.489265,40.599438],[-111.508712,40.606052],[-111.53996,40.613208],[-111.553266,40.609313],[-111.563905,40.585052],[-111.593879,40.577063],[-111.567766,40.546993],[-111.575311,40.516572],[-111.578697,40.48201],[-111.595075,40.467636],[-111.606614,40.467279],[-111.62085,40.449643]]]}},{"type":"Feature","properties":{"code":"US-49053","name":"Washington","label":"Washington County","type":"County","parentCode":"US-UT"},"geometry":{"type":"Polygon","coordinates":[[[-114.052962,37.592783],[-114.052736983833,37.5310280136728],[-114.052689,37.517859],[-114.052718,37.517264],[-114.052686281357,37.5030857667084],[-114.052685,37.502513],[-114.052701,37.492014],[-114.052618830474,37.4723407316322],[-114.052448,37.43144],[-114.051765,37.418083],[-114.051927,37.370734],[-114.051927,37.370459],[-114.0518,37.293548],[-114.0518,37.293044],[-114.051974,37.284511],[-114.051974,37.283848],[-114.051405,37.233854],[-114.051673,37.172368],[-114.052179,37.14711],[-114.051867,37.134292],[-114.052827,37.103961],[-114.051822,37.090976],[-114.051749,37.088434],[-114.0506,37.000396],[-113.965907,37.000025],[-113.965907,36.999976],[-113.624289617654,37.0000590598697],[-113.457763957034,37.0000995484408],[-113.409578802791,37.0001112640409],[-113.306408551035,37.0001363485597],[-113.274535032732,37.0001440981954],[-113.079902031224,37.0001914207047],[-112.998830014377,37.0002111323221],[-112.966471,37.000219],[-112.959614018363,37.0002292657484],[-112.899190902278,37.0003197266157],[-112.89909,37.281531],[-112.901287,37.285159],[-112.900924,37.500022],[-113.027062,37.499749],[-113.037088,37.499748],[-113.037048,37.474474],[-113.14611,37.481028],[-113.180837,37.481036],[-113.25349,37.482167],[-113.25334,37.528983],[-113.436242,37.529203],[-113.474029,37.529085],[-113.47402,37.553585],[-113.474485,37.618289],[-113.587773,37.618223],[-113.587797,37.604611],[-114.052472,37.604776],[-114.052962,37.592783]]]}},{"type":"Feature","properties":{"code":"US-49055","name":"Wayne","label":"Wayne County","type":"County","parentCode":"US-UT"},"geometry":{"type":"Polygon","coordinates":[[[-111.848761,38.424933],[-111.843215,38.151233],[-111.635217,38.151183],[-111.635195,38.150138],[-111.441376,38.150092],[-111.41411,38.153786],[-110.65613,38.151811],[-109.927974,38.151751],[-109.932573,38.157245],[-109.885926,38.189404],[-109.902188,38.19464],[-109.887804,38.20787],[-109.899146,38.207053],[-109.918535,38.216759],[-109.916276,38.227274],[-109.88863,38.230156],[-109.901417,38.242916],[-109.917595,38.246545],[-109.901793,38.257005],[-109.90772,38.270715],[-109.928653,38.259692],[-109.936198,38.265496],[-109.927771,38.27732],[-109.950764,38.293921],[-109.946042,38.307654],[-109.961474,38.317355],[-109.965598,38.330322],[-109.948737,38.337593],[-109.94094,38.353294],[-109.953264,38.354194],[-109.9644,38.339743],[-109.987214,38.358772],[-109.973817,38.374188],[-109.973181,38.38593],[-109.988044,38.385901],[-110.001161,38.370391],[-110.033433,38.389583],[-110.004451,38.41178],[-110.006658,38.422955],[-110.026588,38.447432],[-110.044631,38.453943],[-110.035991,38.459929],[-110.012357,38.447304],[-110.002498,38.482552],[-110.025285,38.499982],[-110.345339,38.499981],[-111.305701,38.499998],[-111.305665,38.510169],[-111.756302,38.510147],[-111.766393,38.502243],[-111.823569,38.457218],[-111.837231,38.42854],[-111.848761,38.424933]]]}},{"type":"Feature","properties":{"code":"US-49057","name":"Weber","label":"Weber County","type":"County","parentCode":"US-UT"},"geometry":{"type":"Polygon","coordinates":[[[-112.493515,41.076888],[-112.451621,41.087334],[-112.199344,41.149904],[-112.186693,41.153028],[-112.122882,41.152748],[-112.104606,41.152733],[-112.08375,41.152708],[-112.077871,41.152703],[-112.064469,41.152716],[-112.037532,41.152627],[-112.025101,41.152646],[-112.021227,41.152653],[-112.000191,41.152669],[-111.987803,41.154384],[-111.969086,41.152036],[-111.956191,41.140631],[-111.914955,41.137193],[-111.912182,41.134831],[-111.861255,41.137511],[-111.856247,41.139083],[-111.85454,41.154315],[-111.876596,41.169744],[-111.872951,41.187774],[-111.858208,41.197596],[-111.81754,41.204753],[-111.806126,41.21588],[-111.774481,41.218145],[-111.763666,41.210445],[-111.745981,41.212448],[-111.717404,41.186642],[-111.68602,41.180656],[-111.658636,41.185718],[-111.640364,41.198947],[-111.625542,41.199757],[-111.611712,41.209866],[-111.60932,41.229025],[-111.596389,41.238737],[-111.55961,41.240069],[-111.536764,41.236462],[-111.526123,41.228752],[-111.497182,41.226905],[-111.494418,41.240237],[-111.464435,41.258111],[-111.457943,41.273563],[-111.440107,41.289585],[-111.449328,41.314895],[-111.437499,41.323421],[-111.438152,41.338105],[-111.424085,41.346751],[-111.420728,41.361308],[-111.477344,41.384169],[-111.475852,41.400131],[-111.507547,41.413755],[-111.510815,41.423138],[-111.541523,41.405063],[-111.554093,41.423647],[-111.575476,41.428774],[-111.583856,41.418416],[-111.618578,41.422381],[-111.65237,41.407719],[-111.666928,41.428802],[-111.696577,41.417157],[-111.721875,41.427022],[-111.706825,41.40438],[-111.726971,41.384323],[-111.725798,41.376276],[-111.76059,41.368818],[-111.797202,41.392377],[-111.836737,41.387944],[-111.861294,41.396356],[-111.875155,41.404939],[-111.872602,41.421996],[-111.885532,41.426343],[-111.918294,41.412361],[-111.938285,41.415878],[-111.959032,41.433727],[-111.972472,41.420053],[-111.968487,41.392241],[-111.975308,41.378393],[-111.963247,41.365489],[-112.023266,41.343104],[-112.028285,41.336636],[-112.034441,41.33655],[-112.049061,41.336607],[-112.073457,41.336701],[-112.133181,41.336872],[-112.238164,41.336551],[-112.493515,41.076888]]]}}]}
