{"type":"FeatureCollection","name":"ne_10m_admin_1_asm","adm0A3":"ASM","bbox":[-171.086537,-14.532892,-168.160471,-11.051365],"features":[{"type":"Feature","properties":{"adm0_a3":"ASM","admin":"American Samoa","adm1_code":"ASM-4998","iso_3166_2":"AS-X01~","geonunit":"American Samoa","name":"Eastern","name_en":"Eastern District","name_local":"","type":"","type_en":"","ne_id":1159316219},"geometry":{"type":"Polygon","coordinates":[[[-170.721506,-14.289239],[-170.714825,-14.300836],[-170.713855,-14.314423],[-170.701238,-14.312482],[-170.692633,-14.31482],[-170.683583,-14.30283],[-170.659291,-14.285252],[-170.642323,-14.280694],[-170.584177,-14.277765],[-170.568471,-14.270929],[-170.56725,-14.258559],[-170.576243,-14.252537],[-170.591013,-14.264825],[-170.620066,-14.254571],[-170.661448,-14.252374],[-170.698476,-14.260512],[-170.721506,-14.289239]]]}},{"type":"Feature","properties":{"adm0_a3":"ASM","admin":"American Samoa","adm1_code":"ASM-4999","iso_3166_2":"AS-X02~","geonunit":"American Samoa","name":"Manu's","name_en":"Manu'a Islands","name_local":"","type":"","type_en":"","ne_id":1159316221},"geometry":{"type":"MultiPolygon","coordinates":[[[[-169.463857,-14.22324],[-169.506459,-14.222263],[-169.527537,-14.226007],[-169.542673,-14.236749],[-169.534779,-14.241143],[-169.529286,-14.248793],[-169.525502,-14.258966],[-169.522817,-14.270929],[-169.512522,-14.271742],[-169.504262,-14.270603],[-169.498362,-14.266046],[-169.494862,-14.257257],[-169.484975,-14.261977],[-169.476186,-14.262384],[-169.468088,-14.258722],[-169.460154,-14.250421],[-169.447133,-14.255629],[-169.440134,-14.245294],[-169.44404,-14.230645],[-169.463857,-14.22324]]],[[[-169.676218,-14.1749],[-169.669749,-14.187921],[-169.660146,-14.189142],[-169.63561,-14.177016],[-169.647165,-14.172133],[-169.658193,-14.168878],[-169.668162,-14.169122],[-169.676218,-14.1749]]]]}},{"type":"Feature","properties":{"adm0_a3":"ASM","admin":"American Samoa","adm1_code":"ASM-5000","iso_3166_2":"AS-X03~","geonunit":"American Samoa","name":"Rose Atoll","name_en":"Rose Atoll","name_local":"","type":"","type_en":"","ne_id":1159315493},"geometry":{"type":"Polygon","coordinates":[[[-168.16157,-14.532892],[-168.160471,-14.520929],[-168.163523,-14.519789],[-168.173085,-14.523696],[-168.16157,-14.532892]]]}},{"type":"Feature","properties":{"adm0_a3":"ASM","admin":"American Samoa","adm1_code":"ASM-5001","iso_3166_2":"AS-X04~","geonunit":"American Samoa","name":"Swain's Island","name_en":"Swains Island","name_local":"","type":"","type_en":"","ne_id":1159316213},"geometry":{"type":"Polygon","coordinates":[[[-171.072825,-11.052504],[-171.085642,-11.051365],[-171.086537,-11.060317],[-171.081532,-11.066095],[-171.073476,-11.062107],[-171.072825,-11.052504]]]}},{"type":"Feature","properties":{"adm0_a3":"ASM","admin":"American Samoa","adm1_code":"ASM-5002","iso_3166_2":"AS-X05~","geonunit":"American Samoa","name":"Western","name_en":"Western District","name_local":"","type":"","type_en":"","ne_id":1159316215},"geometry":{"type":"Polygon","coordinates":[[[-170.692633,-14.31482],[-170.701238,-14.312482],[-170.713855,-14.314423],[-170.714825,-14.300836],[-170.721506,-14.289239],[-170.737864,-14.292087],[-170.772572,-14.291436],[-170.788645,-14.294529],[-170.831248,-14.319431],[-170.822825,-14.326755],[-170.796457,-14.339939],[-170.755483,-14.36712],[-170.748647,-14.374688],[-170.721791,-14.353448],[-170.692633,-14.31482]]]}}]}
