{"type":"FeatureCollection","name":"ne_10m_admin_1_atc","adm0A3":"ATC","bbox":[123.575043,-12.438572,123.597748,-12.426609],"features":[{"type":"Feature","properties":{"adm0_a3":"ATC","admin":"Ashmore and Cartier Islands","adm1_code":"ATC+00?","iso_3166_2":"AU-X04~","geonunit":"","name":"Ashmore and Cartier Islands","name_en":"Ashmore and Cartier Islands","name_local":"","type":"","type_en":"","ne_id":1159315625},"geometry":{"type":"Polygon","coordinates":[[[123.597016,-12.428318],[123.575043,-12.426609],[123.575613,-12.436782],[123.597748,-12.438572],[123.597016,-12.428318]]]}}]}
