{"type":"FeatureCollection","name":"ne_10m_admin_1_bhr","adm0A3":"BHR","bbox":[50.38053,25.579891,50.819875,26.287439],"features":[{"type":"Feature","properties":{"adm0_a3":"BHR","admin":"Bahrain","adm1_code":"BHR-4929","iso_3166_2":"BH-13","geonunit":"Bahrain","name":"Al Manāmah","name_en":"Capital","name_local":"محافظة العاصمة","type":"Muhafazah","type_en":"Governorate","ne_id":1159316087},"geometry":{"type":"Polygon","coordinates":[[[50.503917,26.242011],[50.502023,26.216114],[50.535057,26.213471],[50.551606,26.194241],[50.565603,26.198879],[50.594086,26.195299],[50.603526,26.197659],[50.609141,26.208279],[50.606944,26.212388],[50.604747,26.216498],[50.597423,26.225531],[50.593272,26.238593],[50.586681,26.242499],[50.545502,26.227769],[50.545421,26.227729],[50.5324,26.2331],[50.516368,26.239691],[50.503917,26.242011]]]}},{"type":"Feature","properties":{"adm0_a3":"BHR","admin":"Bahrain","adm1_code":"BHR-4926","iso_3166_2":"BH-14","geonunit":"Bahrain","name":"Al Janūbīyah","name_en":"Southern","name_local":"المحافظة الجنوبية","type":"Muhafazah","type_en":"Governorate","ne_id":1159315657},"geometry":{"type":"MultiPolygon","coordinates":[[[[50.616289,26.095932],[50.581305,26.122296],[50.569413,26.11569],[50.524486,26.128903],[50.531093,26.103797],[50.539021,26.056228],[50.515236,26.046978],[50.490896,26.048],[50.485444,26.033433],[50.479991,26.018866],[50.46046,25.985297],[50.467784,25.957587],[50.511404,25.913031],[50.531423,25.88524],[50.547211,25.852932],[50.558604,25.81977],[50.565278,25.789537],[50.56544,25.7897],[50.594493,25.832709],[50.603526,25.85456],[50.618419,25.964748],[50.620616,26.052965],[50.616289,26.095932]]],[[[50.77431,25.721648],[50.768615,25.716585],[50.755325,25.70203],[50.7452,25.687474],[50.741403,25.674185],[50.740137,25.662161],[50.739504,25.653301],[50.748364,25.644441],[50.748364,25.630518],[50.748997,25.621026],[50.741403,25.605205],[50.737606,25.595712],[50.7452,25.584954],[50.756591,25.579891],[50.759755,25.582422],[50.757224,25.588751],[50.762286,25.597611],[50.767982,25.60647],[50.77431,25.612166],[50.769881,25.617862],[50.764185,25.621659],[50.765451,25.629886],[50.769248,25.636214],[50.776209,25.638745],[50.77431,25.645074],[50.766716,25.654566],[50.762286,25.667856],[50.766083,25.671653],[50.77431,25.678614],[50.780006,25.682411],[50.79203,25.67988],[50.795827,25.684943],[50.788233,25.692537],[50.78317,25.696967],[50.790764,25.705827],[50.798358,25.715952],[50.80089,25.724812],[50.80089,25.73114],[50.790764,25.726078],[50.782537,25.720382],[50.77431,25.721648]]],[[[50.775576,25.752657],[50.780639,25.745063],[50.791397,25.74886],[50.790132,25.755188],[50.78317,25.755821],[50.775576,25.752657]]],[[[50.804687,25.679247],[50.802156,25.674817],[50.804054,25.669755],[50.808484,25.664059],[50.816711,25.669122],[50.819875,25.678614],[50.804687,25.679247]]],[[[50.793296,25.652035],[50.786967,25.652668],[50.785069,25.648238],[50.788233,25.643808],[50.786334,25.638745],[50.790764,25.630518],[50.795827,25.63305],[50.802788,25.634315],[50.807851,25.63305],[50.811648,25.631784],[50.815445,25.636847],[50.816711,25.644441],[50.811648,25.649504],[50.799624,25.651402],[50.793296,25.652035]]]]}},{"type":"Feature","properties":{"adm0_a3":"BHR","admin":"Bahrain","adm1_code":"BHR-4930","iso_3166_2":"BH-15","geonunit":"Bahrain","name":"Al Muḩarraq","name_en":"Muharraq","name_local":"محافظة المحرق‎","type":"Muhafazah","type_en":"Governorate","ne_id":1159316089},"geometry":{"type":"Polygon","coordinates":[[[50.60165,26.278852],[50.599504,26.262751],[50.612384,26.241283],[50.620972,26.244503],[50.633852,26.242356],[50.647807,26.239136],[50.653174,26.225181],[50.657467,26.211227],[50.673568,26.20264],[50.678935,26.208007],[50.684302,26.221961],[50.671421,26.227328],[50.656394,26.24665],[50.656394,26.261677],[50.65532,26.276705],[50.632779,26.287439],[50.60165,26.278852]]]}},{"type":"Feature","properties":{"adm0_a3":"BHR","admin":"Bahrain","adm1_code":"BHR-4928","iso_3166_2":"BH-16","geonunit":"Bahrain","name":"Al Wusţá","name_en":"Central","name_local":"لمحافظة الوسطى","type":"Muhafazah","type_en":"Governorate","ne_id":1159316085},"geometry":{"type":"Polygon","coordinates":[[[50.551606,26.194241],[50.521843,26.188365],[50.509951,26.177794],[50.524486,26.128903],[50.569413,26.11569],[50.581305,26.122296],[50.616289,26.095932],[50.614757,26.111151],[50.634926,26.115694],[50.635507,26.134382],[50.64566,26.14575],[50.632779,26.146823],[50.626339,26.170438],[50.619898,26.185466],[50.604871,26.174732],[50.594737,26.160305],[50.551606,26.194241]]]}},{"type":"Feature","properties":{"adm0_a3":"BHR","admin":"Bahrain","adm1_code":"BHR-4927","iso_3166_2":"BH-17","geonunit":"Bahrain","name":"Ash Shamālīyah","name_en":"Northern","name_local":"لمحافظة الشمالية","type":"Muhafazah","type_en":"Governorate","ne_id":1159316083},"geometry":{"type":"MultiPolygon","coordinates":[[[[50.490896,26.048],[50.515236,26.046978],[50.539021,26.056228],[50.531093,26.103797],[50.524486,26.128903],[50.509951,26.177794],[50.521843,26.188365],[50.551606,26.194241],[50.535057,26.213471],[50.502023,26.216114],[50.503917,26.242011],[50.482595,26.24254],[50.481619,26.24254],[50.481456,26.24258],[50.468516,26.236884],[50.461192,26.225246],[50.449555,26.177965],[50.448904,26.161607],[50.452973,26.149563],[50.469981,26.122626],[50.485199,26.085639],[50.490896,26.048]]],[[[50.397704,26.174732],[50.382676,26.159704],[50.38053,26.139309],[50.385897,26.123208],[50.405218,26.124282],[50.423466,26.119988],[50.421319,26.135016],[50.419172,26.14897],[50.419172,26.166144],[50.408438,26.171511],[50.397704,26.174732]]]]}}]}
