{"type":"FeatureCollection","name":"ne_10m_admin_1_brn","adm0A3":"BRN","bbox":[113.99879,4.016681,115.360741,5.057196],"features":[{"type":"Feature","properties":{"adm0_a3":"BRN","admin":"Brunei","adm1_code":"BRN-1181","iso_3166_2":"BN-BE","geonunit":"Brunei","name":"Belait","name_en":"Belait","name_local":"","type":"Daerah-Daerah","type_en":"District","ne_id":1159310047},"geometry":{"type":"Polygon","coordinates":[[[113.99879,4.601142],[114.064179,4.570032],[114.118956,4.561635],[114.14004,4.550654],[114.1727,4.525229],[114.197298,4.515824],[114.20908,4.50815],[114.216728,4.48766],[114.222929,4.484637],[114.238329,4.484224],[114.245564,4.481433],[114.247837,4.474767],[114.248768,4.466886],[114.252075,4.460349],[114.262617,4.448722],[114.268508,4.437741],[114.276259,4.409732],[114.276259,4.381853],[114.289902,4.361311],[114.296723,4.316663],[114.293416,4.307051],[114.279463,4.294881],[114.276259,4.289016],[114.278016,4.274055],[114.282667,4.264909],[114.316774,4.262506],[114.360492,4.253876],[114.40142,4.261214],[114.41992,4.260129],[114.432529,4.246925],[114.453303,4.183699],[114.463121,4.16414],[114.477384,4.144968],[114.540223,4.086935],[114.56141,4.072026],[114.569368,4.064404],[114.574226,4.054146],[114.581667,4.029342],[114.586628,4.021435],[114.627762,4.016681],[114.674891,4.04407],[114.766875,4.131816],[114.774524,4.146466],[114.780105,4.187756],[114.787133,4.207212],[114.809974,4.241293],[114.817208,4.259664],[114.813798,4.277104],[114.782585,4.264418],[114.781965,4.284933],[114.787856,4.294158],[114.794163,4.30024],[114.793851,4.30041],[114.791578,4.30165],[114.758143,4.320021],[114.739488,4.346066],[114.731685,4.376607],[114.716027,4.405804],[114.696751,4.429601],[114.672515,4.453088],[114.650966,4.480166],[114.62797,4.503033],[114.596809,4.522334],[114.590815,4.54732],[114.595517,4.577731],[114.582495,4.59804],[114.559447,4.599409],[114.54105,4.601812],[114.528131,4.618659],[114.512783,4.634317],[114.502913,4.65721],[114.494443,4.681252],[114.395763,4.645738],[114.326671,4.606879],[114.25172,4.592678],[113.99879,4.601142]]]}},{"type":"Feature","properties":{"adm0_a3":"BRN","admin":"Brunei","adm1_code":"BRN-1182","iso_3166_2":"BN-BM","geonunit":"Brunei","name":"Brunei and Muara","name_en":"Brunei-Muara","name_local":"","type":"Daerah-Daerah","type_en":"District","ne_id":1159310049},"geometry":{"type":"Polygon","coordinates":[[[114.9817,4.889065],[114.99171,4.904975],[115.022797,4.933743],[115.029552,4.947455],[115.032481,4.959418],[115.049083,4.999172],[115.057384,5.012641],[115.088634,5.026597],[115.103201,5.036851],[115.101736,5.049872],[115.082856,5.057196],[115.057791,5.054104],[114.928396,5.000556],[114.760183,4.898749],[114.76176,4.875181],[114.759642,4.847766],[114.755766,4.822187],[114.747033,4.802033],[114.743725,4.780044],[114.73618,4.747824],[114.743053,4.730926],[114.743192,4.730585],[114.751786,4.738523],[114.788476,4.753897],[114.805426,4.764568],[114.837672,4.795316],[114.855759,4.806659],[114.878186,4.812808],[114.89648,4.811826],[114.914877,4.808726],[114.932447,4.809139],[114.948363,4.818932],[114.954874,4.834202],[114.955701,4.850919],[114.958905,4.866293],[114.9817,4.889065]]]}},{"type":"Feature","properties":{"adm0_a3":"BRN","admin":"Brunei","adm1_code":"BRN-1183","iso_3166_2":"BN-TE","geonunit":"Brunei","name":"Temburong","name_en":"Temburong","name_local":"","type":"Daerah-Daerah","type_en":"District","ne_id":1159310045},"geometry":{"type":"Polygon","coordinates":[[[115.146169,4.908515],[115.145844,4.908515],[115.134532,4.90884],[115.125173,4.90766],[115.118663,4.903754],[115.116466,4.896064],[115.122325,4.879381],[115.13087,4.863715],[115.130219,4.852037],[115.108572,4.84748],[115.086192,4.835639],[115.066417,4.813544],[115.048106,4.801825],[115.029778,4.820642],[115.022777,4.741365],[115.026808,4.660027],[115.03549,4.621244],[115.068149,4.543367],[115.079828,4.503964],[115.091817,4.405417],[115.099775,4.391232],[115.113004,4.382369],[115.169952,4.361259],[115.190829,4.356764],[115.220698,4.359761],[115.229069,4.356764],[115.244676,4.343664],[115.255114,4.339245],[115.274338,4.34002],[115.283123,4.336765],[115.30121,4.324698],[115.324361,4.314596],[115.346272,4.313769],[115.360741,4.329556],[115.358261,4.350278],[115.343791,4.371672],[115.308651,4.404694],[115.285603,4.435363],[115.272478,4.474663],[115.266897,4.516857],[115.267413,4.556209],[115.275475,4.595741],[115.277025,4.613053],[115.272684,4.636772],[115.207365,4.825598],[115.182251,4.861229],[115.169332,4.869988],[115.155999,4.876293],[115.146801,4.88562],[115.146169,4.908515]]]}},{"type":"Feature","properties":{"adm0_a3":"BRN","admin":"Brunei","adm1_code":"BRN-1184","iso_3166_2":"BN-TU","geonunit":"Brunei","name":"Tutong","name_en":"Tutong","name_local":"","type":"Daerah-Daerah","type_en":"District","ne_id":1159310051},"geometry":{"type":"Polygon","coordinates":[[[114.743192,4.730585],[114.743053,4.730926],[114.73618,4.747824],[114.743725,4.780044],[114.747033,4.802033],[114.755766,4.822187],[114.759642,4.847766],[114.76176,4.875181],[114.760183,4.898749],[114.722667,4.876044],[114.601817,4.779975],[114.565684,4.743354],[114.550304,4.714423],[114.529307,4.693793],[114.494443,4.681252],[114.502913,4.65721],[114.512783,4.634317],[114.528131,4.618659],[114.54105,4.601812],[114.559447,4.599409],[114.582495,4.59804],[114.595517,4.577731],[114.590815,4.54732],[114.596809,4.522334],[114.62797,4.503033],[114.650966,4.480166],[114.672515,4.453088],[114.696751,4.429601],[114.716027,4.405804],[114.731685,4.376607],[114.739488,4.346066],[114.758143,4.320021],[114.791578,4.30165],[114.793851,4.30041],[114.794163,4.30024],[114.818242,4.323458],[114.828991,4.340486],[114.836432,4.357229],[114.84563,4.395108],[114.847904,4.423736],[114.840463,4.42862],[114.825683,4.426191],[114.806046,4.433322],[114.788166,4.461202],[114.782172,4.497789],[114.777314,4.614655],[114.773903,4.636824],[114.768116,4.657495],[114.748789,4.694392],[114.741347,4.712943],[114.741967,4.729454],[114.743192,4.730585]]]}}]}
