{"type":"FeatureCollection","name":"ne_10m_admin_1_cok","adm0A3":"COK","bbox":[-165.824534,-21.938897,-157.312815,-8.94671],"features":[{"type":"Feature","properties":{"adm0_a3":"COK","admin":"Cook Islands","adm1_code":"COK-4950","iso_3166_2":"CK-X01~","geonunit":"Cook Islands","name":"Atiu","name_en":"Atiu","name_local":"","type":"","type_en":"","ne_id":1159316129},"geometry":{"type":"MultiPolygon","coordinates":[[[[-158.078318,-19.994236],[-158.097361,-19.981541],[-158.12031,-19.972833],[-158.135203,-19.976495],[-158.129954,-20.000746],[-158.115102,-20.01572],[-158.096547,-20.019708],[-158.081776,-20.012791],[-158.078318,-19.994236]]],[[[-158.2683,-19.832615],[-158.273305,-19.826267],[-158.276357,-19.8235],[-158.281077,-19.821954],[-158.2683,-19.832615]]],[[[-158.287668,-19.810642],[-158.295969,-19.814548],[-158.297353,-19.817315],[-158.293772,-19.816583],[-158.287668,-19.810642]]]]}},{"type":"Feature","properties":{"adm0_a3":"COK","admin":"Cook Islands","adm1_code":"COK-4951","iso_3166_2":"CK-X02~","geonunit":"Cook Islands","name":"Aitutaki","name_en":"Aitutaki","name_local":"","type":"","type_en":"","ne_id":1159316135},"geometry":{"type":"Polygon","coordinates":[[[-158.92516,-19.26922],[-158.920359,-19.266046],[-158.918894,-19.264093],[-158.91808,-19.261163],[-158.9322,-19.264255],[-158.937978,-19.257094],[-158.940663,-19.247328],[-158.945668,-19.24212],[-158.955556,-19.245294],[-158.950185,-19.25449],[-158.937449,-19.264255],[-158.92516,-19.26922]]]}},{"type":"Feature","properties":{"adm0_a3":"COK","admin":"Cook Islands","adm1_code":"COK-4952","iso_3166_2":"CK-X03~","geonunit":"Cook Islands","name":"Mangaia","name_en":"Mangaia","name_local":"","type":"","type_en":"","ne_id":1159315489},"geometry":{"type":"Polygon","coordinates":[[[-157.93456,-21.877537],[-157.944447,-21.880466],[-157.955149,-21.888849],[-157.96406,-21.900486],[-157.968699,-21.912286],[-157.961049,-21.923923],[-157.95287,-21.932306],[-157.942454,-21.937188],[-157.927724,-21.938897],[-157.91511,-21.937677],[-157.898508,-21.933689],[-157.887074,-21.926365],[-157.889882,-21.915297],[-157.910349,-21.891697],[-157.921335,-21.882257],[-157.93456,-21.877537]]]}},{"type":"Feature","properties":{"adm0_a3":"COK","admin":"Cook Islands","adm1_code":"COK-4953","iso_3166_2":"CK-X04~","geonunit":"Cook Islands","name":"Rarotonga","name_en":"Rarotonga","name_local":"","type":"","type_en":"","ne_id":1159316125},"geometry":{"type":"Polygon","coordinates":[[[-159.797841,-21.18613],[-159.823435,-21.18906],[-159.83141,-21.195571],[-159.832834,-21.207615],[-159.838816,-21.226332],[-159.846262,-21.233819],[-159.833079,-21.244561],[-159.793284,-21.241632],[-159.774281,-21.250909],[-159.770863,-21.250177],[-159.743235,-21.254327],[-159.737864,-21.24627],[-159.736033,-21.236993],[-159.736399,-21.216729],[-159.742747,-21.201593],[-159.758412,-21.191827],[-159.778432,-21.186944],[-159.797841,-21.18613]]]}},{"type":"Feature","properties":{"adm0_a3":"COK","admin":"Cook Islands","adm1_code":"COK-4954","iso_3166_2":"CK-X05~","geonunit":"Cook Islands","name":"Mitiaro","name_en":"Mitiaro","name_local":"","type":"","type_en":"","ne_id":1159316131},"geometry":{"type":"Polygon","coordinates":[[[-157.707997,-19.767185],[-157.715566,-19.773207],[-157.737538,-19.796563],[-157.742136,-19.80462],[-157.739613,-19.818455],[-157.733713,-19.825942],[-157.726877,-19.832289],[-157.721669,-19.842218],[-157.721669,-19.85589],[-157.708241,-19.841241],[-157.707224,-19.815851],[-157.70995,-19.788344],[-157.707997,-19.767185]]]}},{"type":"Feature","properties":{"adm0_a3":"COK","admin":"Cook Islands","adm1_code":"COK-4955","iso_3166_2":"CK-X06~","geonunit":"Cook Islands","name":"Mauke","name_en":"Mauke","name_local":"","type":"","type_en":"","ne_id":1159316133},"geometry":{"type":"Polygon","coordinates":[[[-157.312815,-20.155206],[-157.324412,-20.141697],[-157.338572,-20.137384],[-157.348988,-20.143324],[-157.349355,-20.16074],[-157.340321,-20.175714],[-157.328562,-20.179132],[-157.317983,-20.171808],[-157.312815,-20.155206]]]}},{"type":"Feature","properties":{"adm0_a3":"COK","admin":"Cook Islands","adm1_code":"COK-4956","iso_3166_2":"CK-X07~","geonunit":"Cook Islands","name":"Palmerston","name_en":"Palmerston Island","name_local":"","type":"","type_en":"","ne_id":1159316137},"geometry":{"type":"Polygon","coordinates":[[[-159.785105,-18.830824],[-159.793853,-18.839939],[-159.797882,-18.846531],[-159.802317,-18.865818],[-159.800811,-18.878188],[-159.793609,-18.887465],[-159.782867,-18.887953],[-159.776479,-18.878188],[-159.779612,-18.856378],[-159.779246,-18.852879],[-159.769683,-18.834324],[-159.766632,-18.835219],[-159.764963,-18.841729],[-159.761383,-18.845392],[-159.761993,-18.837254],[-159.772613,-18.828953],[-159.785105,-18.830824]]]}},{"type":"Feature","properties":{"adm0_a3":"COK","admin":"Cook Islands","adm1_code":"COK-4959","iso_3166_2":"CK-X08~","geonunit":"Cook Islands","name":"Pukapuka","name_en":"Pukapuka","name_local":"","type":"","type_en":"","ne_id":1159316139},"geometry":{"type":"Polygon","coordinates":[[[-165.824534,-10.881768],[-165.822092,-10.889093],[-165.818715,-10.891534],[-165.814036,-10.889093],[-165.807688,-10.88128],[-165.811757,-10.880141],[-165.815867,-10.880304],[-165.824534,-10.881768]]]}},{"type":"Feature","properties":{"adm0_a3":"COK","admin":"Cook Islands","adm1_code":"COK-4960","iso_3166_2":"CK-X09~","geonunit":"Cook Islands","name":"Rakahanga","name_en":"Rakahanga","name_local":"","type":"","type_en":"","ne_id":1159316141},"geometry":{"type":"Polygon","coordinates":[[[-161.088002,-10.035089],[-161.08727,-10.04461],[-161.075551,-10.036391],[-161.070058,-10.027439],[-161.088002,-10.035089]]]}},{"type":"Feature","properties":{"adm0_a3":"COK","admin":"Cook Islands","adm1_code":"COK-4961","iso_3166_2":"CK-X10~","geonunit":"Cook Islands","name":"Manihiki","name_en":"Manihiki","name_local":"","type":"","type_en":"","ne_id":1159316143},"geometry":{"type":"Polygon","coordinates":[[[-160.986236,-10.382094],[-160.9381,-10.422784],[-160.979929,-10.380955],[-160.996409,-10.371515],[-160.994333,-10.374688],[-160.986236,-10.382094]]]}},{"type":"Feature","properties":{"adm0_a3":"COK","admin":"Cook Islands","adm1_code":"COK-4962","iso_3166_2":"CK-X11~","geonunit":"Cook Islands","name":"Penrhyn","name_en":"Penrhyn Atoll","name_local":"","type":"","type_en":"","ne_id":1159316147},"geometry":{"type":"Polygon","coordinates":[[[-157.940745,-8.980727],[-157.940745,-8.974542],[-158.002878,-8.94671],[-158.00829,-8.952895],[-157.997141,-8.964614],[-157.978627,-8.976007],[-157.961863,-8.980727],[-157.940745,-8.980727]]]}}]}
