{"type":"FeatureCollection","name":"ne_10m_admin_1_grd","adm0A3":"GRD","bbox":[-61.790517,12.002834,-61.42162,12.529731],"features":[{"type":"Feature","properties":{"adm0_a3":"GRD","admin":"Grenada","adm1_code":"GRD-5070","iso_3166_2":"GD-01","geonunit":"Grenada","name":"Saint Andrew","name_en":"Saint Andrew","name_local":"","type":"Parish","type_en":"Parish","ne_id":1159316371},"geometry":{"type":"Polygon","coordinates":[[[-61.603222,12.176691],[-61.631275,12.179165],[-61.65595,12.179165],[-61.66253,12.158602],[-61.676513,12.135571],[-61.688028,12.121589],[-61.686383,12.110896],[-61.681448,12.091156],[-61.676513,12.084575],[-61.658418,12.089511],[-61.64279,12.08293],[-61.624501,12.069037],[-61.621571,12.074937],[-61.616363,12.077297],[-61.61384,12.08039],[-61.619456,12.096747],[-61.619781,12.10456],[-61.613108,12.119859],[-61.608713,12.126776],[-61.606313,12.133775],[-61.603222,12.176691]]]}},{"type":"Feature","properties":{"adm0_a3":"GRD","admin":"Grenada","adm1_code":"GRD-5071","iso_3166_2":"GD-02","geonunit":"Grenada","name":"Saint David","name_en":"Saint David","name_local":"","type":"Parish","type_en":"Parish","ne_id":1159316369},"geometry":{"type":"Polygon","coordinates":[[[-61.624501,12.069037],[-61.64279,12.08293],[-61.658418,12.089511],[-61.676513,12.084575],[-61.689673,12.080463],[-61.696253,12.058255],[-61.696253,12.040982],[-61.688851,12.029467],[-61.682973,12.025377],[-61.674428,12.029486],[-61.674428,12.02204],[-61.631581,12.044094],[-61.626047,12.053046],[-61.625722,12.061225],[-61.624501,12.069037]]]}},{"type":"Feature","properties":{"adm0_a3":"GRD","admin":"Grenada","adm1_code":"GRD-5072","iso_3166_2":"GD-03","geonunit":"Grenada","name":"Saint George","name_en":"Saint George","name_local":"","type":"Parish","type_en":"Parish","ne_id":1159316367},"geometry":{"type":"Polygon","coordinates":[[[-61.682973,12.025377],[-61.688851,12.029467],[-61.696253,12.040982],[-61.696253,12.058255],[-61.689673,12.080463],[-61.676513,12.084575],[-61.681448,12.091156],[-61.686383,12.110896],[-61.715994,12.110073],[-61.751047,12.110093],[-61.756418,12.087836],[-61.753774,12.074164],[-61.74885,12.062649],[-61.745961,12.05093],[-61.749501,12.036322],[-61.755849,12.03026],[-61.790517,12.008368],[-61.775543,12.00434],[-61.756947,12.003404],[-61.73998,12.006903],[-61.729644,12.015815],[-61.72175,12.011054],[-61.713246,12.00727],[-61.704254,12.004543],[-61.694936,12.002834],[-61.69343,12.012274],[-61.689361,12.019761],[-61.682973,12.025377]]]}},{"type":"Feature","properties":{"adm0_a3":"GRD","admin":"Grenada","adm1_code":"GRD-5073","iso_3166_2":"GD-04","geonunit":"Grenada","name":"Saint John","name_en":"Saint John","name_local":"","type":"Parish","type_en":"Parish","ne_id":1159316365},"geometry":{"type":"Polygon","coordinates":[[[-61.751047,12.110093],[-61.715994,12.110073],[-61.686383,12.110896],[-61.688028,12.121589],[-61.676513,12.135571],[-61.66253,12.158602],[-61.677335,12.170117],[-61.696253,12.179165],[-61.715148,12.183947],[-61.729644,12.166653],[-61.730295,12.149319],[-61.751047,12.110093]]]}},{"type":"Feature","properties":{"adm0_a3":"GRD","admin":"Grenada","adm1_code":"GRD-5074","iso_3166_2":"GD-05","geonunit":"Grenada","name":"Saint Mark","name_en":"Saint Mark","name_local":"","type":"Parish","type_en":"Parish","ne_id":1159316363},"geometry":{"type":"Polygon","coordinates":[[[-61.715148,12.183947],[-61.696253,12.179165],[-61.677335,12.170117],[-61.66253,12.158602],[-61.65595,12.179165],[-61.65924,12.199728],[-61.66911,12.213711],[-61.682134,12.223333],[-61.715148,12.183947]]]}},{"type":"Feature","properties":{"adm0_a3":"GRD","admin":"Grenada","adm1_code":"GRD-5075","iso_3166_2":"GD-06","geonunit":"Grenada","name":"Saint Patrick","name_en":"Saint Patrick","name_local":"","type":"Parish","type_en":"Parish","ne_id":1159315637},"geometry":{"type":"Polygon","coordinates":[[[-61.682134,12.223333],[-61.66911,12.213711],[-61.65924,12.199728],[-61.65595,12.179165],[-61.631275,12.179165],[-61.603222,12.176691],[-61.602773,12.182929],[-61.604563,12.197455],[-61.612945,12.214423],[-61.606679,12.220282],[-61.606028,12.223375],[-61.627675,12.236721],[-61.650502,12.239732],[-61.671457,12.23607],[-61.682134,12.223333]]]}},{"type":"Feature","properties":{"adm0_a3":"GRD","admin":"Grenada","adm1_code":"GRD-5069","iso_3166_2":"GD-10","geonunit":"Grenada","name":"Carriacou and Petite Martinique","name_en":"Carriacou and Petite Martinique","name_local":"","type":"Dependency","type_en":"Dependency","ne_id":1159316373},"geometry":{"type":"Polygon","coordinates":[[[-61.428049,12.454657],[-61.427398,12.475409],[-61.423329,12.495185],[-61.42162,12.513373],[-61.428049,12.529731],[-61.443471,12.516547],[-61.454335,12.492825],[-61.467275,12.475572],[-61.488881,12.482001],[-61.494781,12.472317],[-61.496246,12.468329],[-61.485748,12.468817],[-61.482655,12.468329],[-61.486073,12.462226],[-61.492787,12.446479],[-61.496246,12.440375],[-61.479237,12.446723],[-61.462554,12.455146],[-61.445668,12.459784],[-61.428049,12.454657]]]}}]}
