{"type":"FeatureCollection","name":"ne_10m_admin_1_ioa","adm0A3":"IOA","bbox":[96.821544,-12.199965,96.921072,-12.12656],"features":[{"type":"Feature","properties":{"adm0_a3":"IOA","admin":"Indian Ocean Territories","adm1_code":"IOA-1928","iso_3166_2":"-99-X15~","geonunit":"Cocos (Keeling) Islands","name":"Cocos (Keeling) Islands","name_en":"Cocos","name_local":"","type":"Propinsi","type_en":"Province","ne_id":1159311167},"geometry":{"type":"MultiPolygon","coordinates":[[[[96.863129,-12.181736],[96.847667,-12.187188],[96.836192,-12.182061],[96.831309,-12.171482],[96.835216,-12.160577],[96.829845,-12.144464],[96.82838,-12.136326],[96.82838,-12.12656],[96.821544,-12.12656],[96.823416,-12.150974],[96.830577,-12.179946],[96.845225,-12.197686],[96.869395,-12.187921],[96.863129,-12.181736]]],[[[96.902192,-12.199965],[96.91391,-12.194513],[96.920177,-12.184991],[96.921072,-12.173517],[96.916189,-12.161798],[96.914561,-12.173517],[96.909028,-12.182061],[96.900076,-12.186782],[96.88852,-12.187433],[96.889659,-12.192804],[96.892345,-12.195896],[96.902192,-12.199965]]]]}}]}
