{"type":"FeatureCollection","name":"ne_10m_admin_1_kas","adm0A3":"KAS","bbox":[76.777351,35.110442,77.800346,35.647799],"features":[{"type":"Feature","properties":{"adm0_a3":"KAS","admin":"Siachen Glacier","adm1_code":"KAS+00?","iso_3166_2":"-99-X06~","geonunit":"Siachen Glacier","name":"Kashmir","name_en":"Kashmir","name_local":"","type":"","type_en":"","ne_id":1159315669},"geometry":{"type":"Polygon","coordinates":[[[77.048971,35.110442],[77.424659,35.302924],[77.800346,35.495406],[77.773578,35.498971],[77.760349,35.498093],[77.74743,35.49432],[77.716734,35.475407],[77.689655,35.462694],[77.660613,35.458095],[77.519608,35.477439],[77.512199,35.478456],[77.476438,35.477164],[77.412773,35.469412],[77.383731,35.471996],[77.352002,35.486052],[77.305389,35.517833],[77.281102,35.528013],[77.250819,35.530701],[77.177542,35.523156],[77.141265,35.525378],[77.105298,35.537987],[77.092276,35.547805],[77.071089,35.571008],[77.058169,35.580103],[77.039049,35.585013],[77.017552,35.584599],[76.976417,35.578656],[76.9358,35.579638],[76.915026,35.583152],[76.896422,35.589612],[76.880506,35.60067],[76.856941,35.628576],[76.842989,35.641288],[76.824592,35.647799],[76.782837,35.645732],[76.777351,35.646112],[76.913161,35.378277],[77.048971,35.110442]]]}}]}
