{"type":"FeatureCollection","name":"ne_10m_admin_1_mco","adm0A3":"MCO","bbox":[7.36575,43.717969,7.437454,43.763506],"features":[{"type":"Feature","properties":{"adm0_a3":"MCO","admin":"Monaco","adm1_code":"MCO+00?","iso_3166_2":"MC-X01~","geonunit":"Monaco","name":"Monaco","name_en":"Monaco","name_local":"","type":"","type_en":"","ne_id":1159315589},"geometry":{"type":"Polygon","coordinates":[[[7.437454,43.743361],[7.426246,43.755464],[7.406969,43.763506],[7.387538,43.757899],[7.372655,43.745832],[7.367263,43.734125],[7.36575,43.72273],[7.380723,43.719273],[7.404319,43.717969],[7.417957,43.730904],[7.432845,43.739853],[7.437454,43.743361]]]}}]}
