{"type":"FeatureCollection","name":"ne_10m_admin_1_msr","adm0A3":"MSR","bbox":[-62.230133,16.67536,-62.140533,16.819322],"features":[{"type":"Feature","properties":{"adm0_a3":"MSR","admin":"Montserrat","adm1_code":"MSR-5087","iso_3166_2":"MS-A","geonunit":"Montserrat","name":"Saint Anthony","name_en":"Saint Anthony","name_local":"","type":"Parish","type_en":"Parish","ne_id":1159316401},"geometry":{"type":"Polygon","coordinates":[[[-62.150787,16.720364],[-62.168555,16.723351],[-62.178965,16.7293],[-62.188632,16.738967],[-62.202017,16.744915],[-62.225458,16.747808],[-62.230133,16.727607],[-62.218861,16.688707],[-62.167877,16.67536],[-62.157826,16.677314],[-62.14977,16.681789],[-62.144032,16.688218],[-62.140533,16.696479],[-62.141184,16.70185],[-62.14391,16.70897],[-62.147572,16.715888],[-62.150787,16.720364]]]}},{"type":"Feature","properties":{"adm0_a3":"MSR","admin":"Montserrat","adm1_code":"MSR-5088","iso_3166_2":"MS-G","geonunit":"Montserrat","name":"Saint Georges","name_en":"Saint George","name_local":"","type":"Parish","type_en":"Parish","ne_id":1159316399},"geometry":{"type":"Polygon","coordinates":[[[-62.170033,16.777004],[-62.177478,16.767967],[-62.18417,16.754582],[-62.188632,16.738967],[-62.178965,16.7293],[-62.168555,16.723351],[-62.150787,16.720364],[-62.151763,16.724514],[-62.147694,16.737047],[-62.147369,16.744289],[-62.156321,16.760321],[-62.170033,16.777004]]]}},{"type":"Feature","properties":{"adm0_a3":"MSR","admin":"Montserrat","adm1_code":"MSR-5089","iso_3166_2":"MS-P","geonunit":"Montserrat","name":"Saint Peter","name_en":"Saint Peter","name_local":"","type":"Parish","type_en":"Parish","ne_id":1159315545},"geometry":{"type":"Polygon","coordinates":[[[-62.225458,16.747808],[-62.202017,16.744915],[-62.188632,16.738967],[-62.18417,16.754582],[-62.177478,16.767967],[-62.170033,16.777004],[-62.179311,16.794501],[-62.174672,16.813137],[-62.182932,16.81273],[-62.189443,16.814439],[-62.202016,16.819322],[-62.218861,16.776313],[-62.225458,16.747808]]]}}]}
