{"type":"FeatureCollection","name":"ne_10m_admin_1_mus","adm0A3":"MUS","bbox":[56.524181,-20.517348,63.493907,-10.323907],"features":[{"type":"Feature","properties":{"adm0_a3":"MUS","admin":"Mauritius","adm1_code":"MUS-5180","iso_3166_2":"MU-AG","geonunit":"Mauritius","name":"Agaléga","name_en":"Agaléga","name_local":"","type":"Dependency","type_en":"Dependency","ne_id":1159315815},"geometry":{"type":"Polygon","coordinates":[[[56.524181,-10.330011],[56.524587,-10.34002],[56.529796,-10.35296],[56.548513,-10.382013],[56.569347,-10.406508],[56.568614,-10.386407],[56.542817,-10.346449],[56.535655,-10.323907],[56.531016,-10.324151],[56.52768,-10.325372],[56.525564,-10.327325],[56.524181,-10.330011]]]}},{"type":"Feature","properties":{"adm0_a3":"MUS","admin":"Mauritius","adm1_code":"MUS-5193","iso_3166_2":"MU-BL","geonunit":"Mauritius","name":"Rivière Noire","name_en":"Rivière Noire","name_local":"","type":"District","type_en":"District","ne_id":1159316585},"geometry":{"type":"Polygon","coordinates":[[[57.399262,-20.497979],[57.402115,-20.483033],[57.391376,-20.473369],[57.391376,-20.452965],[57.409632,-20.447596],[57.433257,-20.430414],[57.453661,-20.422897],[57.475138,-20.416454],[57.486951,-20.422897],[57.488024,-20.407863],[57.47836,-20.402493],[57.45903,-20.398198],[57.450439,-20.387459],[57.460104,-20.379942],[57.453661,-20.363834],[57.448291,-20.343431],[57.454735,-20.336987],[57.468695,-20.336987],[57.47299,-20.330544],[57.471049,-20.328818],[57.463325,-20.321953],[57.460104,-20.304771],[57.459207,-20.290864],[57.456963,-20.256074],[57.456135,-20.243241],[57.459691,-20.21906],[57.461992,-20.203412],[57.470843,-20.188794],[57.465407,-20.167533],[57.463878,-20.161554],[57.442231,-20.167413],[57.432628,-20.171808],[57.410492,-20.189223],[57.408458,-20.192315],[57.400157,-20.200616],[57.377452,-20.243097],[57.370616,-20.260512],[57.365977,-20.290785],[57.365001,-20.345961],[57.356944,-20.370375],[57.367849,-20.376153],[57.368988,-20.386407],[57.36378,-20.414483],[57.357758,-20.427423],[57.344086,-20.429864],[57.319347,-20.425063],[57.303477,-20.430922],[57.307872,-20.444268],[57.320567,-20.458185],[57.378103,-20.507013],[57.399262,-20.497979]]]}},{"type":"Feature","properties":{"adm0_a3":"MUS","admin":"Mauritius","adm1_code":"MUS-5181","iso_3166_2":"MU-BR","geonunit":"Mauritius","name":"Beau Bassin-Rose Hill","name_en":"Beau Bassin-Rose Hill","name_local":"","type":"City","type_en":"City","ne_id":1159316593},"geometry":{"type":"Polygon","coordinates":[[[57.456963,-20.256074],[57.494793,-20.248513],[57.483078,-20.219227],[57.459691,-20.21906],[57.456135,-20.243241],[57.456963,-20.256074]]]}},{"type":"Feature","properties":{"adm0_a3":"MUS","admin":"Mauritius","adm1_code":"MUS-5183","iso_3166_2":"MU-CU","geonunit":"Mauritius","name":"Curepipe","name_en":"Curepipe","name_local":"","type":"City","type_en":"City","ne_id":1159316597},"geometry":{"type":"Polygon","coordinates":[[[57.483127,-20.322063],[57.503579,-20.346914],[57.554536,-20.326413],[57.550436,-20.314699],[57.528765,-20.296542],[57.483127,-20.322063]]]}},{"type":"Feature","properties":{"adm0_a3":"MUS","admin":"Mauritius","adm1_code":"MUS-5184","iso_3166_2":"MU-FL","geonunit":"Mauritius","name":"Flacq","name_en":"Flacq","name_local":"","type":"District","type_en":"District","ne_id":1159316573},"geometry":{"type":"Polygon","coordinates":[[[57.733653,-20.096124],[57.630849,-20.155504],[57.626553,-20.165169],[57.609372,-20.175907],[57.607879,-20.18486],[57.607224,-20.188794],[57.627627,-20.197385],[57.661991,-20.222084],[57.629775,-20.252152],[57.679173,-20.290811],[57.668434,-20.328396],[57.688838,-20.327323],[57.727497,-20.324101],[57.756491,-20.302624],[57.778168,-20.304783],[57.78891,-20.274184],[57.793956,-20.246759],[57.795746,-20.222752],[57.791352,-20.212172],[57.772146,-20.190525],[57.762543,-20.162042],[57.752208,-20.154229],[57.744477,-20.143813],[57.747732,-20.111505],[57.744802,-20.105076],[57.733653,-20.096124]]]}},{"type":"Feature","properties":{"adm0_a3":"MUS","admin":"Mauritius","adm1_code":"MUS-5185","iso_3166_2":"MU-GP","geonunit":"Mauritius","name":"Grand Port","name_en":"Grand Port","name_local":"","type":"District","type_en":"District","ne_id":1159316581},"geometry":{"type":"Polygon","coordinates":[[[57.778168,-20.304783],[57.756491,-20.302624],[57.727497,-20.324101],[57.688838,-20.327323],[57.668434,-20.328396],[57.656622,-20.338061],[57.63407,-20.344504],[57.599707,-20.343431],[57.546013,-20.402493],[57.573934,-20.401419],[57.594337,-20.405715],[57.612593,-20.425045],[57.62548,-20.458334],[57.628701,-20.480886],[57.630974,-20.49204],[57.672211,-20.479669],[57.684744,-20.471612],[57.692393,-20.461521],[57.705821,-20.438735],[57.711274,-20.435805],[57.717621,-20.43613],[57.723318,-20.434259],[57.726817,-20.425063],[57.726085,-20.41961],[57.720714,-20.411065],[57.719981,-20.403985],[57.71225,-20.387465],[57.729259,-20.363946],[57.757091,-20.343357],[57.781505,-20.335707],[57.77589,-20.320408],[57.778168,-20.304783]]]}},{"type":"Feature","properties":{"adm0_a3":"MUS","admin":"Mauritius","adm1_code":"MUS-5186","iso_3166_2":"MU-MO","geonunit":"Mauritius","name":"Moka","name_en":"Moka","name_local":"","type":"District","type_en":"District","ne_id":1159316575},"geometry":{"type":"Polygon","coordinates":[[[57.607879,-20.18486],[57.593263,-20.185572],[57.57286,-20.198458],[57.555678,-20.204902],[57.546262,-20.201959],[57.538496,-20.199532],[57.518093,-20.189867],[57.505206,-20.184498],[57.485877,-20.190941],[57.489098,-20.209197],[57.503059,-20.242487],[57.526684,-20.262891],[57.546013,-20.265038],[57.555678,-20.277925],[57.57286,-20.299402],[57.568565,-20.312288],[57.578229,-20.32947],[57.599707,-20.343431],[57.63407,-20.344504],[57.656622,-20.338061],[57.668434,-20.328396],[57.679173,-20.290811],[57.629775,-20.252152],[57.661991,-20.222084],[57.627627,-20.197385],[57.607224,-20.188794],[57.607879,-20.18486]]]}},{"type":"Feature","properties":{"adm0_a3":"MUS","admin":"Mauritius","adm1_code":"MUS-5187","iso_3166_2":"MU-PA","geonunit":"Mauritius","name":"Pamplemousses","name_en":"Pamplemousses","name_local":"","type":"District","type_en":"District","ne_id":1159316569},"geometry":{"type":"Polygon","coordinates":[[[57.493826,-20.122328],[57.499258,-20.123155],[57.521314,-20.126509],[57.53957,-20.122214],[57.547087,-20.1351],[57.550309,-20.175907],[57.546262,-20.201959],[57.555678,-20.204902],[57.57286,-20.198458],[57.593263,-20.185572],[57.607879,-20.18486],[57.609372,-20.175907],[57.626553,-20.165169],[57.630849,-20.155504],[57.619036,-20.10718],[57.635144,-20.088924],[57.60615,-20.061003],[57.612593,-20.047043],[57.610445,-20.034157],[57.580333,-19.999933],[57.566905,-20.000909],[57.560069,-20.003839],[57.532481,-20.024835],[57.528087,-20.030857],[57.521983,-20.041599],[57.509613,-20.077407],[57.494477,-20.103692],[57.493826,-20.122328]]]}},{"type":"Feature","properties":{"adm0_a3":"MUS","admin":"Mauritius","adm1_code":"MUS-5190","iso_3166_2":"MU-PL","geonunit":"Mauritius","name":"Port Louis city","name_en":"Port Louis","name_local":"","type":"City","type_en":"City","ne_id":1159316591},"geometry":{"type":"Polygon","coordinates":[[[57.463878,-20.161554],[57.465407,-20.167533],[57.477673,-20.165875],[57.491259,-20.168195],[57.501531,-20.171508],[57.509815,-20.166206],[57.512466,-20.15726],[57.522075,-20.148644],[57.519424,-20.135059],[57.512797,-20.133733],[57.505838,-20.139035],[57.499543,-20.132408],[57.499258,-20.123155],[57.493826,-20.122328],[57.490733,-20.140802],[57.473643,-20.157485],[57.463878,-20.161554]]]}},{"type":"Feature","properties":{"adm0_a3":"MUS","admin":"Mauritius","adm1_code":"MUS-5189","iso_3166_2":"MU-PL","geonunit":"Mauritius","name":"Port Louis","name_en":"Port Louis","name_local":"","type":"City","type_en":"City","ne_id":1159307843},"geometry":{"type":"Polygon","coordinates":[[[57.470843,-20.188794],[57.485877,-20.190941],[57.505206,-20.184498],[57.518093,-20.189867],[57.538496,-20.199532],[57.546262,-20.201959],[57.550309,-20.175907],[57.547087,-20.1351],[57.53957,-20.122214],[57.521314,-20.126509],[57.499258,-20.123155],[57.499543,-20.132408],[57.505838,-20.139035],[57.512797,-20.133733],[57.519424,-20.135059],[57.522075,-20.148644],[57.512466,-20.15726],[57.509815,-20.166206],[57.501531,-20.171508],[57.491259,-20.168195],[57.477673,-20.165875],[57.465407,-20.167533],[57.470843,-20.188794]]]}},{"type":"Feature","properties":{"adm0_a3":"MUS","admin":"Mauritius","adm1_code":"MUS-5188","iso_3166_2":"MU-PW","geonunit":"Mauritius","name":"Plaines Wilhems","name_en":"Plaines Wilhems","name_local":"","type":"District","type_en":"District","ne_id":1159316579},"geometry":{"type":"Polygon","coordinates":[[[57.599707,-20.343431],[57.578229,-20.32947],[57.568565,-20.312288],[57.57286,-20.299402],[57.555678,-20.277925],[57.546013,-20.265038],[57.526684,-20.262891],[57.503059,-20.242487],[57.489098,-20.209197],[57.485877,-20.190941],[57.470843,-20.188794],[57.461992,-20.203412],[57.459691,-20.21906],[57.483078,-20.219227],[57.494793,-20.248513],[57.511193,-20.276627],[57.528765,-20.296542],[57.550436,-20.314699],[57.554536,-20.326413],[57.503579,-20.346914],[57.483127,-20.322063],[57.471049,-20.328818],[57.47299,-20.330544],[57.468695,-20.336987],[57.454735,-20.336987],[57.448291,-20.343431],[57.453661,-20.363834],[57.460104,-20.379942],[57.450439,-20.387459],[57.45903,-20.398198],[57.47836,-20.402493],[57.488024,-20.407863],[57.486951,-20.422897],[57.503059,-20.425045],[57.509502,-20.404641],[57.51165,-20.39605],[57.526684,-20.398198],[57.535275,-20.404641],[57.546013,-20.402493],[57.599707,-20.343431]]]}},{"type":"Feature","properties":{"adm0_a3":"MUS","admin":"Mauritius","adm1_code":"MUS-5191","iso_3166_2":"MU-QB","geonunit":"Mauritius","name":"Quatre Bornes","name_en":"Quatre Bornes","name_local":"","type":"City","type_en":"City","ne_id":1159316599},"geometry":{"type":"Polygon","coordinates":[[[57.459207,-20.290864],[57.511193,-20.276627],[57.494793,-20.248513],[57.456963,-20.256074],[57.459207,-20.290864]]]}},{"type":"Feature","properties":{"adm0_a3":"MUS","admin":"Mauritius","adm1_code":"MUS-5194","iso_3166_2":"MU-RO","geonunit":"Mauritius","name":"Rodrigues","name_en":"Rodrigues","name_local":"","type":"Dependency","type_en":"Dependency","ne_id":1159316587},"geometry":{"type":"Polygon","coordinates":[[[63.476248,-19.67783],[63.454275,-19.669854],[63.421153,-19.674412],[63.389171,-19.684747],[63.355235,-19.704685],[63.343272,-19.709731],[63.335216,-19.717869],[63.332286,-19.736423],[63.337738,-19.738458],[63.366384,-19.767185],[63.38559,-19.756036],[63.400645,-19.744887],[63.416515,-19.736423],[63.438731,-19.733005],[63.469412,-19.722914],[63.489594,-19.70143],[63.493907,-19.681899],[63.476248,-19.67783]]]}},{"type":"Feature","properties":{"adm0_a3":"MUS","admin":"Mauritius","adm1_code":"MUS-5192","iso_3166_2":"MU-RR","geonunit":"Mauritius","name":"Rivière du Rempart","name_en":"Rivière du Rempart","name_local":"","type":"District","type_en":"District","ne_id":1159316571},"geometry":{"type":"Polygon","coordinates":[[[57.580333,-19.999933],[57.610445,-20.034157],[57.612593,-20.047043],[57.60615,-20.061003],[57.635144,-20.088924],[57.619036,-20.10718],[57.630849,-20.155504],[57.733653,-20.096124],[57.729747,-20.095147],[57.717947,-20.096938],[57.713878,-20.096124],[57.708832,-20.089939],[57.706228,-20.078383],[57.697765,-20.06406],[57.690196,-20.047296],[57.683116,-20.037774],[57.67921,-20.028253],[57.684825,-20.011],[57.679698,-19.999933],[57.667735,-19.994073],[57.622895,-19.981703],[57.607107,-19.979425],[57.596528,-19.982599],[57.590505,-19.989679],[57.586111,-19.996759],[57.580333,-19.999933]]]}},{"type":"Feature","properties":{"adm0_a3":"MUS","admin":"Mauritius","adm1_code":"MUS-5195","iso_3166_2":"MU-SA","geonunit":"Mauritius","name":"Savanne","name_en":"Savanne","name_local":"","type":"District","type_en":"District","ne_id":1159316583},"geometry":{"type":"Polygon","coordinates":[[[57.630974,-20.49204],[57.628701,-20.480886],[57.62548,-20.458334],[57.612593,-20.425045],[57.594337,-20.405715],[57.573934,-20.401419],[57.546013,-20.402493],[57.535275,-20.404641],[57.526684,-20.398198],[57.51165,-20.39605],[57.509502,-20.404641],[57.503059,-20.425045],[57.486951,-20.422897],[57.475138,-20.416454],[57.453661,-20.422897],[57.433257,-20.430414],[57.409632,-20.447596],[57.391376,-20.452965],[57.391376,-20.473369],[57.402115,-20.483033],[57.399262,-20.497979],[57.426931,-20.500909],[57.473643,-20.515069],[57.503591,-20.517348],[57.58839,-20.504815],[57.630974,-20.49204]]]}},{"type":"Feature","properties":{"adm0_a3":"MUS","admin":"Mauritius","adm1_code":"MUS-5196","iso_3166_2":"MU-VP","geonunit":"Mauritius","name":"Vacoas-Phoenix","name_en":"Vacoas-Phoenix","name_local":"","type":"City","type_en":"City","ne_id":1159316601},"geometry":{"type":"Polygon","coordinates":[[[57.471049,-20.328818],[57.483127,-20.322063],[57.528765,-20.296542],[57.511193,-20.276627],[57.459207,-20.290864],[57.460104,-20.304771],[57.463325,-20.321953],[57.471049,-20.328818]]]}}]}
