{"type":"FeatureCollection","name":"ne_10m_admin_1_nru","adm0A3":"NRU","bbox":[166.906993,-0.551853,166.958263,-0.490411],"features":[{"type":"Feature","properties":{"adm0_a3":"NRU","admin":"Nauru","adm1_code":"NRU-4972","iso_3166_2":"NR-01","geonunit":"Nauru","name":"Aiwo","name_en":"Aiwo","name_local":"","type":"","type_en":"","ne_id":1159316159},"geometry":{"type":"Polygon","coordinates":[[[166.911993,-0.536965],[166.917918,-0.535083],[166.916163,-0.529114],[166.916865,-0.524198],[166.906993,-0.524835],[166.911993,-0.536965]]]}},{"type":"Feature","properties":{"adm0_a3":"NRU","admin":"Nauru","adm1_code":"NRU-4979","iso_3166_2":"NR-02","geonunit":"Nauru","name":"Anabar","name_en":"Anabar","name_local":"","type":"","type_en":"","ne_id":1159316175},"geometry":{"type":"Polygon","coordinates":[[[166.938813,-0.490411],[166.938987,-0.504183],[166.955577,-0.497979],[166.938813,-0.490411]]]}},{"type":"Feature","properties":{"adm0_a3":"NRU","admin":"Nauru","adm1_code":"NRU-4978","iso_3166_2":"NR-03","geonunit":"Nauru","name":"Anetan","name_en":"Anetan","name_local":"","type":"","type_en":"","ne_id":1159316173},"geometry":{"type":"Polygon","coordinates":[[[166.931197,-0.49334],[166.938987,-0.504183],[166.938813,-0.490411],[166.931197,-0.49334]]]}},{"type":"Feature","properties":{"adm0_a3":"NRU","admin":"Nauru","adm1_code":"NRU-4981","iso_3166_2":"NR-04","geonunit":"Nauru","name":"Anibare","name_en":"Anibare","name_local":"","type":"","type_en":"","ne_id":1159316179},"geometry":{"type":"Polygon","coordinates":[[[166.957397,-0.511329],[166.946712,-0.508748],[166.938987,-0.504183],[166.938048,-0.51052],[166.937582,-0.513664],[166.93724,-0.516516],[166.936798,-0.520199],[166.936529,-0.522442],[166.936135,-0.525195],[166.935475,-0.529816],[166.945307,-0.532274],[166.953205,-0.533383],[166.958263,-0.517673],[166.957397,-0.511329]]]}},{"type":"Feature","properties":{"adm0_a3":"NRU","admin":"Nauru","adm1_code":"NRU-4976","iso_3166_2":"NR-05","geonunit":"Nauru","name":"Baiti","name_en":"Baiti","name_local":"","type":"","type_en":"","ne_id":1159316169},"geometry":{"type":"Polygon","coordinates":[[[166.918067,-0.49839],[166.93724,-0.516516],[166.937582,-0.513664],[166.938048,-0.51052],[166.925126,-0.495675],[166.918067,-0.49839]]]}},{"type":"Feature","properties":{"adm0_a3":"NRU","admin":"Nauru","adm1_code":"NRU-4971","iso_3166_2":"NR-06","geonunit":"Nauru","name":"Boe","name_en":"Boe","name_local":"","type":"","type_en":"","ne_id":1159316157},"geometry":{"type":"Polygon","coordinates":[[[166.916352,-0.54754],[166.91827,-0.54035],[166.920094,-0.538799],[166.917918,-0.535083],[166.911993,-0.536965],[166.916352,-0.54754]]]}},{"type":"Feature","properties":{"adm0_a3":"NRU","admin":"Nauru","adm1_code":"NRU-4970","iso_3166_2":"NR-07","geonunit":"Nauru","name":"Buada","name_en":"Buada","name_local":"","type":"","type_en":"","ne_id":1159315507},"geometry":{"type":"Polygon","coordinates":[[[166.936135,-0.525195],[166.928453,-0.522793],[166.920376,-0.520686],[166.916865,-0.524198],[166.916163,-0.529114],[166.917918,-0.535083],[166.920094,-0.538799],[166.925292,-0.534381],[166.935475,-0.529816],[166.936135,-0.525195]]]}},{"type":"Feature","properties":{"adm0_a3":"NRU","admin":"Nauru","adm1_code":"NRU-4973","iso_3166_2":"NR-08","geonunit":"Nauru","name":"Denigomodu","name_en":"Denigomodu","name_local":"","type":"","type_en":"","ne_id":1159316161},"geometry":{"type":"Polygon","coordinates":[[[166.906993,-0.524835],[166.916865,-0.524198],[166.920376,-0.520686],[166.910312,-0.512107],[166.906993,-0.524835]]]}},{"type":"Feature","properties":{"adm0_a3":"NRU","admin":"Nauru","adm1_code":"NRU-4977","iso_3166_2":"NR-09","geonunit":"Nauru","name":"Ewa","name_en":"Ewa","name_local":"","type":"","type_en":"","ne_id":1159316171},"geometry":{"type":"Polygon","coordinates":[[[166.925126,-0.495675],[166.938048,-0.51052],[166.938987,-0.504183],[166.931197,-0.49334],[166.925126,-0.495675]]]}},{"type":"Feature","properties":{"adm0_a3":"NRU","admin":"Nauru","adm1_code":"NRU-4980","iso_3166_2":"NR-10","geonunit":"Nauru","name":"Ijuw","name_en":"Ijuw","name_local":"","type":"","type_en":"","ne_id":1159316177},"geometry":{"type":"Polygon","coordinates":[[[166.955577,-0.497979],[166.938987,-0.504183],[166.946712,-0.508748],[166.957397,-0.511329],[166.955577,-0.497979]]]}},{"type":"Feature","properties":{"adm0_a3":"NRU","admin":"Nauru","adm1_code":"NRU-4982","iso_3166_2":"NR-11","geonunit":"Nauru","name":"Meneng","name_en":"Meneng","name_local":"","type":"","type_en":"","ne_id":1159316183},"geometry":{"type":"Polygon","coordinates":[[[166.953205,-0.533383],[166.945307,-0.532274],[166.935475,-0.529816],[166.925292,-0.534381],[166.93264,-0.550668],[166.938813,-0.551853],[166.951345,-0.539158],[166.953205,-0.533383]]]}},{"type":"Feature","properties":{"adm0_a3":"NRU","admin":"Nauru","adm1_code":"NRU-4974","iso_3166_2":"NR-12","geonunit":"Nauru","name":"Nibok","name_en":"Nibok","name_local":"","type":"","type_en":"","ne_id":1159316165},"geometry":{"type":"Polygon","coordinates":[[[166.910312,-0.512107],[166.920376,-0.520686],[166.928453,-0.522793],[166.936135,-0.525195],[166.936529,-0.522442],[166.936798,-0.520199],[166.913422,-0.500177],[166.910312,-0.512107]]]}},{"type":"Feature","properties":{"adm0_a3":"NRU","admin":"Nauru","adm1_code":"NRU-4975","iso_3166_2":"NR-13","geonunit":"Nauru","name":"Uaboe","name_en":"Uaboe","name_local":"","type":"","type_en":"","ne_id":1159316167},"geometry":{"type":"Polygon","coordinates":[[[166.913422,-0.500177],[166.936798,-0.520199],[166.93724,-0.516516],[166.918067,-0.49839],[166.913422,-0.500177]]]}},{"type":"Feature","properties":{"adm0_a3":"NRU","admin":"Nauru","adm1_code":"NRU-4983","iso_3166_2":"NR-14","geonunit":"Nauru","name":"Yaren","name_en":"Yaren","name_local":"","type":"","type_en":"","ne_id":1159316185},"geometry":{"type":"Polygon","coordinates":[[[166.93264,-0.550668],[166.925292,-0.534381],[166.920094,-0.538799],[166.91827,-0.54035],[166.916352,-0.54754],[166.93264,-0.550668]]]}}]}
