{"type":"FeatureCollection","name":"ne_10m_admin_1_smr","adm0A3":"SMR","bbox":[12.385629,43.892056,12.492392,43.982567],"features":[{"type":"Feature","properties":{"adm0_a3":"SMR","admin":"San Marino","adm1_code":"SMR-4885","iso_3166_2":"SM-01","geonunit":"San Marino","name":"Acquaviva","name_en":"Acquaviva","name_local":"","type":"","type_en":"","ne_id":1159315993},"geometry":{"type":"Polygon","coordinates":[[[12.385629,43.924534],[12.398176,43.925812],[12.407616,43.92824],[12.414359,43.931207],[12.418404,43.934983],[12.418134,43.940646],[12.418404,43.947389],[12.418404,43.949817],[12.421641,43.948468],[12.426495,43.951165],[12.425686,43.956829],[12.421371,43.960875],[12.41657,43.963697],[12.411049,43.959661],[12.395654,43.948409],[12.385629,43.924534]]]}},{"type":"Feature","properties":{"adm0_a3":"SMR","admin":"San Marino","adm1_code":"SMR-4891","iso_3166_2":"SM-02","geonunit":"San Marino","name":"Chiesanuova","name_en":"Chiesanuova","name_local":"","type":"","type_en":"","ne_id":1159316007},"geometry":{"type":"Polygon","coordinates":[[[12.441264,43.893276],[12.439172,43.89992],[12.435126,43.903966],[12.426495,43.903966],[12.42218,43.906393],[12.42218,43.90963],[12.421371,43.913136],[12.408964,43.917182],[12.399255,43.918261],[12.389964,43.917912],[12.399581,43.903218],[12.421107,43.895174],[12.42945,43.892056],[12.441264,43.893276]]]}},{"type":"Feature","properties":{"adm0_a3":"SMR","admin":"San Marino","adm1_code":"SMR-4887","iso_3166_2":"SM-03","geonunit":"San Marino","name":"Domagnano","name_en":"Domagnano","name_local":"","type":"","type_en":"","ne_id":1159315997},"geometry":{"type":"Polygon","coordinates":[[[12.490737,43.965044],[12.482325,43.962223],[12.472885,43.959796],[12.464525,43.951974],[12.456703,43.960335],[12.448072,43.954671],[12.446184,43.947119],[12.444836,43.940377],[12.448881,43.936331],[12.457242,43.933364],[12.465873,43.936601],[12.470998,43.941725],[12.478819,43.941995],[12.481786,43.943613],[12.487989,43.94631],[12.491516,43.949102],[12.492392,43.956419],[12.490737,43.965044]]]}},{"type":"Feature","properties":{"adm0_a3":"SMR","admin":"San Marino","adm1_code":"SMR-4888","iso_3166_2":"SM-04","geonunit":"San Marino","name":"Faetano","name_en":"Faetano","name_local":"","type":"","type_en":"","ne_id":1159315999},"geometry":{"type":"Polygon","coordinates":[[[12.491516,43.949102],[12.487989,43.94631],[12.481786,43.943613],[12.478819,43.941995],[12.470998,43.941725],[12.465873,43.936601],[12.457242,43.933364],[12.461288,43.930667],[12.466412,43.930667],[12.466682,43.92797],[12.464525,43.924464],[12.468031,43.922576],[12.471807,43.923655],[12.478026,43.923216],[12.479576,43.9258],[12.48216,43.927919],[12.483091,43.929201],[12.490325,43.939159],[12.491516,43.949102]]]}},{"type":"Feature","properties":{"adm0_a3":"SMR","admin":"San Marino","adm1_code":"SMR-4890","iso_3166_2":"SM-05","geonunit":"San Marino","name":"Fiorentino","name_en":"Fiorentino","name_local":"","type":"","type_en":"","ne_id":1159316005},"geometry":{"type":"Polygon","coordinates":[[[12.464397,43.900073],[12.463176,43.907202],[12.463985,43.913406],[12.465064,43.917182],[12.467491,43.920148],[12.468031,43.922576],[12.464525,43.924464],[12.457512,43.917451],[12.44969,43.914485],[12.44106,43.914485],[12.439442,43.908012],[12.435126,43.903966],[12.439172,43.89992],[12.441264,43.893276],[12.460456,43.895259],[12.464397,43.900073]]]}},{"type":"Feature","properties":{"adm0_a3":"SMR","admin":"San Marino","adm1_code":"SMR-4883","iso_3166_2":"SM-06","geonunit":"San Marino","name":"Borgo Maggiore","name_en":"Borgo Maggiore","name_local":"","type":"","type_en":"","ne_id":1159315591},"geometry":{"type":"Polygon","coordinates":[[[12.41657,43.963697],[12.421371,43.960875],[12.425686,43.956829],[12.426495,43.951165],[12.421641,43.948468],[12.418404,43.949817],[12.418404,43.947389],[12.418134,43.940646],[12.423798,43.936331],[12.43135,43.933364],[12.436744,43.92797],[12.44052,43.920688],[12.44106,43.914485],[12.44969,43.914485],[12.457512,43.917451],[12.464525,43.924464],[12.466682,43.92797],[12.466412,43.930667],[12.461288,43.930667],[12.457242,43.933364],[12.448881,43.936331],[12.444836,43.940377],[12.446184,43.947119],[12.448072,43.954671],[12.444027,43.961414],[12.444296,43.967887],[12.441599,43.968966],[12.434317,43.966808],[12.427247,43.96939],[12.421389,43.967219],[12.41657,43.963697]]]}},{"type":"Feature","properties":{"adm0_a3":"SMR","admin":"San Marino","adm1_code":"SMR-4884","iso_3166_2":"SM-07","geonunit":"San Marino","name":"San Marino","name_en":"San Marino","name_local":"","type":"","type_en":"","ne_id":1159315991},"geometry":{"type":"Polygon","coordinates":[[[12.389964,43.917912],[12.399255,43.918261],[12.408964,43.917182],[12.421371,43.913136],[12.42218,43.90963],[12.42218,43.906393],[12.426495,43.903966],[12.435126,43.903966],[12.439442,43.908012],[12.44106,43.914485],[12.44052,43.920688],[12.436744,43.92797],[12.43135,43.933364],[12.423798,43.936331],[12.418134,43.940646],[12.418404,43.934983],[12.414359,43.931207],[12.407616,43.92824],[12.398176,43.925812],[12.385629,43.924534],[12.389964,43.917912]]]}},{"type":"Feature","properties":{"adm0_a3":"SMR","admin":"San Marino","adm1_code":"SMR-4889","iso_3166_2":"SM-08","geonunit":"San Marino","name":"Montegiardino","name_en":"Montegiardino","name_local":"","type":"","type_en":"","ne_id":1159316003},"geometry":{"type":"Polygon","coordinates":[[[12.478026,43.923216],[12.471807,43.923655],[12.468031,43.922576],[12.467491,43.920148],[12.465064,43.917182],[12.463985,43.913406],[12.463176,43.907202],[12.464397,43.900073],[12.478287,43.917038],[12.477494,43.920051],[12.478026,43.923216]]]}},{"type":"Feature","properties":{"adm0_a3":"SMR","admin":"San Marino","adm1_code":"SMR-4886","iso_3166_2":"SM-09","geonunit":"San Marino","name":"Serravalle","name_en":"Serravalle","name_local":"","type":"","type_en":"","ne_id":1159315995},"geometry":{"type":"Polygon","coordinates":[[[12.490737,43.965044],[12.489188,43.97311],[12.48216,43.982567],[12.453325,43.979053],[12.427247,43.96939],[12.434317,43.966808],[12.441599,43.968966],[12.444296,43.967887],[12.444027,43.961414],[12.448072,43.954671],[12.456703,43.960335],[12.464525,43.951974],[12.472885,43.959796],[12.482325,43.962223],[12.490737,43.965044]]]}}]}
