{"type":"FeatureCollection","name":"ne_10m_admin_1_stp","adm0A3":"STP","bbox":[6.461681,0.024115,7.462738,1.699774],"features":[{"type":"Feature","properties":{"adm0_a3":"STP","admin":"Sao Tome and Principe","adm1_code":"STP-4862","iso_3166_2":"ST-P","geonunit":"Sao Tome and Principe","name":"Príncipe","name_en":"Príncipe","name_local":"","type":"","type_en":"","ne_id":1159315955},"geometry":{"type":"Polygon","coordinates":[[[7.462738,1.674547],[7.459727,1.6883],[7.448741,1.693183],[7.421235,1.695705],[7.403005,1.699774],[7.385265,1.692328],[7.371837,1.677191],[7.366547,1.658108],[7.366466,1.641791],[7.364024,1.629381],[7.355968,1.620022],[7.339366,1.613105],[7.330089,1.614651],[7.329356,1.596259],[7.33253,1.565334],[7.343761,1.559882],[7.358409,1.558905],[7.372244,1.554145],[7.381033,1.537991],[7.38738,1.542467],[7.394054,1.545396],[7.395681,1.542385],[7.398774,1.53498],[7.401378,1.531195],[7.402517,1.54206],[7.40211,1.550727],[7.405772,1.556464],[7.418224,1.558498],[7.425548,1.56273],[7.430512,1.57274],[7.435557,1.592597],[7.434418,1.61522],[7.438243,1.623928],[7.452647,1.627346],[7.461762,1.630805],[7.456716,1.638332],[7.443533,1.645453],[7.428722,1.647854],[7.434825,1.658881],[7.446137,1.665473],[7.457367,1.669989],[7.462738,1.674547]]]}},{"type":"Feature","properties":{"adm0_a3":"STP","admin":"Sao Tome and Principe","adm1_code":"STP-4861","iso_3166_2":"ST-S","geonunit":"Sao Tome and Principe","name":"São Tomé","name_en":"São Tomé","name_local":"","type":"","type_en":"","ne_id":1159315511},"geometry":{"type":"Polygon","coordinates":[[[6.681407,0.407131],[6.641856,0.410793],[6.609548,0.390367],[6.578298,0.364569],[6.540782,0.351874],[6.533051,0.348131],[6.497813,0.31269],[6.495372,0.306383],[6.494314,0.299994],[6.490245,0.290961],[6.470876,0.26789],[6.468516,0.259955],[6.46811,0.239814],[6.466319,0.231024],[6.461681,0.222154],[6.467296,0.21247],[6.502696,0.098578],[6.505707,0.094875],[6.509613,0.092678],[6.513682,0.088284],[6.516938,0.078111],[6.516612,0.069973],[6.511729,0.05272],[6.510102,0.051418],[6.516368,0.033637],[6.526622,0.024115],[6.536957,0.026435],[6.5442,0.043931],[6.557302,0.028266],[6.567719,0.042141],[6.57838,0.078111],[6.582856,0.077338],[6.616222,0.078111],[6.618175,0.081204],[6.633637,0.098578],[6.641449,0.10102],[6.652599,0.103217],[6.660004,0.107327],[6.653331,0.124579],[6.65919,0.128852],[6.668468,0.131008],[6.674571,0.133368],[6.703136,0.180406],[6.715587,0.195461],[6.740082,0.218573],[6.748546,0.230699],[6.756521,0.250067],[6.760509,0.268297],[6.760916,0.284166],[6.756521,0.310858],[6.746104,0.33808],[6.727061,0.366929],[6.703868,0.391832],[6.681407,0.407131]]]}}]}
