{"type":"FeatureCollection","name":"ne_10m_admin_1_sxm","adm0A3":"SXM","bbox":[-63.118886,18.01911,-63.017569,18.06212],"features":[{"type":"Feature","properties":{"adm0_a3":"SXM","admin":"Sint Maarten","adm1_code":"SXM-5146","iso_3166_2":"NL-SX","geonunit":"Sint Maarten","name":"Sint Maarten","name_en":"Sint Maarten","name_local":"","type":"","type_en":"","ne_id":1159315549},"geometry":{"type":"Polygon","coordinates":[[[-63.107004,18.06212],[-63.107004,18.059475],[-63.118886,18.0515],[-63.112172,18.043036],[-63.097646,18.035956],[-63.030629,18.01911],[-63.017569,18.033391],[-63.085886,18.058511],[-63.107004,18.06212]]]}}]}
