{"type":"FeatureCollection","name":"ne_10m_admin_1_vat","adm0A3":"VAT","bbox":[12.452714,41.902752,12.454035,41.903915],"features":[{"type":"Feature","properties":{"adm0_a3":"VAT","admin":"Vatican","adm1_code":"VAT+00?","iso_3166_2":"VA-X01~","geonunit":"Vatican","name":"Vatican","name_en":"Vatican City","name_local":"","type":"","type_en":"","ne_id":1159308479},"geometry":{"type":"Polygon","coordinates":[[[12.453031,41.903915],[12.452767,41.903439],[12.452714,41.903016],[12.453137,41.902752],[12.454035,41.902752],[12.453983,41.903862],[12.453031,41.903915]]]}}]}
