{"type":"FeatureCollection", "features": [
{"type":"Feature","geometry":{"type":"Polygon","coordinates":[[[-103.002,36.5],[-103.042,36.5],[-103.043,35.183],[-103.044,34.079],[-103.065,32.849],[-103.064,32.001],[-104.644,32],[-105.998,32.002],[-106.618,32],[-106.636,31.872],[-106.528,31.783],[-106.418,31.752],[-106.176,31.456],[-105.954,31.365],[-105.773,31.167],[-105.627,31.099],[-105.557,30.99],[-105.315,30.817],[-105.001,30.673],[-104.889,30.535],[-104.86,30.39],[-104.703,30.212],[-104.672,29.911],[-104.54,29.676],[-104.144,29.383],[-103.789,29.258],[-103.281,28.982],[-103.127,28.982],[-103.076,29.086],[-102.871,29.242],[-102.809,29.522],[-102.677,29.738],[-102.393,29.766],[-102.301,29.878],[-102.074,29.787],[-101.966,29.807],[-101.401,29.738],[-101.255,29.52],[-101.06,29.459],[-100.675,29.1],[-100.627,28.904],[-100.5,28.662],[-100.397,28.576],[-100.268,28.25],[-100.075,28.125],[-99.932,27.968],[-99.845,27.779],[-99.705,27.655],[-99.557,27.614],[-99.488,27.412],[-99.53,27.306],[-99.43,27.159],[-99.447,27.026],[-99.269,26.843],[-99.111,26.426],[-98.807,26.369],[-98.654,26.236],[-98.443,26.199],[-98.197,26.056],[-97.795,26.055],[-97.644,26.007],[-97.423,25.84],[-97.338,25.923],[-97.146,25.971],[-97.197,26.306],[-97.323,26.702],[-97.379,27.06],[-97.296,27.427],[-97.141,27.717],[-96.886,28.031],[-96.632,28.223],[-96.443,28.318],[-96.194,28.502],[-95.382,28.866],[-95.026,29.148],[-94.723,29.331],[-94.595,29.468],[-94.057,29.671],[-93.838,29.691],[-93.929,29.803],[-93.704,30.054],[-93.729,30.545],[-93.63,30.68],[-93.531,30.925],[-93.535,31.186],[-93.835,31.586],[-93.803,31.701],[-93.91,31.893],[-94.042,31.992],[-94.043,33.019],[-94.043,33.551],[-94.183,33.592],[-94.354,33.556],[-94.486,33.638],[-94.842,33.739],[-94.982,33.852],[-95.226,33.962],[-95.283,33.878],[-95.557,33.927],[-95.821,33.858],[-96.152,33.832],[-96.363,33.694],[-96.593,33.831],[-96.851,33.847],[-96.952,33.945],[-97.206,33.81],[-97.444,33.824],[-97.672,33.991],[-97.866,33.849],[-97.948,33.991],[-98.099,34.104],[-98.364,34.157],[-98.475,34.064],[-98.577,34.149],[-98.737,34.131],[-98.94,34.204],[-99.19,34.214],[-99.275,34.387],[-99.696,34.381],[-99.929,34.577],[-100,34.561],[-100,35.619],[-100,36.5],[-101.624,36.5],[-103.002,36.5]]]},"properties":{"NAME":"Texas","STUSPS":"TX","GEOID":"48"}},
{"type":"Feature","geometry":{"type":"MultiPolygon","coordinates":[[[[-119.916,34.058],[-119.721,33.96],[-119.392,33.995],[-119.364,34.051],[-119.916,34.058]]],[[[-120.368,34.076],[-120.365,33.992],[-120.122,33.896],[-120.055,34.038],[-120.368,34.076]]],[[[-124.212,41.998],[-124.245,41.792],[-124.154,41.729],[-124.063,41.44],[-124.164,41.139],[-124.118,40.989],[-124.41,40.438],[-124.363,40.261],[-124.087,40.078],[-123.852,39.832],[-123.766,39.553],[-123.825,39.361],[-123.691,39.021],[-123.711,38.913],[-123.442,38.7],[-123.332,38.566],[-123.166,38.475],[-123.004,38.297],[-122.94,38.032],[-122.537,37.83],[-122.394,38.143],[-122.263,38.051],[-122.335,37.909],[-122.313,37.777],[-122.163,37.668],[-122.168,37.504],[-122.36,37.593],[-122.398,37.806],[-122.512,37.771],[-122.517,37.521],[-122.401,37.337],[-122.397,37.187],[-122.106,36.956],[-121.906,36.969],[-121.792,36.815],[-121.861,36.611],[-121.97,36.583],[-121.888,36.303],[-121.68,36.166],[-121.272,35.667],[-121.167,35.635],[-121.003,35.461],[-120.885,35.43],[-120.897,35.248],[-120.636,35.124],[-120.671,34.904],[-120.61,34.858],[-120.646,34.581],[-120.451,34.447],[-120.141,34.473],[-119.874,34.409],[-119.617,34.421],[-119.27,34.253],[-119.11,34.095],[-118.805,34.001],[-118.52,34.028],[-118.413,33.884],[-118.397,33.736],[-118.133,33.753],[-117.646,33.441],[-117.446,33.269],[-117.281,33.012],[-117.282,32.84],[-117.125,32.534],[-115.465,32.667],[-114.72,32.719],[-114.571,32.747],[-114.469,32.845],[-114.511,33.023],[-114.671,33.038],[-114.707,33.377],[-114.525,33.552],[-114.497,33.719],[-114.535,33.928],[-114.428,34.093],[-114.139,34.26],[-114.335,34.45],[-114.465,34.691],[-114.634,34.873],[-114.633,35.002],[-115.648,35.809],[-116.488,36.459],[-117.681,37.353],[-118.95,38.269],[-120.001,39],[-119.998,39.957],[-120,41.184],[-119.999,41.995],[-121.035,41.993],[-122.501,42.008],[-123.657,41.995],[-124.212,41.998]]]]},"properties":{"NAME":"California","STUSPS":"CA","GEOID":"06"}},
{"type":"Feature","geometry":{"type":"Polygon","coordinates":[[[-89.133,36.982],[-89.165,36.662],[-89.325,36.624],[-89.539,36.498],[-88.05,36.5],[-88.071,36.678],[-87.853,36.633],[-86.508,36.652],[-85.874,36.624],[-85.291,36.626],[-84.785,36.603],[-83.691,36.583],[-83.675,36.601],[-83.136,36.743],[-83.076,36.851],[-82.895,36.882],[-82.726,37.112],[-82.355,37.265],[-81.968,37.538],[-82.064,37.545],[-82.296,37.686],[-82.626,38.135],[-82.594,38.422],[-82.851,38.604],[-82.889,38.756],[-83.287,38.599],[-83.533,38.702],[-83.679,38.63],[-83.852,38.751],[-84.213,38.806],[-84.327,39.027],[-84.462,39.122],[-84.608,39.073],[-84.82,39.105],[-84.897,39.052],[-84.786,38.882],[-85.187,38.688],[-85.449,38.713],[-85.416,38.546],[-85.588,38.45],[-85.684,38.295],[-85.816,38.283],[-85.922,38.029],[-86.033,37.97],[-86.206,38.022],[-86.321,38.147],[-86.522,38.038],[-86.509,37.903],[-86.722,37.893],[-86.811,37.997],[-87.18,37.841],[-87.419,37.945],[-87.626,37.852],[-87.873,37.921],[-88.028,37.799],[-88.16,37.654],[-88.062,37.488],[-88.466,37.401],[-88.515,37.291],[-88.425,37.15],[-88.476,37.068],[-88.932,37.228],[-89.168,37.074],[-89.133,36.982]]]},"properties":{"NAME":"Kentucky","STUSPS":"KY","GEOID":"21"}},
{"type":"Feature","geometry":{"type":"Polygon","coordinates":[[[-85.605,34.985],[-85.429,34.125],[-85.184,32.861],[-85.07,32.583],[-84.972,32.443],[-85.008,32.337],[-84.892,32.263],[-85.059,32.136],[-85.068,31.967],[-85.142,31.839],[-85.042,31.545],[-85.108,31.186],[-85.002,31.001],[-84.865,30.712],[-83.131,30.624],[-82.219,30.564],[-82.18,30.369],[-82.041,30.37],[-82.033,30.751],[-81.943,30.827],[-81.732,30.75],[-81.444,30.71],[-81.402,31.125],[-81.305,31.206],[-81.259,31.404],[-81.133,31.623],[-81.131,31.723],[-80.848,31.988],[-80.886,32.035],[-81.113,32.113],[-81.133,32.335],[-81.195,32.465],[-81.397,32.606],[-81.421,32.831],[-81.502,33.015],[-81.755,33.152],[-81.933,33.344],[-81.926,33.463],[-82.162,33.611],[-82.324,33.82],[-82.557,33.945],[-82.715,34.148],[-82.874,34.472],[-83.048,34.493],[-83.339,34.682],[-83.324,34.79],[-83.109,35.001],[-83.62,34.987],[-84.322,34.988],[-85.605,34.985]]]},"properties":{"NAME":"Georgia","STUSPS":"GA","GEOID":"13"}},
{"type":"Feature","geometry":{"type":"Polygon","coordinates":[[[-92.015,46.706],[-92.292,46.663],[-92.294,46.074],[-92.721,45.884],[-92.87,45.715],[-92.647,45.438],[-92.762,45.285],[-92.751,44.942],[-92.805,44.768],[-92.549,44.578],[-92.314,44.538],[-92.232,44.445],[-91.964,44.362],[-91.893,44.231],[-91.573,44.027],[-91.441,44.002],[-91.244,43.773],[-91.218,43.501],[-91.207,43.374],[-91.058,43.254],[-91.175,43.135],[-91.138,42.904],[-90.942,42.684],[-90.701,42.626],[-90.643,42.508],[-88.707,42.494],[-87.8,42.492],[-87.767,42.785],[-87.896,43.016],[-87.889,43.308],[-87.706,43.68],[-87.736,43.874],[-87.655,44.082],[-87.507,44.211],[-87.545,44.321],[-87.447,44.586],[-87.063,45.079],[-87.265,45.081],[-87.446,44.886],[-87.581,44.852],[-87.775,44.639],[-87.983,44.72],[-87.813,44.954],[-87.63,44.977],[-87.59,45.095],[-87.742,45.197],[-87.657,45.369],[-87.863,45.353],[-87.781,45.674],[-87.88,45.755],[-88.135,45.822],[-88.115,45.922],[-88.527,46.021],[-88.812,46.022],[-89.092,46.139],[-90.12,46.337],[-90.215,46.5],[-90.418,46.566],[-90.755,46.646],[-90.881,46.74],[-90.745,46.894],[-90.924,47.002],[-91.168,46.845],[-91.82,46.69],[-92.015,46.706]]]},"properties":{"NAME":"Wisconsin","STUSPS":"WI","GEOID":"55"}},
{"type":"Feature","geometry":{"type":"Polygon","coordinates":[[[-123.548,46.259],[-123.959,46.142],[-123.939,45.709],[-123.977,45.49],[-123.975,45.145],[-124.074,44.798],[-124.065,44.633],[-124.15,43.911],[-124.234,43.557],[-124.382,43.27],[-124.552,42.841],[-124.413,42.658],[-124.411,42.251],[-124.212,41.998],[-123.657,41.995],[-122.501,42.008],[-121.035,41.993],[-119.999,41.995],[-118.776,41.993],[-117.026,42],[-117.027,43.025],[-117.024,43.824],[-116.896,44.154],[-117.243,44.391],[-117.062,44.727],[-116.834,44.929],[-116.675,45.314],[-116.464,45.616],[-116.593,45.779],[-116.788,45.84],[-116.916,45.995],[-118.987,46],[-119.126,45.933],[-119.488,45.906],[-119.966,45.824],[-120.211,45.726],[-120.506,45.7],[-120.591,45.747],[-121.085,45.648],[-121.533,45.727],[-121.811,45.707],[-122.263,45.544],[-122.644,45.61],[-122.775,45.68],[-122.814,45.961],[-122.904,46.084],[-123.116,46.185],[-123.28,46.145],[-123.548,46.259]]]},"properties":{"NAME":"Oregon","STUSPS":"OR","GEOID":"41"}},
{"type":"Feature","geometry":{"type":"Polygon","coordinates":[[[-95.766,40.585],[-95.654,40.323],[-95.473,40.236],[-95.308,40],[-95.082,39.862],[-94.952,39.901],[-94.86,39.75],[-95.114,39.554],[-94.8,39.206],[-94.607,39.113],[-94.613,38.238],[-94.618,36.999],[-94.618,36.499],[-93.959,36.499],[-92.35,36.498],[-91.127,36.498],[-90.154,36.495],[-90.064,36.303],[-90.294,36.113],[-90.369,35.996],[-89.733,36.001],[-89.523,36.345],[-89.539,36.498],[-89.325,36.624],[-89.165,36.662],[-89.133,36.982],[-89.359,37.043],[-89.495,37.325],[-89.426,37.407],[-89.512,37.53],[-89.522,37.696],[-89.851,37.904],[-90.219,38.094],[-90.373,38.323],[-90.185,38.612],[-90.21,38.726],[-90.113,38.849],[-90.468,38.962],[-90.657,38.92],[-90.73,39.256],[-91.038,39.448],[-91.1,39.539],[-91.368,39.729],[-91.436,39.846],[-91.512,40.17],[-91.419,40.378],[-91.729,40.614],[-93.136,40.583],[-94.534,40.571],[-95.766,40.585]]]},"properties":{"NAME":"Missouri","STUSPS":"MO","GEOID":"29"}},
{"type":"Feature","geometry":{"type":"MultiPolygon","coordinates":[[[[-75.67,37.951],[-75.818,37.792],[-75.941,37.564],[-76.023,37.289],[-75.98,37.1],[-75.817,37.193],[-75.658,37.452],[-75.552,37.748],[-75.381,37.852],[-75.242,38.027],[-75.624,37.994],[-75.67,37.951]]],[[[-81.968,37.538],[-82.355,37.265],[-82.726,37.112],[-82.895,36.882],[-83.076,36.851],[-83.136,36.743],[-83.675,36.601],[-82.83,36.594],[-81.678,36.588],[-80.295,36.544],[-79.514,36.541],[-78.51,36.541],[-76.917,36.546],[-75.867,36.551],[-75.996,36.922],[-76.268,36.965],[-76.271,37.085],[-76.394,37.225],[-76.25,37.422],[-76.329,37.671],[-76.237,37.889],[-76.427,37.977],[-76.614,38.149],[-76.962,38.214],[-77.048,38.36],[-77.265,38.333],[-77.323,38.467],[-77.247,38.635],[-77.13,38.635],[-77.039,38.792],[-77.12,38.934],[-77.311,39.052],[-77.463,39.076],[-77.46,39.219],[-77.72,39.321],[-77.828,39.132],[-78.347,39.466],[-78.414,39.158],[-78.562,39.009],[-78.773,38.894],[-78.869,38.763],[-78.999,38.84],[-79.093,38.66],[-79.298,38.416],[-79.477,38.457],[-79.649,38.592],[-79.788,38.273],[-79.916,38.184],[-79.971,38.044],[-80.2,37.828],[-80.292,37.684],[-80.292,37.537],[-80.465,37.426],[-80.545,37.475],[-80.919,37.306],[-81.225,37.235],[-81.362,37.338],[-81.561,37.207],[-81.85,37.285],[-81.985,37.454],[-81.968,37.538]]]]},"properties":{"NAME":"Virginia","STUSPS":"VA","GEOID":"51"}},
{"type":"Feature","geometry":{"type":"Polygon","coordinates":[[[-89.733,36.001],[-89.652,35.921],[-89.723,35.809],[-89.957,35.695],[-89.958,35.542],[-90.122,35.305],[-90.091,35.118],[-90.309,34.996],[-89.435,34.994],[-88.2,34.996],[-86.784,34.992],[-85.605,34.985],[-84.322,34.988],[-84.283,35.227],[-84.098,35.247],[-84.022,35.407],[-83.772,35.562],[-83.498,35.563],[-83.162,35.763],[-82.978,35.783],[-82.779,35.993],[-82.628,36.062],[-82.558,35.954],[-82.409,36.083],[-82.211,36.159],[-82.029,36.124],[-81.908,36.302],[-81.734,36.413],[-81.678,36.588],[-82.83,36.594],[-83.675,36.601],[-83.691,36.583],[-84.785,36.603],[-85.291,36.626],[-85.874,36.624],[-86.508,36.652],[-87.853,36.633],[-88.071,36.678],[-88.05,36.5],[-89.539,36.498],[-89.523,36.345],[-89.733,36.001]]]},"properties":{"NAME":"Tennessee","STUSPS":"TN","GEOID":"47"}},
{"type":"Feature","geometry":{"type":"Polygon","coordinates":[[[-94.043,33.019],[-94.042,31.992],[-93.91,31.893],[-93.803,31.701],[-93.835,31.586],[-93.535,31.186],[-93.531,30.925],[-93.63,30.68],[-93.729,30.545],[-93.704,30.054],[-93.929,29.803],[-93.838,29.691],[-93.538,29.763],[-93.177,29.77],[-92.684,29.605],[-92.323,29.531],[-92.065,29.586],[-91.822,29.474],[-91.711,29.569],[-91.853,29.703],[-91.667,29.746],[-91.531,29.532],[-91.394,29.497],[-91.279,29.248],[-90.942,29.162],[-90.868,29.056],[-90.443,29.056],[-90.224,29.085],[-89.843,29.319],[-89.64,29.291],[-89.483,29.215],[-89.361,29.072],[-89.149,29.03],[-89.014,29.167],[-89.2,29.344],[-89.482,29.406],[-89.602,29.61],[-89.404,29.682],[-89.399,29.771],[-89.236,29.877],[-89.186,30.064],[-89.445,30.061],[-89.702,29.874],[-89.845,30.018],[-89.525,30.181],[-89.608,30.217],[-89.836,30.727],[-89.728,31.002],[-90.759,31],[-91.637,30.999],[-91.56,31.05],[-91.644,31.234],[-91.536,31.338],[-91.36,31.799],[-91.181,31.92],[-91.035,32.101],[-90.921,32.342],[-91.053,32.438],[-91.114,32.74],[-91.072,32.938],[-91.166,33.004],[-92.223,33.009],[-94.043,33.019]]]},"properties":{"NAME":"Louisiana","STUSPS":"LA","GEOID":"22"}},
{"type":"Feature","geometry":{"type":"Polygon","coordinates":[[[-79.762,42.27],[-79.761,41.999],[-77.832,41.999],[-76.462,41.999],[-75.341,41.993],[-75.113,41.841],[-74.982,41.496],[-74.735,41.426],[-74.695,41.357],[-73.894,40.997],[-74.087,40.652],[-74.261,40.502],[-74.057,40.598],[-73.941,40.543],[-73.775,40.591],[-73.507,40.593],[-73.013,40.68],[-71.937,41.006],[-72.283,41.068],[-72.354,41.14],[-72.585,40.998],[-73.11,40.972],[-73.229,40.905],[-73.657,40.985],[-73.728,41.101],[-73.483,41.213],[-73.551,41.295],[-73.487,42.05],[-73.508,42.086],[-73.265,42.746],[-73.279,42.833],[-73.242,43.535],[-73.415,43.658],[-73.351,43.77],[-73.437,44.043],[-73.317,44.258],[-73.294,44.441],[-73.39,44.62],[-73.334,44.802],[-73.343,45.011],[-74.234,44.992],[-74.835,45.015],[-75.256,44.858],[-75.766,44.516],[-75.95,44.349],[-76.287,44.204],[-76.412,43.926],[-76.229,43.804],[-76.236,43.529],[-76.418,43.521],[-76.685,43.353],[-76.952,43.271],[-77.341,43.281],[-77.551,43.236],[-77.76,43.341],[-78.145,43.376],[-78.547,43.37],[-79.07,43.262],[-79.074,43.078],[-78.909,42.933],[-78.851,42.792],[-79.049,42.689],[-79.139,42.564],[-79.762,42.27]]]},"properties":{"NAME":"New York","STUSPS":"NY","GEOID":"36"}},
{"type":"Feature","geometry":{"type":"Polygon","coordinates":[[[-116.916,45.995],[-116.788,45.84],[-116.593,45.779],[-116.464,45.616],[-116.675,45.314],[-116.834,44.929],[-117.062,44.727],[-117.243,44.391],[-116.896,44.154],[-117.024,43.824],[-117.027,43.025],[-117.026,42],[-115.87,41.997],[-114.042,41.994],[-113.818,41.989],[-112.11,41.998],[-111.047,42.002],[-111.045,43.316],[-111.049,44.474],[-111.324,44.724],[-111.439,44.721],[-111.563,44.555],[-111.871,44.564],[-112.125,44.529],[-112.286,44.568],[-112.473,44.48],[-112.708,44.503],[-112.882,44.38],[-113.007,44.472],[-113.131,44.765],[-113.422,44.843],[-113.452,45.059],[-113.575,45.128],[-113.736,45.325],[-113.807,45.602],[-113.972,45.701],[-114.279,45.481],[-114.506,45.559],[-114.505,45.722],[-114.402,45.961],[-114.48,46.03],[-114.422,46.387],[-114.321,46.647],[-114.547,46.644],[-114.943,46.868],[-115.327,47.256],[-115.71,47.418],[-115.724,47.697],[-116.049,48],[-116.049,49.001],[-117.032,48.999],[-117.042,47.735],[-117.036,46.41],[-116.924,46.171],[-116.916,45.995]]]},"properties":{"NAME":"Idaho","STUSPS":"ID","GEOID":"16"}},
{"type":"Feature","geometry":{"type":"MultiPolygon","coordinates":[[[[-81.812,24.569],[-81.685,24.559],[-81.243,24.674],[-81.444,24.813],[-81.751,24.654],[-81.812,24.569]]],[[[-85.002,31.001],[-85.894,30.993],[-87.599,30.997],[-87.635,30.866],[-87.4,30.657],[-87.452,30.344],[-87.518,30.28],[-86.851,30.381],[-86.633,30.396],[-86.223,30.344],[-86,30.271],[-85.385,29.921],[-85.353,29.66],[-85.26,29.681],[-85.045,29.587],[-84.565,29.81],[-84.29,30.057],[-84.063,30.101],[-83.679,29.919],[-83.538,29.723],[-83.415,29.671],[-83.402,29.523],[-83.241,29.433],[-83.17,29.29],[-82.824,29.099],[-82.689,28.906],[-82.73,28.85],[-82.657,28.545],[-82.764,28.244],[-82.86,28.174],[-82.847,27.854],[-82.705,27.625],[-82.692,27.437],[-82.54,27.254],[-82.265,26.757],[-82.181,26.476],[-81.924,26.437],[-81.845,26.328],[-81.727,25.907],[-81.615,25.894],[-81.384,25.777],[-81.29,25.674],[-81.147,25.408],[-81.171,25.246],[-81.08,25.119],[-80.812,25.186],[-80.495,25.2],[-80.517,25.095],[-80.847,24.852],[-80.651,24.866],[-80.358,25.153],[-80.301,25.613],[-80.11,25.818],[-80.11,26.087],[-80.039,26.569],[-80.046,26.859],[-80.384,27.74],[-80.548,28.049],[-80.607,28.336],[-80.525,28.459],[-80.584,28.598],[-80.966,29.148],[-81.257,29.785],[-81.396,30.34],[-81.444,30.71],[-81.732,30.75],[-81.943,30.827],[-82.033,30.751],[-82.041,30.37],[-82.18,30.369],[-82.219,30.564],[-83.131,30.624],[-84.865,30.712],[-85.002,31.001]]]]},"properties":{"NAME":"Florida","STUSPS":"FL","GEOID":"12"}},
{"type":"Feature","geometry":{"type":"Polygon","coordinates":[[[-91.419,40.378],[-91.512,40.17],[-91.436,39.846],[-91.368,39.729],[-91.1,39.539],[-91.038,39.448],[-90.73,39.256],[-90.657,38.92],[-90.468,38.962],[-90.113,38.849],[-90.21,38.726],[-90.185,38.612],[-90.373,38.323],[-90.219,38.094],[-89.851,37.904],[-89.522,37.696],[-89.512,37.53],[-89.426,37.407],[-89.495,37.325],[-89.359,37.043],[-89.133,36.982],[-89.168,37.074],[-88.932,37.228],[-88.476,37.068],[-88.425,37.15],[-88.515,37.291],[-88.466,37.401],[-88.062,37.488],[-88.16,37.654],[-88.028,37.799],[-88.031,38.031],[-87.499,38.758],[-87.529,38.972],[-87.625,39.102],[-87.532,39.348],[-87.526,40.535],[-87.524,41.708],[-87.682,42.076],[-87.835,42.302],[-87.8,42.492],[-88.707,42.494],[-90.643,42.508],[-90.446,42.357],[-90.431,42.278],[-90.161,42.106],[-90.181,41.812],[-90.311,41.742],[-90.34,41.599],[-90.701,41.455],[-91.028,41.424],[-91.114,41.25],[-90.957,41.111],[-90.952,40.954],[-91.093,40.821],[-91.121,40.673],[-91.34,40.613],[-91.419,40.378]]]},"properties":{"NAME":"Illinois","STUSPS":"IL","GEOID":"17"}},
{"type":"Feature","geometry":{"type":"Polygon","coordinates":[[[-116.049,49.001],[-116.049,48],[-115.724,47.697],[-115.71,47.418],[-115.327,47.256],[-114.943,46.868],[-114.547,46.644],[-114.321,46.647],[-114.422,46.387],[-114.48,46.03],[-114.402,45.961],[-114.505,45.722],[-114.506,45.559],[-114.279,45.481],[-113.972,45.701],[-113.807,45.602],[-113.736,45.325],[-113.575,45.128],[-113.452,45.059],[-113.422,44.843],[-113.131,44.765],[-113.007,44.472],[-112.882,44.38],[-112.708,44.503],[-112.473,44.48],[-112.286,44.568],[-112.125,44.529],[-111.871,44.564],[-111.563,44.555],[-111.439,44.721],[-111.324,44.724],[-111.049,44.474],[-111.044,45.001],[-109.995,45.003],[-108.621,45],[-106.889,44.996],[-106.264,44.994],[-104.058,44.997],[-104.045,45.945],[-104.045,46.51],[-104.042,47.803],[-104.049,49],[-106.051,48.999],[-107.441,48.999],[-109.001,48.999],[-110.172,48.999],[-111.501,48.997],[-113.693,48.998],[-115.208,48.999],[-116.049,49.001]]]},"properties":{"NAME":"Montana","STUSPS":"MT","GEOID":"30"}},
{"type":"Feature","geometry":{"type":"Polygon","coordinates":[[[-97.229,49.001],[-97.1,48.668],[-97.149,48.532],[-97.147,48.169],[-96.854,47.572],[-96.819,47.081],[-96.764,46.913],[-96.791,46.637],[-96.601,46.32],[-96.564,45.935],[-96.587,45.816],[-96.826,45.654],[-96.711,45.437],[-96.458,45.308],[-96.453,44.544],[-96.453,43.5],[-94.855,43.501],[-93.971,43.5],[-92.449,43.5],[-91.218,43.501],[-91.244,43.773],[-91.441,44.002],[-91.573,44.027],[-91.893,44.231],[-91.964,44.362],[-92.232,44.445],[-92.314,44.538],[-92.549,44.578],[-92.805,44.768],[-92.751,44.942],[-92.762,45.285],[-92.647,45.438],[-92.87,45.715],[-92.721,45.884],[-92.294,46.074],[-92.292,46.663],[-92.015,46.706],[-92.062,46.804],[-91.457,47.139],[-90.868,47.557],[-90.537,47.703],[-89.974,47.831],[-89.868,47.99],[-90.136,48.112],[-90.704,48.096],[-90.844,48.244],[-91.25,48.084],[-91.543,48.053],[-91.715,48.199],[-91.981,48.248],[-92.055,48.359],[-92.262,48.355],[-92.369,48.22],[-92.515,48.448],[-92.955,48.631],[-93.207,48.642],[-93.468,48.546],[-93.815,48.527],[-93.844,48.629],[-94.447,48.693],[-94.694,48.789],[-94.683,48.884],[-94.816,49.321],[-95.153,49.384],[-95.154,48.999],[-97.229,49.001]]]},"properties":{"NAME":"Minnesota","STUSPS":"MN","GEOID":"27"}},
{"type":"Feature","geometry":{"type":"Polygon","coordinates":[[[-79.477,39.721],[-79.487,39.206],[-79.284,39.31],[-79.091,39.472],[-78.707,39.556],[-78.461,39.526],[-78.383,39.622],[-78.082,39.671],[-77.83,39.587],[-77.72,39.321],[-77.46,39.219],[-77.463,39.076],[-77.311,39.052],[-77.12,38.934],[-76.909,38.893],[-77.039,38.792],[-77.13,38.635],[-77.247,38.538],[-77.211,38.381],[-77.016,38.446],[-76.864,38.269],[-76.591,38.214],[-76.393,38.24],[-76.393,38.389],[-76.518,38.539],[-76.559,38.756],[-76.45,38.941],[-76.425,39.206],[-76.233,39.091],[-76.362,38.939],[-76.336,38.492],[-76.218,38.306],[-75.889,38.241],[-75.899,37.975],[-75.67,37.951],[-75.624,37.994],[-75.242,38.027],[-75.049,38.451],[-75.694,38.46],[-75.789,39.722],[-77.469,39.72],[-79.477,39.721]]]},"properties":{"NAME":"Maryland","STUSPS":"MD","GEOID":"24"}},
{"type":"Feature","geometry":{"type":"Polygon","coordinates":[[[-96.453,43.5],[-96.522,43.221],[-96.439,43.114],[-96.622,42.779],[-96.446,42.491],[-96.348,42.167],[-96.065,41.793],[-96.118,41.613],[-95.923,41.456],[-95.811,40.887],[-95.889,40.736],[-95.766,40.585],[-94.534,40.571],[-93.136,40.583],[-91.729,40.614],[-91.419,40.378],[-91.34,40.613],[-91.121,40.673],[-91.093,40.821],[-90.952,40.954],[-90.957,41.111],[-91.114,41.25],[-91.028,41.424],[-90.701,41.455],[-90.34,41.599],[-90.311,41.742],[-90.181,41.812],[-90.161,42.106],[-90.431,42.278],[-90.446,42.357],[-90.643,42.508],[-90.701,42.626],[-90.942,42.684],[-91.138,42.904],[-91.175,43.135],[-91.058,43.254],[-91.207,43.374],[-91.218,43.501],[-92.449,43.5],[-93.971,43.5],[-94.855,43.501],[-96.453,43.5]]]},"properties":{"NAME":"Iowa","STUSPS":"IA","GEOID":"19"}},
{"type":"Feature","geometry":{"type":"Polygon","coordinates":[[[-77.12,38.934],[-77.039,38.792],[-76.909,38.893],[-77.12,38.934]]]},"properties":{"NAME":"District of Columbia","STUSPS":"DC","GEOID":"11"}},
{"type":"Feature","geometry":{"type":"Polygon","coordinates":[[[-84.806,41.696],[-84.804,40.353],[-84.82,39.105],[-84.608,39.073],[-84.462,39.122],[-84.327,39.027],[-84.213,38.806],[-83.852,38.751],[-83.679,38.63],[-83.533,38.702],[-83.287,38.599],[-82.889,38.756],[-82.851,38.604],[-82.594,38.422],[-82.324,38.449],[-82.175,38.608],[-82.209,38.803],[-82.007,39.03],[-81.898,38.93],[-81.678,39.274],[-81.456,39.409],[-81.348,39.346],[-81.129,39.449],[-80.83,39.712],[-80.803,39.919],[-80.607,40.304],[-80.668,40.582],[-80.519,40.639],[-80.519,41.978],[-81.287,41.76],[-81.739,41.489],[-81.995,41.514],[-82.461,41.386],[-82.617,41.428],[-82.834,41.588],[-83.067,41.595],[-83.454,41.733],[-84.806,41.696]]]},"properties":{"NAME":"Ohio","STUSPS":"OH","GEOID":"39"}},
{"type":"Feature","geometry":{"type":"Polygon","coordinates":[[[-104.053,43.001],[-104.053,42.25],[-104.053,41.001],[-102.052,41.002],[-102.052,40.003],[-101.06,40.002],[-99.813,40.001],[-98.076,40.002],[-96.47,40.001],[-95.308,40],[-95.473,40.236],[-95.654,40.323],[-95.766,40.585],[-95.889,40.736],[-95.811,40.887],[-95.923,41.456],[-96.118,41.613],[-96.065,41.793],[-96.348,42.167],[-96.446,42.491],[-96.611,42.506],[-96.698,42.659],[-97.131,42.772],[-97.238,42.853],[-97.858,42.865],[-97.95,42.77],[-98.435,42.929],[-98.499,42.999],[-100.198,42.998],[-102.082,42.999],[-104.053,43.001]]]},"properties":{"NAME":"Nebraska","STUSPS":"NE","GEOID":"31"}},
{"type":"Feature","geometry":{"type":"MultiPolygon","coordinates":[[[[-123.237,48.683],[-123.141,48.505],[-122.874,48.418],[-122.743,48.662],[-122.938,48.79],[-123.237,48.683]]],[[[-117.032,48.999],[-118.837,49],[-120.001,48.999],[-121.751,48.997],[-122.758,49.002],[-122.643,48.588],[-122.76,48.143],[-123.004,48.091],[-124.051,48.178],[-124.653,48.391],[-124.722,48.153],[-124.672,47.964],[-124.412,47.691],[-124.319,47.356],[-124.236,47.287],[-124.081,46.735],[-124.081,46.267],[-123.876,46.24],[-123.701,46.305],[-123.548,46.259],[-123.28,46.145],[-123.116,46.185],[-122.904,46.084],[-122.814,45.961],[-122.775,45.68],[-122.644,45.61],[-122.263,45.544],[-121.811,45.707],[-121.533,45.727],[-121.085,45.648],[-120.591,45.747],[-120.506,45.7],[-120.211,45.726],[-119.966,45.824],[-119.488,45.906],[-119.126,45.933],[-118.987,46],[-116.916,45.995],[-116.924,46.171],[-117.036,46.41],[-117.042,47.735],[-117.032,48.999]]]]},"properties":{"NAME":"Washington","STUSPS":"WA","GEOID":"53"}},
{"type":"Feature","geometry":{"type":"Polygon","coordinates":[[[-104.058,44.997],[-104.055,44.25],[-104.053,43.001],[-102.082,42.999],[-100.198,42.998],[-98.499,42.999],[-98.435,42.929],[-97.95,42.77],[-97.858,42.865],[-97.238,42.853],[-97.131,42.772],[-96.698,42.659],[-96.611,42.506],[-96.446,42.491],[-96.622,42.779],[-96.439,43.114],[-96.522,43.221],[-96.453,43.5],[-96.453,44.544],[-96.458,45.308],[-96.711,45.437],[-96.826,45.654],[-96.587,45.816],[-96.564,45.935],[-97.777,45.935],[-99.49,45.94],[-100.762,45.944],[-102.088,45.945],[-104.045,45.945],[-104.058,44.997]]]},"properties":{"NAME":"South Dakota","STUSPS":"SD","GEOID":"46"}},
{"type":"Feature","geometry":{"type":"Polygon","coordinates":[[[-94.618,36.499],[-94.432,35.37],[-94.457,34.635],[-94.486,33.638],[-94.354,33.556],[-94.183,33.592],[-94.043,33.551],[-94.043,33.019],[-92.223,33.009],[-91.166,33.004],[-91.069,33.233],[-91.216,33.529],[-91.027,33.764],[-91.061,33.878],[-90.895,34.224],[-90.729,34.364],[-90.575,34.415],[-90.587,34.616],[-90.474,34.789],[-90.25,34.907],[-90.309,34.996],[-90.091,35.118],[-90.122,35.305],[-89.958,35.542],[-89.957,35.695],[-89.723,35.809],[-89.652,35.921],[-89.733,36.001],[-90.369,35.996],[-90.294,36.113],[-90.064,36.303],[-90.154,36.495],[-91.127,36.498],[-92.35,36.498],[-93.959,36.499],[-94.618,36.499]]]},"properties":{"NAME":"Arkansas","STUSPS":"AR","GEOID":"05"}},
{"type":"Feature","geometry":{"type":"Polygon","coordinates":[[[-91.166,33.004],[-91.072,32.938],[-91.114,32.74],[-91.053,32.438],[-90.921,32.342],[-91.035,32.101],[-91.181,31.92],[-91.36,31.799],[-91.536,31.338],[-91.644,31.234],[-91.56,31.05],[-91.637,30.999],[-90.759,31],[-89.728,31.002],[-89.836,30.727],[-89.608,30.217],[-89.525,30.181],[-89.345,30.293],[-88.894,30.393],[-88.472,30.32],[-88.395,30.369],[-88.432,31.114],[-88.469,31.933],[-88.317,33.184],[-88.207,34.058],[-88.098,34.892],[-88.2,34.996],[-89.435,34.994],[-90.309,34.996],[-90.25,34.907],[-90.474,34.789],[-90.587,34.616],[-90.575,34.415],[-90.729,34.364],[-90.895,34.224],[-91.061,33.878],[-91.027,33.764],[-91.216,33.529],[-91.069,33.233],[-91.166,33.004]]]},"properties":{"NAME":"Mississippi","STUSPS":"MS","GEOID":"28"}},
{"type":"Feature","geometry":{"type":"Polygon","coordinates":[[[-109.05,41.001],[-109.051,39.875],[-109.052,39.126],[-109.06,38.275],[-109.042,38.165],[-109.045,36.999],[-108.001,37],[-106.877,37],[-106.006,36.995],[-104.732,36.993],[-103.002,37],[-102.042,36.993],[-102.042,37.739],[-102.046,38.698],[-102.052,40.003],[-102.052,41.002],[-104.053,41.001],[-104.855,40.998],[-106.191,40.998],[-107.367,41.003],[-109.05,41.001]]]},"properties":{"NAME":"Colorado","STUSPS":"CO","GEOID":"08"}},
{"type":"Feature","geometry":{"type":"Polygon","coordinates":[[[-81.678,36.588],[-81.734,36.413],[-81.908,36.302],[-82.029,36.124],[-82.211,36.159],[-82.409,36.083],[-82.558,35.954],[-82.628,36.062],[-82.779,35.993],[-82.978,35.783],[-83.162,35.763],[-83.498,35.563],[-83.772,35.562],[-84.022,35.407],[-84.098,35.247],[-84.283,35.227],[-84.322,34.988],[-83.62,34.987],[-83.109,35.001],[-82.411,35.202],[-81.043,35.149],[-80.935,35.107],[-80.782,34.936],[-80.797,34.824],[-79.675,34.805],[-78.541,33.851],[-78.384,33.902],[-78.137,33.912],[-77.96,33.853],[-77.829,34.163],[-77.635,34.36],[-77.137,34.633],[-76.727,34.697],[-76.536,34.589],[-76.45,34.714],[-76.137,34.988],[-75.913,35.12],[-75.534,35.226],[-75.459,35.597],[-75.496,35.729],[-75.718,36.114],[-75.867,36.551],[-76.917,36.546],[-78.51,36.541],[-79.514,36.541],[-80.295,36.544],[-81.678,36.588]]]},"properties":{"NAME":"North Carolina","STUSPS":"NC","GEOID":"37"}},
{"type":"Feature","geometry":{"type":"Polygon","coordinates":[[[-114.042,41.994],[-114.041,41.208],[-114.046,40.398],[-114.049,39.006],[-114.05,37.881],[-114.051,37],[-112.966,37],[-111.278,37],[-110.001,36.998],[-109.045,36.999],[-109.042,38.165],[-109.06,38.275],[-109.052,39.126],[-109.051,39.875],[-109.05,41.001],[-109.715,40.998],[-111.047,40.998],[-111.047,42.002],[-112.11,41.998],[-113.818,41.989],[-114.042,41.994]]]},"properties":{"NAME":"Utah","STUSPS":"UT","GEOID":"49"}},
{"type":"Feature","geometry":{"type":"Polygon","coordinates":[[[-103.002,37],[-103.002,36.5],[-101.624,36.5],[-100,36.5],[-100,35.619],[-100,34.561],[-99.929,34.577],[-99.696,34.381],[-99.275,34.387],[-99.19,34.214],[-98.94,34.204],[-98.737,34.131],[-98.577,34.149],[-98.475,34.064],[-98.364,34.157],[-98.099,34.104],[-97.948,33.991],[-97.866,33.849],[-97.672,33.991],[-97.444,33.824],[-97.206,33.81],[-96.952,33.945],[-96.851,33.847],[-96.593,33.831],[-96.363,33.694],[-96.152,33.832],[-95.821,33.858],[-95.557,33.927],[-95.283,33.878],[-95.226,33.962],[-94.982,33.852],[-94.842,33.739],[-94.486,33.638],[-94.457,34.635],[-94.432,35.37],[-94.618,36.499],[-94.618,36.999],[-95.787,36.999],[-97.462,36.999],[-99.129,36.999],[-100.856,36.999],[-102.042,36.993],[-103.002,37]]]},"properties":{"NAME":"Oklahoma","STUSPS":"OK","GEOID":"40"}},
{"type":"Feature","geometry":{"type":"Polygon","coordinates":[[[-104.058,44.997],[-106.264,44.994],[-106.889,44.996],[-108.621,45],[-109.995,45.003],[-111.044,45.001],[-111.049,44.474],[-111.045,43.316],[-111.047,42.002],[-111.047,40.998],[-109.715,40.998],[-109.05,41.001],[-107.367,41.003],[-106.191,40.998],[-104.855,40.998],[-104.053,41.001],[-104.053,42.25],[-104.053,43.001],[-104.055,44.25],[-104.058,44.997]]]},"properties":{"NAME":"Wyoming","STUSPS":"WY","GEOID":"56"}},
{"type":"Feature","geometry":{"type":"Polygon","coordinates":[[[-82.594,38.422],[-82.626,38.135],[-82.296,37.686],[-82.064,37.545],[-81.968,37.538],[-81.985,37.454],[-81.85,37.285],[-81.561,37.207],[-81.362,37.338],[-81.225,37.235],[-80.919,37.306],[-80.545,37.475],[-80.465,37.426],[-80.292,37.537],[-80.292,37.684],[-80.2,37.828],[-79.971,38.044],[-79.916,38.184],[-79.788,38.273],[-79.649,38.592],[-79.477,38.457],[-79.298,38.416],[-79.093,38.66],[-78.999,38.84],[-78.869,38.763],[-78.773,38.894],[-78.562,39.009],[-78.414,39.158],[-78.347,39.466],[-77.828,39.132],[-77.72,39.321],[-77.83,39.587],[-78.082,39.671],[-78.383,39.622],[-78.461,39.526],[-78.707,39.556],[-79.091,39.472],[-79.284,39.31],[-79.487,39.206],[-79.477,39.721],[-80.519,39.721],[-80.519,40.639],[-80.668,40.582],[-80.607,40.304],[-80.803,39.919],[-80.83,39.712],[-81.129,39.449],[-81.348,39.346],[-81.456,39.409],[-81.678,39.274],[-81.898,38.93],[-82.007,39.03],[-82.209,38.803],[-82.175,38.608],[-82.324,38.449],[-82.594,38.422]]]},"properties":{"NAME":"West Virginia","STUSPS":"WV","GEOID":"54"}},
{"type":"Feature","geometry":{"type":"Polygon","coordinates":[[[-87.524,41.708],[-87.526,40.535],[-87.532,39.348],[-87.625,39.102],[-87.529,38.972],[-87.499,38.758],[-88.031,38.031],[-88.028,37.799],[-87.873,37.921],[-87.626,37.852],[-87.419,37.945],[-87.18,37.841],[-86.811,37.997],[-86.722,37.893],[-86.509,37.903],[-86.522,38.038],[-86.321,38.147],[-86.206,38.022],[-86.033,37.97],[-85.922,38.029],[-85.816,38.283],[-85.684,38.295],[-85.588,38.45],[-85.416,38.546],[-85.449,38.713],[-85.187,38.688],[-84.786,38.882],[-84.897,39.052],[-84.82,39.105],[-84.804,40.353],[-84.806,41.696],[-84.806,41.76],[-85.791,41.759],[-86.825,41.76],[-87.262,41.62],[-87.524,41.708]]]},"properties":{"NAME":"Indiana","STUSPS":"IN","GEOID":"18"}},
{"type":"Feature","geometry":{"type":"MultiPolygon","coordinates":[[[[-70.834,41.353],[-70.448,41.354],[-70.604,41.482],[-70.834,41.353]]],[[[-73.265,42.746],[-73.508,42.086],[-73.487,42.05],[-71.799,42.008],[-71.381,42.019],[-71.329,41.783],[-71.133,41.66],[-71.121,41.497],[-70.91,41.577],[-70.734,41.486],[-70.322,41.631],[-70.007,41.672],[-69.936,41.809],[-70.272,41.721],[-70.541,41.816],[-70.662,41.961],[-70.638,42.082],[-70.731,42.211],[-70.975,42.356],[-70.655,42.582],[-70.817,42.872],[-71.15,42.815],[-71.294,42.697],[-72.459,42.727],[-73.265,42.746]]]]},"properties":{"NAME":"Massachusetts","STUSPS":"MA","GEOID":"25"}},
{"type":"Feature","geometry":{"type":"Polygon","coordinates":[[[-119.999,41.995],[-120,41.184],[-119.998,39.957],[-120.001,39],[-118.95,38.269],[-117.681,37.353],[-116.488,36.459],[-115.648,35.809],[-114.633,35.002],[-114.573,35.139],[-114.664,35.449],[-114.736,36.104],[-114.372,36.143],[-114.152,36.025],[-114.047,36.194],[-114.051,37],[-114.05,37.881],[-114.049,39.006],[-114.046,40.398],[-114.041,41.208],[-114.042,41.994],[-115.87,41.997],[-117.026,42],[-118.776,41.993],[-119.999,41.995]]]},"properties":{"NAME":"Nevada","STUSPS":"NV","GEOID":"32"}},
{"type":"Feature","geometry":{"type":"Polygon","coordinates":[[[-104.049,49],[-104.042,47.803],[-104.045,46.51],[-104.045,45.945],[-102.088,45.945],[-100.762,45.944],[-99.49,45.94],[-97.777,45.935],[-96.564,45.935],[-96.601,46.32],[-96.791,46.637],[-96.764,46.913],[-96.819,47.081],[-96.854,47.572],[-97.147,48.169],[-97.149,48.532],[-97.1,48.668],[-97.229,49.001],[-98.869,49],[-99.914,48.999],[-101.125,48.999],[-102.217,48.999],[-104.049,49]]]},"properties":{"NAME":"North Dakota","STUSPS":"ND","GEOID":"38"}},
{"type":"Feature","geometry":{"type":"Polygon","coordinates":[[[-80.519,41.978],[-80.519,40.639],[-80.519,39.721],[-79.477,39.721],[-77.469,39.72],[-75.789,39.722],[-75.57,39.839],[-75.415,39.802],[-74.722,40.154],[-75.056,40.416],[-75.187,40.569],[-75.177,40.764],[-75.065,40.886],[-75.133,40.98],[-74.695,41.357],[-74.735,41.426],[-74.982,41.496],[-75.113,41.841],[-75.341,41.993],[-76.462,41.999],[-77.832,41.999],[-79.761,41.999],[-79.762,42.27],[-80.519,41.978]]]},"properties":{"NAME":"Pennsylvania","STUSPS":"PA","GEOID":"42"}},
{"type":"Feature","geometry":{"type":"Polygon","coordinates":[[[-83.109,35.001],[-83.324,34.79],[-83.339,34.682],[-83.048,34.493],[-82.874,34.472],[-82.715,34.148],[-82.557,33.945],[-82.324,33.82],[-82.162,33.611],[-81.926,33.463],[-81.933,33.344],[-81.755,33.152],[-81.502,33.015],[-81.421,32.831],[-81.397,32.606],[-81.195,32.465],[-81.133,32.335],[-81.113,32.113],[-80.886,32.035],[-80.596,32.274],[-80.455,32.326],[-80.485,32.461],[-80.338,32.479],[-80.001,32.606],[-79.868,32.735],[-79.57,32.927],[-79.36,33.007],[-79.215,33.156],[-79.135,33.404],[-78.938,33.64],[-78.773,33.769],[-78.541,33.851],[-79.675,34.805],[-80.797,34.824],[-80.782,34.936],[-80.935,35.107],[-81.043,35.149],[-82.411,35.202],[-83.109,35.001]]]},"properties":{"NAME":"South Carolina","STUSPS":"SC","GEOID":"45"}},
{"type":"Feature","geometry":{"type":"Polygon","coordinates":[[[-71.084,45.305],[-71.037,44.736],[-70.973,43.57],[-70.984,43.376],[-70.704,43.06],[-70.596,43.163],[-70.554,43.322],[-70.416,43.361],[-70.168,43.675],[-69.916,43.775],[-69.321,43.857],[-69.077,43.974],[-68.439,44.116],[-68.126,44.387],[-67.855,44.419],[-67.449,44.6],[-67.293,44.599],[-66.95,44.817],[-67.112,45.112],[-67.48,45.268],[-67.417,45.502],[-67.535,45.595],[-67.803,45.678],[-67.78,45.938],[-67.79,47.066],[-68.204,47.34],[-68.362,47.356],[-68.605,47.249],[-68.901,47.179],[-69.04,47.245],[-69.039,47.422],[-69.22,47.457],[-69.997,46.695],[-70.054,46.429],[-70.207,46.331],[-70.291,46.186],[-70.313,45.962],[-70.259,45.891],[-70.553,45.668],[-70.781,45.431],[-71.084,45.305]]]},"properties":{"NAME":"Maine","STUSPS":"ME","GEOID":"23"}},
{"type":"Feature","geometry":{"type":"MultiPolygon","coordinates":[[[[-156.05,19.78],[-155.889,19.348],[-155.914,19.099],[-155.726,18.969],[-155.614,18.97],[-155.505,19.138],[-155.265,19.274],[-155.16,19.268],[-154.877,19.433],[-154.814,19.53],[-154.974,19.633],[-155.086,19.855],[-155.27,20.015],[-155.598,20.125],[-155.737,20.223],[-155.891,20.255],[-155.825,20.026],[-156.05,19.78]]],[[[-156.7,20.921],[-156.632,20.821],[-156.474,20.791],[-156.432,20.598],[-156.13,20.628],[-156.002,20.698],[-156.06,20.811],[-156.243,20.938],[-156.481,20.898],[-156.62,21.028],[-156.7,20.921]]],[[[-157.059,20.913],[-156.968,20.735],[-156.808,20.82],[-156.938,20.925],[-157.059,20.913]]],[[[-158.232,21.584],[-158.233,21.488],[-158.103,21.298],[-157.89,21.307],[-157.7,21.264],[-157.723,21.459],[-157.837,21.53],[-157.969,21.713],[-158.126,21.587],[-158.232,21.584]]],[[[-159.784,22.065],[-159.755,21.978],[-159.603,21.892],[-159.445,21.869],[-159.338,21.951],[-159.293,22.123],[-159.402,22.233],[-159.581,22.223],[-159.784,22.065]]]]},"properties":{"NAME":"Hawaii","STUSPS":"HI","GEOID":"15"}},
{"type":"Feature","geometry":{"type":"Polygon","coordinates":[[[-71.861,41.32],[-71.483,41.372],[-71.429,41.454],[-71.121,41.497],[-71.133,41.66],[-71.329,41.783],[-71.381,42.019],[-71.799,42.008],[-71.798,41.417],[-71.861,41.32]]]},"properties":{"NAME":"Rhode Island","STUSPS":"RI","GEOID":"44"}},
{"type":"Feature","geometry":{"type":"Polygon","coordinates":[[[-73.487,42.05],[-73.551,41.295],[-73.483,41.213],[-73.728,41.101],[-73.657,40.985],[-73.422,41.048],[-72.936,41.258],[-72.547,41.25],[-71.861,41.32],[-71.798,41.417],[-71.799,42.008],[-73.487,42.05]]]},"properties":{"NAME":"Connecticut","STUSPS":"CT","GEOID":"09"}},
{"type":"Feature","geometry":{"type":"MultiPolygon","coordinates":[[[[-85.702,45.736],[-85.509,45.596],[-85.361,45.818],[-85.524,45.83],[-85.702,45.736]]],[[[-86.825,41.76],[-85.791,41.759],[-84.806,41.76],[-84.806,41.696],[-83.454,41.733],[-83.442,41.809],[-83.134,42.088],[-83.097,42.29],[-82.924,42.352],[-82.859,42.542],[-82.679,42.522],[-82.51,42.637],[-82.416,43.006],[-82.523,43.225],[-82.634,43.831],[-82.793,44.023],[-82.929,44.069],[-83.407,43.92],[-83.512,43.734],[-83.683,43.591],[-83.948,43.735],[-83.869,43.961],[-83.584,44.057],[-83.525,44.262],[-83.337,44.333],[-83.277,44.689],[-83.321,44.881],[-83.266,45.027],[-83.385,45.274],[-83.909,45.486],[-84.096,45.497],[-84.196,45.621],[-84.462,45.652],[-84.719,45.778],[-84.867,45.752],[-85.12,45.569],[-85.041,45.437],[-85.372,45.271],[-85.381,45.046],[-85.52,44.974],[-85.633,45.171],[-85.78,44.978],[-86.059,44.911],[-86.089,44.741],[-86.248,44.699],[-86.269,44.345],[-86.515,44.058],[-86.431,43.841],[-86.541,43.645],[-86.408,43.338],[-86.255,43.083],[-86.208,42.763],[-86.241,42.54],[-86.356,42.254],[-86.598,41.918],[-86.825,41.76]]],[[[-89.221,47.908],[-89.158,47.824],[-88.853,47.965],[-88.579,48.041],[-88.632,48.148],[-89.221,47.908]]],[[[-90.418,46.566],[-90.215,46.5],[-90.12,46.337],[-89.092,46.139],[-88.812,46.022],[-88.527,46.021],[-88.115,45.922],[-88.135,45.822],[-87.88,45.755],[-87.781,45.674],[-87.863,45.353],[-87.657,45.369],[-87.742,45.197],[-87.59,45.095],[-87.172,45.662],[-86.964,45.673],[-86.773,45.811],[-86.541,45.708],[-86.278,45.942],[-85.914,45.919],[-85.697,45.96],[-85.541,46.08],[-85.152,46.051],[-84.793,45.859],[-84.633,45.951],[-84.376,45.932],[-84.08,45.971],[-83.526,45.919],[-83.599,46.09],[-83.882,46.042],[-84.115,46.174],[-84.118,46.518],[-84.969,46.476],[-85.028,46.675],[-85.257,46.753],[-85.482,46.68],[-86.138,46.673],[-86.558,46.487],[-86.696,46.555],[-86.811,46.45],[-86.977,46.527],[-87.367,46.507],[-87.595,46.783],[-87.9,46.91],[-88.144,46.967],[-88.373,46.872],[-88.455,46.923],[-88.194,47.209],[-87.943,47.336],[-87.929,47.479],[-88.218,47.449],[-88.889,47.101],[-89.415,46.844],[-89.832,46.804],[-90.045,46.668],[-90.418,46.566]]]]},"properties":{"NAME":"Michigan","STUSPS":"MI","GEOID":"26"}},
{"type":"Feature","geometry":{"type":"MultiPolygon","coordinates":[[[[178.6,51.655],[178.869,51.557],[179.253,51.337],[179.296,51.419],[178.925,51.624],[178.6,51.655]]],[[[173.439,52.471],[173.651,52.356],[173.773,52.51],[173.439,52.471]]],[[[172.459,52.955],[172.754,52.877],[172.904,52.762],[173.425,52.868],[173.122,52.99],[172.643,53.005],[172.459,52.955]]],[[[-133.935,55.921],[-133.7,55.837],[-133.643,55.729],[-133.789,55.458],[-133.587,55.309],[-133.232,55.199],[-133.165,54.977],[-132.866,54.7],[-132.404,54.785],[-132.03,54.701],[-131.958,54.791],[-131.977,55.181],[-132.258,55.416],[-132.471,55.782],[-132.838,56.024],[-132.888,56.173],[-133.197,56.333],[-133.656,56.327],[-133.659,56.084],[-133.935,55.921]]],[[[-134.393,56.864],[-134.32,56.554],[-134.198,56.531],[-134.295,56.336],[-134.202,56.035],[-133.961,56.091],[-133.822,56.392],[-133.655,56.442],[-133.183,56.454],[-133.042,56.518],[-132.671,56.543],[-132.619,56.661],[-132.903,56.804],[-133.105,57.006],[-133.334,57.002],[-133.888,57.098],[-134.393,56.864]]],[[[-134.961,58.404],[-134.784,58.082],[-134.695,57.685],[-134.556,57.407],[-134.635,57.11],[-134.498,57.031],[-133.984,57.303],[-133.808,57.61],[-133.905,57.807],[-134.184,58.077],[-134.609,58.172],[-134.961,58.404]]],[[[-136.563,58.035],[-136.573,57.927],[-136.372,57.833],[-136.238,57.626],[-135.892,57.408],[-135.871,57.222],[-135.353,57.021],[-135.551,56.841],[-135.123,56.603],[-134.81,56.245],[-134.635,56.266],[-134.63,56.71],[-134.855,57.265],[-134.825,57.5],[-135.005,57.884],[-134.951,58.037],[-135.276,58.097],[-135.712,58.232],[-136.034,58.277],[-136.387,58.252],[-136.366,58.149],[-136.563,58.035]]],[[[-154.78,57.366],[-154.595,57.257],[-154.529,57.002],[-154.017,56.689],[-153.84,56.822],[-153.541,56.888],[-152.901,57.132],[-152.943,57.257],[-152.696,57.281],[-152.571,57.449],[-152.324,57.468],[-152.16,57.594],[-152.44,57.727],[-152.423,57.949],[-152.805,57.899],[-152.767,58.03],[-152.529,58.094],[-151.862,58.168],[-151.817,58.263],[-152.129,58.396],[-152.387,58.359],[-152.512,58.427],[-152.355,58.638],[-152.616,58.602],[-152.64,58.47],[-152.883,58.4],[-153.42,58.06],[-153.386,57.937],[-153.935,57.813],[-153.995,57.657],[-154.197,57.665],[-154.522,57.578],[-154.78,57.366]]],[[[-154.84,56.42],[-154.53,56.503],[-154.021,56.482],[-154.096,56.618],[-154.514,56.604],[-154.84,56.42]]],[[[-160.253,54.913],[-160.027,55.021],[-159.753,55.066],[-159.504,55.027],[-159.489,55.189],[-159.816,55.178],[-159.871,55.285],[-160.137,55.172],[-160.253,54.913]]],[[[-160.857,55.318],[-160.821,55.118],[-160.528,55.256],[-160.154,55.378],[-160.261,55.464],[-160.857,55.318]]],[[[-162.844,54.51],[-162.76,54.372],[-162.467,54.343],[-162.345,54.401],[-162.844,54.51]]],[[[-166.062,54.185],[-166.046,54.044],[-165.549,54.112],[-165.384,54.197],[-165.626,54.299],[-166.062,54.185]]],[[[-167.431,60.197],[-167.333,60.067],[-166.795,59.913],[-166.362,59.839],[-166.085,59.84],[-165.582,59.908],[-165.709,60.066],[-165.68,60.292],[-166.037,60.319],[-166.15,60.437],[-166.372,60.355],[-166.836,60.269],[-167.431,60.197]]],[[[-167.791,53.336],[-167.622,53.25],[-167.166,53.413],[-166.749,53.441],[-166.445,53.641],[-166.139,53.731],[-166.098,53.827],[-166.508,53.924],[-166.645,54.014],[-167.031,53.945],[-167.142,53.827],[-167.006,53.755],[-167.279,53.479],[-167.791,53.336]]],[[[-168.129,65.656],[-168.048,65.569],[-167.474,65.413],[-166.439,65.319],[-166.48,65.167],[-166.912,65.126],[-166.432,64.883],[-166.483,64.755],[-166.237,64.584],[-165.292,64.481],[-164.808,64.449],[-164.307,64.561],[-163.686,64.569],[-163.413,64.525],[-163.133,64.382],[-162.858,64.5],[-162.54,64.531],[-162.188,64.672],[-161.646,64.776],[-161.377,64.773],[-161.133,64.898],[-160.783,64.717],[-160.793,64.619],[-161.198,64.497],[-161.264,64.398],[-160.962,64.221],[-160.783,63.753],[-161.191,63.49],[-161.982,63.446],[-162.401,63.634],[-162.708,63.578],[-162.352,63.454],[-162.527,63.317],[-163.054,63.058],[-163.316,63.038],[-163.733,63.213],[-164.067,63.262],[-164.442,63.203],[-164.607,63.113],[-164.962,62.658],[-165.672,62.14],[-165.744,61.963],[-165.64,61.847],[-166.094,61.814],[-166.212,61.608],[-165.746,61.489],[-165.921,61.403],[-165.623,61.278],[-165.64,61.138],[-165.058,61.06],[-165.085,60.914],[-164.992,60.699],[-165.368,60.581],[-165.363,60.507],[-164.985,60.35],[-164.699,60.296],[-164.411,60.098],[-164.132,59.991],[-164.133,59.846],[-163.931,59.804],[-163.458,59.81],[-162.515,59.976],[-162.228,60.056],[-161.703,59.491],[-162.049,59.254],[-161.804,58.992],[-161.824,58.735],[-161.752,58.552],[-161.372,58.666],[-161.338,58.743],[-160.731,58.921],[-160.323,58.954],[-160.151,58.866],[-159.793,58.824],[-159.712,58.929],[-159.41,58.774],[-159.063,58.423],[-158.881,58.391],[-158.704,58.483],[-158.861,58.696],[-158.768,58.864],[-158.377,58.748],[-158.14,58.615],[-157.117,58.868],[-157.062,58.74],[-157.481,58.481],[-157.709,57.657],[-157.679,57.564],[-158.084,57.357],[-158.32,57.282],[-158.679,56.989],[-158.656,56.81],[-158.973,56.842],[-159.535,56.627],[-159.828,56.544],[-160.386,56.28],[-160.59,55.983],[-160.807,56.024],[-161.157,56.012],[-161.808,55.892],[-162.22,55.711],[-162.642,55.393],[-162.9,55.252],[-163.315,55.126],[-163.281,55.033],[-163.774,55.056],[-164.577,54.825],[-164.742,54.645],[-164.949,54.58],[-164.861,54.431],[-164.64,54.391],[-164.353,54.465],[-164.258,54.573],[-164.038,54.625],[-163.572,54.623],[-163.069,54.713],[-163.255,54.839],[-162.962,54.994],[-162.834,54.927],[-162.414,55.037],[-162.428,54.895],[-162.237,54.882],[-162.219,55.029],[-161.957,55.112],[-161.686,55.408],[-161.587,55.62],[-161.393,55.628],[-161.486,55.359],[-161.254,55.356],[-160.977,55.473],[-160.521,55.474],[-160.393,55.603],[-159.847,55.803],[-159.533,55.676],[-159.086,55.835],[-159.096,55.915],[-158.431,55.994],[-158.374,56.135],[-158.118,56.231],[-158.49,56.342],[-158.285,56.481],[-157.818,56.514],[-157.919,56.643],[-157.497,56.617],[-157.531,56.754],[-156.551,56.985],[-156.334,57.182],[-156.362,57.4],[-156.047,57.526],[-155.733,57.55],[-155.609,57.778],[-155.354,57.715],[-155.119,57.954],[-154.877,58.028],[-154.582,58.019],[-154.222,58.133],[-153.851,58.612],[-153.592,58.64],[-153.267,58.867],[-153.696,59.074],[-154.063,59.072],[-154.181,59.123],[-153.999,59.385],[-153.699,59.464],[-153.542,59.63],[-153.052,59.692],[-152.967,59.881],[-152.701,59.92],[-152.575,60.048],[-152.54,60.242],[-152.411,60.288],[-152.331,60.474],[-151.898,60.722],[-151.8,60.854],[-151.48,61.011],[-151.167,61.046],[-150.939,61.21],[-150.68,61.266],[-150.205,61.26],[-150.066,61.151],[-149.717,61.011],[-149.985,60.879],[-150.194,60.901],[-150.402,61.036],[-151.063,60.787],[-151.41,60.711],[-151.282,60.496],[-151.422,60.213],[-151.718,60.009],[-151.869,59.769],[-151.643,59.647],[-151.328,59.573],[-151.887,59.421],[-151.984,59.279],[-151.858,59.144],[-151.662,59.09],[-151.126,59.21],[-150.823,59.331],[-150.43,59.343],[-149.919,59.692],[-149.507,59.771],[-149.123,59.969],[-148.479,59.936],[-147.957,59.959],[-147.855,59.872],[-147.508,59.842],[-147.258,60.108],[-146.916,60.291],[-146.608,60.241],[-146.393,60.327],[-145.989,60.387],[-145.639,60.302],[-145.38,60.353],[-145.089,60.32],[-144.929,60.228],[-144.655,60.205],[-144.349,60.091],[-144.11,60.099],[-143.897,59.986],[-143.624,60.037],[-142.745,60.094],[-141.595,59.962],[-141.393,59.87],[-140.793,59.729],[-140.243,59.688],[-139.777,59.834],[-139.609,59.822],[-139.586,59.643],[-139.861,59.547],[-139.42,59.38],[-138.92,59.249],[-138.637,59.131],[-138.224,59.032],[-137.952,58.886],[-137.942,58.794],[-137.568,58.588],[-136.592,58.218],[-136.437,58.302],[-136.042,58.38],[-135.728,58.397],[-135.408,58.343],[-135.088,58.2],[-135.104,58.449],[-134.751,58.392],[-134.631,58.247],[-134.147,58.199],[-133.849,57.935],[-133.52,57.531],[-133.472,57.369],[-133.545,57.243],[-133.322,57.113],[-132.938,57.048],[-132.792,56.856],[-132.557,56.757],[-132.451,56.564],[-132.628,56.463],[-132.977,56.44],[-133.07,56.331],[-132.718,56.218],[-132.709,56.112],[-132.493,56.066],[-132.28,55.925],[-132.183,55.588],[-131.844,55.457],[-131.862,55.289],[-131.748,55.129],[-131.605,55.107],[-131.622,54.947],[-131.328,54.859],[-130.997,55.044],[-130.932,54.807],[-130.637,54.778],[-130.34,54.921],[-130.002,55.265],[-130.12,55.564],[-130.124,55.807],[-130.004,55.993],[-130.103,56.117],[-130.426,56.141],[-130.467,56.24],[-130.811,56.371],[-131.086,56.407],[-131.581,56.613],[-131.835,56.602],[-131.872,56.805],[-132.126,56.875],[-132.051,57.051],[-132.371,57.095],[-132.252,57.216],[-132.559,57.504],[-133.176,58.15],[-133.461,58.386],[-133.38,58.428],[-133.84,58.728],[-134.251,58.858],[-134.481,59.128],[-134.702,59.248],[-134.962,59.28],[-135.067,59.422],[-135.027,59.564],[-135.477,59.8],[-135.946,59.664],[-136.351,59.599],[-136.474,59.464],[-136.467,59.284],[-136.582,59.165],[-136.827,59.158],[-137.447,58.91],[-137.604,59.243],[-138.585,59.752],[-138.702,59.91],[-139.046,59.998],[-139.2,60.091],[-139.087,60.358],[-139.698,60.34],[-139.989,60.185],[-140.472,60.311],[-140.535,60.224],[-141.002,60.306],[-141.002,61.904],[-141.002,65.839],[-141.003,68.498],[-141.003,69.646],[-141.431,69.695],[-141.713,69.789],[-142.404,69.917],[-142.747,70.043],[-143.282,70.151],[-143.914,70.116],[-144.672,69.967],[-145.175,69.992],[-146.006,70.14],[-146.508,70.186],[-147.162,70.156],[-147.765,70.22],[-147.864,70.293],[-148.351,70.304],[-148.667,70.43],[-149.462,70.518],[-149.867,70.511],[-150.302,70.418],[-150.557,70.482],[-151.175,70.376],[-151.74,70.436],[-151.697,70.548],[-152.434,70.617],[-152.192,70.795],[-152.424,70.859],[-153.238,70.922],[-153.89,70.886],[-154.127,70.778],[-154.572,70.826],[-154.581,71.007],[-155.061,71.145],[-155.513,70.941],[-155.588,71.173],[-156.531,71.296],[-156.81,71.287],[-157.421,70.977],[-158.032,70.832],[-158.574,70.795],[-159.648,70.794],[-160.215,70.559],[-160.813,70.377],[-161.288,70.297],[-161.879,70.329],[-162.302,70.204],[-162.989,69.825],[-163.151,69.613],[-163.245,69.306],[-163.574,69.124],[-164.253,68.931],[-165.522,68.856],[-166.224,68.873],[-166.193,68.727],[-166.328,68.442],[-166.601,68.334],[-166.089,68.221],[-165.975,68.141],[-165.35,68.026],[-164.051,67.566],[-163.879,67.416],[-163.702,67.109],[-162.635,66.998],[-162.501,66.743],[-162.175,66.688],[-161.485,66.262],[-161.838,66.023],[-162.331,66.031],[-162.751,66.09],[-163.695,66.06],[-163.917,66.19],[-163.873,66.389],[-163.604,66.558],[-164.401,66.581],[-165.407,66.42],[-166.769,66.069],[-167.283,65.897],[-167.98,65.728],[-168.129,65.656]]],[[[-169.287,52.785],[-168.756,52.908],[-168.457,53.056],[-168.296,53.227],[-167.842,53.386],[-167.789,53.519],[-168.027,53.563],[-168.342,53.476],[-168.445,53.265],[-168.763,53.183],[-168.785,53.045],[-169.287,52.785]]],[[[-170.171,52.785],[-169.704,52.777],[-169.858,52.909],[-170.092,52.919],[-170.171,52.785]]],[[[-171.837,63.565],[-171.76,63.382],[-171.433,63.308],[-171.226,63.395],[-170.896,63.418],[-170.431,63.314],[-170.263,63.179],[-170.05,63.163],[-169.568,62.977],[-169.535,63.074],[-169.231,63.173],[-168.842,63.154],[-168.685,63.296],[-169.463,63.36],[-170.008,63.475],[-170.096,63.613],[-170.345,63.694],[-170.951,63.57],[-171.803,63.716],[-171.837,63.565]]],[[[-173.075,60.705],[-173.064,60.503],[-172.63,60.335],[-172.546,60.412],[-172.847,60.517],[-173.075,60.705]]],[[[-175.302,52.056],[-175.323,52.007],[-174.409,52.013],[-174.278,52.089],[-173.513,52.025],[-173.53,52.159],[-174.023,52.134],[-173.985,52.318],[-174.185,52.418],[-174.456,52.314],[-174.463,52.213],[-174.715,52.127],[-175.302,52.056]]],[[[-176.95,51.687],[-176.715,51.62],[-176.467,51.727],[-175.998,51.802],[-175.789,51.919],[-176.056,52.109],[-176.211,52.065],[-176.174,51.882],[-176.576,51.842],[-176.58,52.003],[-176.81,51.927],[-176.95,51.687]]],[[[-177.67,51.743],[-177.651,51.654],[-177.105,51.719],[-177.228,51.804],[-177.67,51.743]]],[[[-178.197,51.905],[-177.868,51.679],[-177.615,51.855],[-177.887,51.851],[-178.197,51.905]]]]},"properties":{"NAME":"Alaska","STUSPS":"AK","GEOID":"02"}},
{"type":"Feature","geometry":{"type":"Polygon","coordinates":[[[-75.415,39.802],[-75.57,39.839],[-75.789,39.722],[-75.694,38.46],[-75.049,38.451],[-75.089,38.797],[-75.304,38.913],[-75.396,39.058],[-75.408,39.265],[-75.572,39.439],[-75.528,39.498],[-75.559,39.63],[-75.415,39.802]]]},"properties":{"NAME":"Delaware","STUSPS":"DE","GEOID":"10"}},
{"type":"Feature","geometry":{"type":"Polygon","coordinates":[[[-109.045,36.999],[-109.046,36.117],[-109.046,34.96],[-109.046,33.875],[-109.047,32.778],[-109.05,31.333],[-108.209,31.333],[-108.208,31.784],[-106.528,31.783],[-106.636,31.872],[-106.618,32],[-105.998,32.002],[-104.644,32],[-103.064,32.001],[-103.065,32.849],[-103.044,34.079],[-103.043,35.183],[-103.042,36.5],[-103.002,36.5],[-103.002,37],[-104.732,36.993],[-106.006,36.995],[-106.877,37],[-108.001,37],[-109.045,36.999]]]},"properties":{"NAME":"New Mexico","STUSPS":"NM","GEOID":"35"}},
{"type":"Feature","geometry":{"type":"Polygon","coordinates":[[[-88.2,34.996],[-88.098,34.892],[-88.207,34.058],[-88.317,33.184],[-88.469,31.933],[-88.432,31.114],[-88.395,30.369],[-88.136,30.321],[-88.062,30.645],[-87.931,30.653],[-87.933,30.487],[-87.797,30.324],[-87.819,30.228],[-87.518,30.28],[-87.452,30.344],[-87.4,30.657],[-87.635,30.866],[-87.599,30.997],[-85.894,30.993],[-85.002,31.001],[-85.108,31.186],[-85.042,31.545],[-85.142,31.839],[-85.068,31.967],[-85.059,32.136],[-84.892,32.263],[-85.008,32.337],[-84.972,32.443],[-85.07,32.583],[-85.184,32.861],[-85.429,34.125],[-85.605,34.985],[-86.784,34.992],[-88.2,34.996]]]},"properties":{"NAME":"Alabama","STUSPS":"AL","GEOID":"01"}},
{"type":"Feature","geometry":{"type":"Polygon","coordinates":[[[-102.052,40.003],[-102.046,38.698],[-102.042,37.739],[-102.042,36.993],[-100.856,36.999],[-99.129,36.999],[-97.462,36.999],[-95.787,36.999],[-94.618,36.999],[-94.613,38.238],[-94.607,39.113],[-94.8,39.206],[-95.114,39.554],[-94.86,39.75],[-94.952,39.901],[-95.082,39.862],[-95.308,40],[-96.47,40.001],[-98.076,40.002],[-99.813,40.001],[-101.06,40.002],[-102.052,40.003]]]},"properties":{"NAME":"Kansas","STUSPS":"KS","GEOID":"20"}},
{"type":"Feature","geometry":{"type":"Polygon","coordinates":[[[-73.343,45.011],[-73.334,44.802],[-73.39,44.62],[-73.294,44.441],[-73.317,44.258],[-73.437,44.043],[-73.351,43.77],[-73.415,43.658],[-73.242,43.535],[-73.279,42.833],[-73.265,42.746],[-72.459,42.727],[-72.54,42.805],[-72.445,43.004],[-72.379,43.574],[-72.183,43.808],[-72.037,44.103],[-72.046,44.292],[-71.819,44.353],[-71.58,44.502],[-71.627,44.747],[-71.494,44.912],[-71.501,45.013],[-72.349,45.006],[-73.343,45.011]]]},"properties":{"NAME":"Vermont","STUSPS":"VT","GEOID":"50"}},
{"type":"Feature","geometry":{"type":"Polygon","coordinates":[[[-75.415,39.802],[-75.559,39.63],[-75.528,39.498],[-75.244,39.286],[-74.886,39.144],[-74.864,38.94],[-74.647,39.212],[-74.413,39.361],[-74.101,39.756],[-73.971,40.348],[-74.261,40.502],[-74.087,40.652],[-73.894,40.997],[-74.695,41.357],[-75.133,40.98],[-75.065,40.886],[-75.177,40.764],[-75.187,40.569],[-75.056,40.416],[-74.722,40.154],[-75.415,39.802]]]},"properties":{"NAME":"New Jersey","STUSPS":"NJ","GEOID":"34"}},
{"type":"Feature","geometry":{"type":"Polygon","coordinates":[[[-71.501,45.013],[-71.494,44.912],[-71.627,44.747],[-71.58,44.502],[-71.819,44.353],[-72.046,44.292],[-72.037,44.103],[-72.183,43.808],[-72.379,43.574],[-72.445,43.004],[-72.54,42.805],[-72.459,42.727],[-71.294,42.697],[-71.15,42.815],[-70.817,42.872],[-70.704,43.06],[-70.984,43.376],[-70.973,43.57],[-71.037,44.736],[-71.084,45.305],[-71.284,45.302],[-71.501,45.013]]]},"properties":{"NAME":"New Hampshire","STUSPS":"NH","GEOID":"33"}},
{"type":"Feature","geometry":{"type":"Polygon","coordinates":[[[-114.72,32.719],[-114.814,32.494],[-113.751,32.169],[-112.365,31.741],[-111.075,31.332],[-109.83,31.334],[-109.05,31.333],[-109.047,32.778],[-109.046,33.875],[-109.046,34.96],[-109.046,36.117],[-109.045,36.999],[-110.001,36.998],[-111.278,37],[-112.966,37],[-114.051,37],[-114.047,36.194],[-114.152,36.025],[-114.372,36.143],[-114.736,36.104],[-114.664,35.449],[-114.573,35.139],[-114.633,35.002],[-114.634,34.873],[-114.465,34.691],[-114.335,34.45],[-114.139,34.26],[-114.428,34.093],[-114.535,33.928],[-114.497,33.719],[-114.525,33.552],[-114.707,33.377],[-114.671,33.038],[-114.511,33.023],[-114.469,32.845],[-114.571,32.747],[-114.72,32.719]]]},"properties":{"NAME":"Arizona","STUSPS":"AZ","GEOID":"04"}}
]}